register_id;name;created;modified;addresses_road_name;addresses_start_street_number;neighbourhood_code;neighbourhood_name;district_code;district_name;zip_code;addresses_town;geo_epgs_25831_x;geo_epgs_25831_y;geo_epgs_4326_x;geo_epgs_4326_y
﻿99400197039;Restaurant Cocteleria Ebano;27.12.07 14:01;28.05.21 14:38;Av Paral·lel;124;10;Sant Antoni;2;Eixample;8015;BARCELONA;4,29921E+16;4,58075E+15;4,13752E+14;2,16196E+15
﻿99400197039;Restaurant Cocteleria Ebano;27.12.07 14:01;28.05.21 14:38;Av Paral·lel;124;10;Sant Antoni;2;Eixample;8015;BARCELONA;4,29921E+16;4,58075E+15;4,13752E+14;2,16196E+15
﻿99400191791;Sala Monasterio;03.10.07 12:54;17.09.22 06:52;Moll Mestral;30;67;la Vila Olímpica del Poblenou;10;Sant Martí;8005;BARCELONA;4,33079E+16;4,58214E+15;4,1388E+15;2,19958E+16
﻿99400191791;Sala Monasterio;03.10.07 12:54;17.09.22 06:52;Moll Mestral;30;67;la Vila Olímpica del Poblenou;10;Sant Martí;8005;BARCELONA;4,33079E+16;4,58214E+15;4,1388E+15;2,19958E+16
﻿75990102799;Bar musical Aloha;18.09.96 00:00;28.05.21 14:37;C Provença;159;8;l'Antiga Esquerra de l'Eixample;2;Eixample;8036;BARCELONA;4,29328E+16;4,58237E+15;4,13898E+16;2,15469E+15
﻿75990102799;Bar musical Aloha;18.09.96 00:00;28.05.21 14:37;C Provença;159;8;l'Antiga Esquerra de l'Eixample;2;Eixample;8036;BARCELONA;4,29328E+16;4,58237E+15;4,13898E+16;2,15469E+15
﻿75990102799;Bar musical Aloha;18.09.96 00:00;28.05.21 14:37;C Provença;159;8;l'Antiga Esquerra de l'Eixample;2;Eixample;8036;BARCELONA;4,29328E+16;4,58237E+15;4,13898E+16;2,15469E+15
﻿99400191112;Bar Betty Ford;27.09.07 10:11;28.05.21 14:38;C Joaquín Costa;56;1;el Raval;1;Ciutat Vella;8001;BARCELONA;4,30189E+16;4,58165E+15;4,13833E+15;2,16507E+15
﻿99400191112;Bar Betty Ford;27.09.07 10:11;28.05.21 14:38;C Joaquín Costa;56;1;el Raval;1;Ciutat Vella;8001;BARCELONA;4,30189E+16;4,58165E+15;4,13833E+15;2,16507E+15
﻿99400191112;Bar Betty Ford;27.09.07 10:11;28.05.21 14:38;C Joaquín Costa;56;1;el Raval;1;Ciutat Vella;8001;BARCELONA;4,30189E+16;4,58165E+15;4,13833E+15;2,16507E+15
﻿99400191214;Jamming Lounge;27.09.07 13:43;17.09.22 06:52;C Vallfogona;23;31;la Vila de Gràcia;6;Gràcia;8012;BARCELONA;4,29618E+14;4,5839E+15;4,14036E+15;2,15798E+16
﻿99400152408;Salsongu;25.01.06 12:09;17.09.22 06:34;Ptge Utset;11;6;la Sagrada Família;2;Eixample;8013;BARCELONA;4,31285E+15;4,58399E+14;4,14045E+16;2,17791E+16
﻿75990162835;Bar musical Ceferino;18.09.96 00:00;17.09.22 03:09;Pamplona;88;66;el Parc i la Llacuna del Poblenou;10;Sant Martí;8018;BARCELONA;4,32396E+16;4,58314E+15;4,13969E+15;2,1913E+16
﻿99400595721;Restaurant Nº30 Barceloneta;25.06.18 09:54;28.05.21 14:38;Pg Joan Borbó Comte Barcelona;30;3;la Barceloneta;1;Ciutat Vella;8003;BARCELONA;4,32105E+16;4,58115E+15;4,1379E+15;2,18804E+16
﻿99400595721;Restaurant Nº30 Barceloneta;25.06.18 09:54;28.05.21 14:38;Pg Joan Borbó Comte Barcelona;30;3;la Barceloneta;1;Ciutat Vella;8003;BARCELONA;4,32105E+16;4,58115E+15;4,1379E+15;2,18804E+16
﻿99400595721;Restaurant Nº30 Barceloneta;25.06.18 09:54;28.05.21 14:38;Pg Joan Borbó Comte Barcelona;30;3;la Barceloneta;1;Ciutat Vella;8003;BARCELONA;4,32105E+16;4,58115E+15;4,1379E+15;2,18804E+16
﻿99400204473;Sala-Escenari;16.04.08 00:00;17.09.22 06:59;Pl Reial;7;2;el Barri Gòtic;1;Ciutat Vella;8002;BARCELONA;4,31033E+15;4,58133E+15;4,13806E+15;2,17519E+15
﻿99400592642;Bar Musical Ende;23.05.18 11:22;17.09.22 09:18;C Casanova;210;8;l'Antiga Esquerra de l'Eixample;2;Eixample;8036;BARCELONA;4,28968E+16;4,58262E+15;4,13919E+15;2,15035E+15
﻿99400576029;The Palace Bar;01.02.18 15:17;17.09.22 09:12;C Calàbria;292;9;la Nova Esquerra de l'Eixample;2;Eixample;8029;BARCELONA;4,28394E+16;4,58224E+15;4,13885E+16;2,14353E+16
﻿92086036670;Les Enfants;28.08.91 00:00;17.09.22 04:47;Guàrdia;3;1;el Raval;1;Ciutat Vella;8001;BARCELONA;4,30905E+14;4,58106E+15;4,13781E+15;2,1737E+16
﻿75990075446;Bar Musical Samba Brasil *Lepant;18.09.96 00:00;28.05.21 14:37;C Lepant;297;6;la Sagrada Família;2;Eixample;8025;BARCELONA;4,31029E+16;4,58413E+15;4,14057E+16;2,17483E+16
﻿75990075446;Bar Musical Samba Brasil *Lepant;18.09.96 00:00;28.05.21 14:37;C Lepant;297;6;la Sagrada Família;2;Eixample;8025;BARCELONA;4,31029E+16;4,58413E+15;4,14057E+16;2,17483E+16
﻿75990075446;Bar Musical Samba Brasil *Lepant;18.09.96 00:00;28.05.21 14:37;C Lepant;297;6;la Sagrada Família;2;Eixample;8025;BARCELONA;4,31029E+16;4,58413E+15;4,14057E+16;2,17483E+16
﻿99400576356;Bar musical The Good Feeling;06.02.18 14:13;17.09.22 09:12;C Consell de Cent;319;7;la Dreta de l'Eixample;2;Eixample;8007;BARCELONA;4,30051E+16;4,58233E+15;4,13895E+15;2,16334E+16
﻿99400594182;Pub The Lima House;08.06.18 11:00;17.09.22 09:20;C Carders;31;4;Sant Pere, Santa Caterina i la Ribera;1;Ciutat Vella;8003;BARCELONA;4,31467E+16;4,58204E+15;4,1387E+15;2,1803E+15
﻿99400576353;Bar musical Enigma;06.02.18 14:03;17.09.22 09:12;C Taquígraf Garriga;106;19;les Corts;4;Les Corts;8029;BARCELONA;4,27808E+16;4,58224E+15;4,13885E+15;2,13653E+16
﻿75990334360;Sala Tarantos;18.09.96 00:00;17.09.22 03:24;Pl Reial;17;2;el Barri Gòtic;1;Ciutat Vella;8002;BARCELONA;4,3104E+15;4,58124E+15;4,13797E+14;2,17529E+16
﻿75990334365;Restaurant Tablao de Carmen *Poble Espanyol;18.09.96 00:00;17.09.22 03:24;Av Francesc Ferrer i Guàrdia;13;11;el Poble-sec;3;Sants-Montjuïc;8038;BARCELONA;4,28641E+15;4,58009E+15;4,13691E+15;2,14674E+16
﻿75990334365;Restaurant Tablao de Carmen *Poble Espanyol;18.09.96 00:00;17.09.22 03:24;Av Francesc Ferrer i Guàrdia;13;11;el Poble-sec;3;Sants-Montjuïc;8038;BARCELONA;4,28641E+15;4,58009E+15;4,13691E+15;2,14674E+16
﻿75990210235;Bar Musical Samba Brasil *Horta;18.09.96 00:00;17.09.22 03:13;C Santes Creus;20;43;Horta;7;Horta-Guinardó;8031;BARCELONA;4,29992E+16;4,58684E+15;4,14301E+15;2,16211E+15
﻿99400576585;Bar Musical Bar de Retro;08.02.18 14:49;17.09.22 09:12;C Torrent de l'Olla;141;31;la Vila de Gràcia;6;Gràcia;8012;BARCELONA;4,29417E+15;4,5839E+15;4,14036E+15;2,15557E+15
﻿92086026825;Cocteleria Sucu Sucu;06.05.88 00:00;28.05.21 14:37;C París;150;8;l'Antiga Esquerra de l'Eixample;2;Eixample;8036;BARCELONA;4,29015E+15;4,5826E+15;4,13918E+15;2,15092E+15
﻿92086026825;Cocteleria Sucu Sucu;06.05.88 00:00;28.05.21 14:37;C París;150;8;l'Antiga Esquerra de l'Eixample;2;Eixample;8036;BARCELONA;4,29015E+15;4,5826E+15;4,13918E+15;2,15092E+15
﻿99400597006;Bar Musical Hot;10.07.18 15:57;28.05.21 14:38;C Tuset;28;26;Sant Gervasi - Galvany;5;Sarrià-Sant Gervasi;8006;BARCELONA;4,29088E+15;4,5831E+15;4,13963E+15;2,15173E+15
﻿99400597006;Bar Musical Hot;10.07.18 15:57;28.05.21 14:38;C Tuset;28;26;Sant Gervasi - Galvany;5;Sarrià-Sant Gervasi;8006;BARCELONA;4,29088E+15;4,5831E+15;4,13963E+15;2,15173E+15
﻿99400597006;Bar Musical Hot;10.07.18 15:57;28.05.21 14:38;C Tuset;28;26;Sant Gervasi - Galvany;5;Sarrià-Sant Gervasi;8006;BARCELONA;4,29088E+15;4,5831E+15;4,13963E+15;2,15173E+15
﻿99400603521;Restaurant Volta al Món;12.07.18 11:42;28.05.21 14:38;C Muntaner;51;8;l'Antiga Esquerra de l'Eixample;2;Eixample;8011;BARCELONA;4,29768E+15;4,58196E+15;4,13861E+15;2,16E+15
﻿99400603521;Restaurant Volta al Món;12.07.18 11:42;28.05.21 14:38;C Muntaner;51;8;l'Antiga Esquerra de l'Eixample;2;Eixample;8011;BARCELONA;4,29768E+15;4,58196E+15;4,13861E+15;2,16E+15
﻿99400603521;Restaurant Volta al Món;12.07.18 11:42;28.05.21 14:38;C Muntaner;51;8;l'Antiga Esquerra de l'Eixample;2;Eixample;8011;BARCELONA;4,29768E+15;4,58196E+15;4,13861E+15;2,16E+15
﻿75990356127;Discoteca Distrito Diagonal;18.09.96 00:00;17.09.22 03:27;Av Diagonal;442;7;la Dreta de l'Eixample;2;Eixample;8037;BARCELONA;4,2984E+16;4,58318E+15;4,13971E+15;2,16072E+16
﻿75990356127;Discoteca Distrito Diagonal;18.09.96 00:00;17.09.22 03:27;Av Diagonal;442;7;la Dreta de l'Eixample;2;Eixample;8037;BARCELONA;4,2984E+16;4,58318E+15;4,13971E+15;2,16072E+16
﻿99400048640;Bar Venezia;30.06.03 17:16;28.05.21 14:37;G.V. Corts Catalanes;667;7;la Dreta de l'Eixample;2;Eixample;8010;BARCELONA;4,30948E+14;4,58283E+15;4,13941E+16;2,17401E+15
﻿99400048640;Bar Venezia;30.06.03 17:16;28.05.21 14:37;G.V. Corts Catalanes;667;7;la Dreta de l'Eixample;2;Eixample;8010;BARCELONA;4,30948E+14;4,58283E+15;4,13941E+16;2,17401E+15
﻿99400258359;Bar Musical Polaroid Bar;02.11.10 17:17;17.09.22 07:26;C Còdols;29;2;el Barri Gòtic;1;Ciutat Vella;8002;BARCELONA;4,31329E+16;4,5812E+15;4,13794E+15;2,17875E+15
﻿75990292800;Bar Cafeteria Cinemateca;18.09.96 00:00;17.09.22 03:21;C Pau Claris;120;7;la Dreta de l'Eixample;2;Eixample;8009;BARCELONA;4,30431E+16;4,58265E+15;4,13924E+15;2,16784E+16
﻿75990364728;Sala Almo2bar;18.09.96 00:00;17.09.22 03:28;C Bruniquer;59;31;la Vila de Gràcia;6;Gràcia;8024;BARCELONA;4,29967E+16;4,58413E+15;4,14056E+15;2,16212E+16
﻿99400596517;Bar Musical Decode;04.07.18 09:17;17.09.22 09:25;C Aribau;97;8;l'Antiga Esquerra de l'Eixample;2;Eixample;8036;BARCELONA;4,295E+15;4,58242E+15;4,13903E+15;2,15674E+16
﻿99400596554;Bar Village Club;04.07.18 12:42;17.09.22 09:25;C València;193;8;l'Antiga Esquerra de l'Eixample;2;Eixample;8011;BARCELONA;4,29682E+15;4,58234E+15;4,13895E+15;2,15892E+14
﻿75990410263;Bar musical Dow Jones;25.11.96 00:00;17.09.22 03:31;Bruc;97;7;la Dreta de l'Eixample;2;Eixample;8009;BARCELONA;4,30425E+15;4,58301E+15;4,13956E+16;2,16774E+16
﻿99400328182;Discoteca Ker Club Barcelona;15.10.13 12:56;17.09.22 07:58;C Ramon Trias Fargas;2;3;la Barceloneta;1;Ciutat Vella;8005;BARCELONA;4,32825E+16;4,58192E+15;4,1386E+15;2,19656E+15
﻿75990368466;Sala Almodobar;18.09.96 00:00;17.09.22 03:29;C Grassot;36;32;el Camp d'en Grassot i Gràcia Nova;6;Gràcia;8025;BARCELONA;4,30419E+15;4,5839E+15;4,14036E+15;2,16756E+16
﻿75990368466;Sala Almodobar;18.09.96 00:00;17.09.22 03:29;C Grassot;36;32;el Camp d'en Grassot i Gràcia Nova;6;Gràcia;8025;BARCELONA;4,30419E+15;4,5839E+15;4,14036E+15;2,16756E+16
﻿75990491713;Discoteca Mojito Club;11.04.98 00:00;17.09.22 03:35;C Rosselló;217;8;l'Antiga Esquerra de l'Eixample;2;Eixample;8008;BARCELONA;4,2952E+15;4,58274E+15;4,13932E+15;2,15694E+15
﻿99400576566;Bar Mil Miralls;08.02.18 13:43;28.05.21 14:38;C Perla;37;31;la Vila de Gràcia;6;Gràcia;8012;BARCELONA;4,29622E+16;4,58395E+15;4,1404E+15;2,15802E+15
﻿99400576566;Bar Mil Miralls;08.02.18 13:43;28.05.21 14:38;C Perla;37;31;la Vila de Gràcia;6;Gràcia;8012;BARCELONA;4,29622E+16;4,58395E+15;4,1404E+15;2,15802E+15
﻿75990102529;Discoteca Performance con Atxé;18.09.96 00:00;17.09.22 02:59;C Provença;43;9;la Nova Esquerra de l'Eixample;2;Eixample;8029;BARCELONA;4,28694E+15;4,58176E+15;4,13842E+15;2,14718E+15
﻿99400592967;Bar Musical Nix;25.05.18 14:40;17.09.22 09:18;C Rosselló;156;8;l'Antiga Esquerra de l'Eixample;2;Eixample;8036;BARCELONA;4,29342E+15;4,58254E+16;4,13913E+15;2,15483E+15
﻿99400592993;Cocteleria San Basilio;28.05.18 10:39;28.05.21 14:38;Av Diagonal;337;7;la Dreta de l'Eixample;2;Eixample;8037;BARCELONA;4,3044E+16;4,58332E+15;4,13984E+16;2,16788E+15
﻿99400592993;Cocteleria San Basilio;28.05.18 10:39;28.05.21 14:38;Av Diagonal;337;7;la Dreta de l'Eixample;2;Eixample;8037;BARCELONA;4,3044E+16;4,58332E+15;4,13984E+16;2,16788E+15
﻿99400592993;Cocteleria San Basilio;28.05.18 10:39;28.05.21 14:38;Av Diagonal;337;7;la Dreta de l'Eixample;2;Eixample;8037;BARCELONA;4,3044E+16;4,58332E+15;4,13984E+16;2,16788E+15
﻿99400084667;Discoteca Restaurant Japonès Shôko;30.04.04 14:28;01.03.22 13:54;Passeig Marítim de la Barceloneta;36;3;la Barceloneta;1;Ciutat Vella;8003;Barcelona;4,32711E+15;4,58164E+15;4,13835E+15;2,19523E+16
﻿99400084667;Discoteca Restaurant Japonès Shôko;30.04.04 14:28;01.03.22 13:54;Passeig Marítim de la Barceloneta;36;3;la Barceloneta;1;Ciutat Vella;8003;Barcelona;4,32711E+15;4,58164E+15;4,13835E+15;2,19523E+16
﻿99400084667;Discoteca Restaurant Japonès Shôko;30.04.04 14:28;01.03.22 13:54;Passeig Marítim de la Barceloneta;36;3;la Barceloneta;1;Ciutat Vella;8003;Barcelona;4,32711E+15;4,58164E+15;4,13835E+15;2,19523E+16
﻿75990018326;Discoteca Barroko's;17.09.96 00:00;17.09.22 02:39;Aribau;242;26;Sant Gervasi - Galvany;5;Sarrià-Sant Gervasi;8006;BARCELONA;4,28921E+15;4,58305E+15;4,13958E+16;2,14974E+16
﻿75990018326;Discoteca Barroko's;17.09.96 00:00;17.09.22 02:39;Aribau;242;26;Sant Gervasi - Galvany;5;Sarrià-Sant Gervasi;8006;BARCELONA;4,28921E+15;4,58305E+15;4,13958E+16;2,14974E+16
﻿99111164534;Discoteca New Kimbara;21.04.99 00:00;17.09.22 05:50;Tajo;35;43;Horta;7;Horta-Guinardó;8031;BARCELONA;4,30016E+15;4,58678E+15;4,14296E+14;2,1624E+15
﻿99344155409;Bar musical Tinta Roja;10.12.99 00:00;17.09.22 05:55;Creu dels Molers;17;11;el Poble-sec;3;Sants-Montjuïc;8004;BARCELONA;4,29918E+15;4,58064E+15;4,13742E+15;2,16194E+15
﻿97338091450;Discoteca Costa Breve;04.12.97 00:00;17.09.22 05:36;Aribau;230;26;Sant Gervasi - Galvany;5;Sarrià-Sant Gervasi;8006;BARCELONA;4,2895E+15;4,58302E+15;4,13956E+15;2,15008E+15
﻿99012134012;Joker *Port Olímpic;12.01.99 00:00;17.09.22 05:47;Port Olímpic;100;67;la Vila Olímpica del Poblenou;10;Sant Martí;8005;BARCELONA;4,33054E+15;4,58211E+15;4,13877E+15;2,19928E+15
﻿96309203840;Bar musical Contraste;04.11.96 00:00;17.09.22 05:25;C Muntaner;130;8;l'Antiga Esquerra de l'Eixample;2;Eixample;8036;BARCELONA;4,29389E+16;4,58238E+15;4,13898E+16;2,15542E+16
﻿75990014746;Bar musical Alkimia Barcelona;17.09.96 00:00;17.09.22 02:38;C Amigó;35;26;Sant Gervasi - Galvany;5;Sarrià-Sant Gervasi;8021;BARCELONA;4,28489E+15;4,58298E+16;4,13951E+16;2,14458E+16
﻿99400040582;Bar restaurant Kasparo;20.05.03 11:49;17.09.22 06:02;Pl Vicenç Martorell;4;1;el Raval;1;Ciutat Vella;8001;BARCELONA;4,30517E+16;4,58177E+15;4,13845E+16;2,16898E+14
﻿99400050261;Bar Musical Ginger;08.07.03 15:11;17.09.22 06:03;C Palma de Sant Just;1;2;el Barri Gòtic;1;Ciutat Vella;8002;BARCELONA;4,31316E+16;4,58158E+15;4,13829E+15;2,17855E+16
﻿75990702934;Bar Musical Perifèric;26.05.01 00:00;17.09.22 03:41;C Tajo;5;43;Horta;7;Horta-Guinardó;8031;BARCELONA;4,30067E+16;4,58686E+15;4,14302E+15;2,16301E+15
﻿99400019767;Discoteca Louise se va;28.09.02 14:36;17.09.22 05:58;Pl Eivissa;11;43;Horta;7;Horta-Guinardó;8032;BARCELONA;4,29871E+16;4,58693E+15;4,14308E+15;2,16065E+15
﻿75990481637;Bar Restaurant Menta;17.01.98 00:00;17.09.22 03:34;C Casp;171;5;el Fort Pienc;2;Eixample;8013;BARCELONA;4,31736E+16;4,58338E+15;4,1399E+15;2,18337E+16
﻿75990481637;Bar Restaurant Menta;17.01.98 00:00;17.09.22 03:34;C Casp;171;5;el Fort Pienc;2;Eixample;8013;BARCELONA;4,31736E+16;4,58338E+15;4,1399E+15;2,18337E+16
﻿75990292924;Bar musical Mediterráneo;18.09.96 00:00;17.09.22 03:21;C Balmes;129;8;l'Antiga Esquerra de l'Eixample;2;Eixample;8008;BARCELONA;4,29586E+15;4,58272E+15;4,13929E+15;2,15773E+16
﻿92086018814;Discoteca New Beat;17.02.87 00:00;17.09.22 04:29;Balmes;86;7;la Dreta de l'Eixample;2;Eixample;8008;BARCELONA;4,29806E+16;4,58252E+15;4,13912E+15;2,16039E+15
﻿92086018814;Discoteca New Beat;17.02.87 00:00;17.09.22 04:29;Balmes;86;7;la Dreta de l'Eixample;2;Eixample;8008;BARCELONA;4,29806E+16;4,58252E+15;4,13912E+15;2,16039E+15
﻿92086018833;Bar musical Berimbau;18.02.87 00:00;17.09.22 04:29;Pg Born;17;4;Sant Pere, Santa Caterina i la Ribera;1;Ciutat Vella;8003;BARCELONA;4,31659E+16;4,58179E+13;4,13847E+15;2,18263E+16
﻿75990411185;Bar musical Espai Barroc;25.11.96 00:00;17.09.22 03:31;C Montcada;20;4;Sant Pere, Santa Caterina i la Ribera;1;Ciutat Vella;8003;BARCELONA;4,31569E+16;4,58178E+14;4,13847E+16;2,18156E+16
﻿99400070357;Diobar;31.12.03 10:39;17.09.22 06:07;Av Marquès de l'Argentera;27;4;Sant Pere, Santa Caterina i la Ribera;1;Ciutat Vella;8003;BARCELONA;4,31896E+15;4,58187E+15;4,13855E+16;2,18546E+16
﻿92086027652;Bar musical Mirablau;12.07.88 00:00;17.09.22 04:37;Plaça del Doctor Andreu;1;25;Sant Gervasi - la Bonanova;5;Sarrià-Sant Gervasi;8035;Barcelona;4,27412E+16;4,58534E+15;4,14163E+15;2,13142E+16
﻿92086027652;Bar musical Mirablau;12.07.88 00:00;17.09.22 04:37;Plaça del Doctor Andreu;1;25;Sant Gervasi - la Bonanova;5;Sarrià-Sant Gervasi;8035;Barcelona;4,27412E+16;4,58534E+15;4,14163E+15;2,13142E+16
﻿75990473967;Restaurant Bar Margarita Blue;06.09.97 00:00;17.09.22 03:34;C Josep Anselm Clavé;6;2;el Barri Gòtic;1;Ciutat Vella;8002;BARCELONA;4,31299E+16;4,58104E+16;4,1378E+15;2,17842E+15
﻿75990473967;Restaurant Bar Margarita Blue;06.09.97 00:00;17.09.22 03:34;C Josep Anselm Clavé;6;2;el Barri Gòtic;1;Ciutat Vella;8002;BARCELONA;4,31299E+16;4,58104E+16;4,1378E+15;2,17842E+15
﻿92293205526;Discoteca Merlin;19.10.92 00:00;17.09.22 04:58;C Àvila;142;66;el Parc i la Llacuna del Poblenou;10;Sant Martí;8018;BARCELONA;4,32359E+16;4,58356E+15;4,14007E+15;2,19081E+15
﻿333173100;Razzmatazz;28.11.00 00:00;17.09.22 02:20;C Almogàvers;122;66;el Parc i la Llacuna del Poblenou;10;Sant Martí;8018;BARCELONA;4,3238E+16;4,58323E+15;4,13978E+14;2,1911E+16
﻿333173100;Razzmatazz;28.11.00 00:00;17.09.22 02:20;C Almogàvers;122;66;el Parc i la Llacuna del Poblenou;10;Sant Martí;8018;BARCELONA;4,3238E+16;4,58323E+15;4,13978E+14;2,1911E+16
﻿119161015;Bar Zelig;28.04.00 00:00;17.09.22 02:16;C Carme;116;1;el Raval;1;Ciutat Vella;8001;BARCELONA;4,30286E+14;4,58125E+15;4,13798E+15;2,16627E+16
﻿99400158516;Creperia Creps al Born;09.05.06 11:49;28.05.21 14:37;Pg Born;12;4;Sant Pere, Santa Caterina i la Ribera;1;Ciutat Vella;8003;BARCELONA;4,31665E+15;4,58175E+15;4,13843E+14;2,18271E+15
﻿99400158516;Creperia Creps al Born;09.05.06 11:49;28.05.21 14:37;Pg Born;12;4;Sant Pere, Santa Caterina i la Ribera;1;Ciutat Vella;8003;BARCELONA;4,31665E+15;4,58175E+15;4,13843E+14;2,18271E+15
﻿99400050225;Restaurant Cafeteria Bòria Café *Poble Espanyol;08.07.03 12:59;17.09.22 06:03;Av Francesc Ferrer Guàrdia;13;11;el Poble-sec;3;Sants-Montjuïc;8038;BARCELONA;4,28641E+15;4,58009E+15;4,13691E+15;2,14674E+16
﻿99400050225;Restaurant Cafeteria Bòria Café *Poble Espanyol;08.07.03 12:59;17.09.22 06:03;Av Francesc Ferrer Guàrdia;13;11;el Poble-sec;3;Sants-Montjuïc;8038;BARCELONA;4,28641E+15;4,58009E+15;4,13691E+15;2,14674E+16
﻿75990028307;Cocteleria Trípode;17.09.96 00:00;28.05.21 14:37;Pg Born;17;4;Sant Pere, Santa Caterina i la Ribera;1;Ciutat Vella;8003;BARCELONA;4,31659E+15;4,58179E+16;4,13847E+15;2,18263E+16
﻿75990028307;Cocteleria Trípode;17.09.96 00:00;28.05.21 14:37;Pg Born;17;4;Sant Pere, Santa Caterina i la Ribera;1;Ciutat Vella;8003;BARCELONA;4,31659E+15;4,58179E+16;4,13847E+15;2,18263E+16
﻿277161249;Bar musical Barcota;03.10.00 00:00;17.09.22 02:19;Canvis Nous;14;4;Sant Pere, Santa Caterina i la Ribera;1;Ciutat Vella;8003;BARCELONA;4,31596E+14;4,5816E+15;4,13831E+15;2,1819E+15
﻿99400593526;Bar Musical Carita Bonita;01.06.18 11:02;17.09.22 09:19;C Balmes;71;8;l'Antiga Esquerra de l'Eixample;2;Eixample;8007;BARCELONA;4,29865E+15;4,58243E+15;4,13904E+16;2,1611E+16
﻿99400204105;Bar Musical Pony Café;10.04.08 14:18;17.09.22 06:59;C Portal Nou;23;4;Sant Pere, Santa Caterina i la Ribera;1;Ciutat Vella;8003;BARCELONA;4,31499E+15;4,58224E+14;4,13888E+15;2,18066E+15
﻿99400576019;Bar musical Beirut 37;01.02.18 13:20;17.09.22 09:12;C Joaquín Costa;37;1;el Raval;1;Ciutat Vella;8001;BARCELONA;4,30245E+13;4,58156E+14;4,13826E+15;2,16575E+16
﻿1082172815;Sala B;23.03.01 00:00;17.09.22 02:22;C Muntaner;246;26;Sant Gervasi - Galvany;5;Sarrià-Sant Gervasi;8021;BARCELONA;4,28863E+15;4,58291E+15;4,13946E+15;2,14906E+16
﻿75990490788;Bar Restaurant La Higuera;28.03.98 00:00;28.05.21 14:37;C Sicília;101;5;el Fort Pienc;2;Eixample;8013;BARCELONA;4,3153E+15;4,58302E+15;4,13958E+15;2,18095E+16
﻿75990490788;Bar Restaurant La Higuera;28.03.98 00:00;28.05.21 14:37;C Sicília;101;5;el Fort Pienc;2;Eixample;8013;BARCELONA;4,3153E+15;4,58302E+15;4,13958E+15;2,18095E+16
﻿75990490788;Bar Restaurant La Higuera;28.03.98 00:00;28.05.21 14:37;C Sicília;101;5;el Fort Pienc;2;Eixample;8013;BARCELONA;4,3153E+15;4,58302E+15;4,13958E+15;2,18095E+16
﻿75990210375;Big Bang Bar;18.09.96 00:00;17.09.22 03:13;C Botella;7;1;el Raval;1;Ciutat Vella;8001;BARCELONA;4,30259E+16;4,58118E+15;4,13791E+15;2,16596E+15
﻿99400033861;Bar La Rouge Raval Barcelona;13.02.03 14:19;17.09.22 06:00;Rbla Raval;10;1;el Raval;1;Ciutat Vella;8001;BARCELONA;4,30507E+15;4,58113E+15;4,13787E+15;2,16893E+16
﻿75990097460;Slow Barcelona Cocktails & Boite;18.09.96 00:00;28.05.21 14:37;C París;186;8;l'Antiga Esquerra de l'Eixample;2;Eixample;8036;BARCELONA;4,29223E+15;4,5828E+15;4,13936E+16;2,15338E+16
﻿75990097460;Slow Barcelona Cocktails & Boite;18.09.96 00:00;28.05.21 14:37;C París;186;8;l'Antiga Esquerra de l'Eixample;2;Eixample;8036;BARCELONA;4,29223E+15;4,5828E+15;4,13936E+16;2,15338E+16
﻿75990097460;Slow Barcelona Cocktails & Boite;18.09.96 00:00;28.05.21 14:37;C París;186;8;l'Antiga Esquerra de l'Eixample;2;Eixample;8036;BARCELONA;4,29223E+15;4,5828E+15;4,13936E+16;2,15338E+16
﻿75990097460;Slow Barcelona Cocktails & Boite;18.09.96 00:00;28.05.21 14:37;C París;186;8;l'Antiga Esquerra de l'Eixample;2;Eixample;8036;BARCELONA;4,29223E+15;4,5828E+15;4,13936E+16;2,15338E+16
﻿99400047732;Discoteca La Carpa Barcelona;27.06.03 15:52;17.09.22 06:03;Av Manuel Azaña;1;20;la Maternitat i Sant Ramon;4;Les Corts;8028;BARCELONA;4,25598E+15;4,581E+15;4,1377E+15;2,11024E+16
﻿99029084501;Bar Espit Chupito;29.01.99 00:00;17.09.22 05:48;C Aribau;77;8;l'Antiga Esquerra de l'Eixample;2;Eixample;8036;BARCELONA;4,29597E+16;4,58232E+16;4,13894E+14;2,15791E+16
﻿1033142110;Cerveseria Antibiòtic;02.02.01 00:00;17.09.22 02:21;Rocafort;225;9;la Nova Esquerra de l'Eixample;2;Eixample;8029;BARCELONA;4,28619E+16;4,58179E+15;4,13845E+15;2,14627E+16
﻿75990108061;Cocteleria Scotch Corner;18.09.96 00:00;28.05.21 14:37;C Sabino Arana;8;20;la Maternitat i Sant Ramon;4;Les Corts;8028;BARCELONA;4,26947E+16;4,58193E+15;4,13856E+15;2,12626E+15
﻿75990108061;Cocteleria Scotch Corner;18.09.96 00:00;28.05.21 14:37;C Sabino Arana;8;20;la Maternitat i Sant Ramon;4;Les Corts;8028;BARCELONA;4,26947E+16;4,58193E+15;4,13856E+15;2,12626E+15
﻿75990108061;Cocteleria Scotch Corner;18.09.96 00:00;28.05.21 14:37;C Sabino Arana;8;20;la Maternitat i Sant Ramon;4;Les Corts;8028;BARCELONA;4,26947E+16;4,58193E+15;4,13856E+15;2,12626E+15
﻿75990085638;Bar musical Alfa;18.09.96 00:00;17.09.22 02:55;Gran de Gràcia;36;31;la Vila de Gràcia;6;Gràcia;8012;BARCELONA;4,29519E+16;4,58338E+15;4,13988E+15;2,15685E+15
﻿75990085638;Bar musical Alfa;18.09.96 00:00;17.09.22 02:55;Gran de Gràcia;36;31;la Vila de Gràcia;6;Gràcia;8012;BARCELONA;4,29519E+16;4,58338E+15;4,13988E+15;2,15685E+15
﻿75990090372;Bar musical Punto BCN;18.09.96 00:00;28.05.21 14:37;C Muntaner;63;8;l'Antiga Esquerra de l'Eixample;2;Eixample;8011;BARCELONA;4,29698E+16;4,58203E+15;4,13867E+15;2,15915E+16
﻿75990090372;Bar musical Punto BCN;18.09.96 00:00;28.05.21 14:37;C Muntaner;63;8;l'Antiga Esquerra de l'Eixample;2;Eixample;8011;BARCELONA;4,29698E+16;4,58203E+15;4,13867E+15;2,15915E+16
﻿75990090372;Bar musical Punto BCN;18.09.96 00:00;28.05.21 14:37;C Muntaner;63;8;l'Antiga Esquerra de l'Eixample;2;Eixample;8011;BARCELONA;4,29698E+16;4,58203E+15;4,13867E+15;2,15915E+16
﻿75990210543;Cocteleria Stinger;18.09.96 00:00;28.05.21 14:37;C Còrsega;340;7;la Dreta de l'Eixample;2;Eixample;8037;BARCELONA;4,29871E+15;4,58325E+15;4,13977E+14;2,16108E+15
﻿75990210543;Cocteleria Stinger;18.09.96 00:00;28.05.21 14:37;C Còrsega;340;7;la Dreta de l'Eixample;2;Eixample;8037;BARCELONA;4,29871E+15;4,58325E+15;4,13977E+14;2,16108E+15
﻿75990157647;Sala Bóveda;18.09.96 00:00;17.09.22 03:09;C Roc Boronat;33;68;el Poblenou;10;Sant Martí;8005;BARCELONA;4,33131E+16;4,5833E+15;4,13984E+15;2,20007E+16
﻿75990157647;Sala Bóveda;18.09.96 00:00;17.09.22 03:09;C Roc Boronat;33;68;el Poblenou;10;Sant Martí;8005;BARCELONA;4,33131E+16;4,5833E+15;4,13984E+15;2,20007E+16
﻿92086024565;Bar Pub K.M.;31.12.87 00:00;17.09.22 04:34;C Alcolea;100;18;Sants;3;Sants-Montjuïc;8014;BARCELONA;4,27681E+16;4,58128E+15;4,13798E+14;2,13512E+15
﻿99400596592;Bar Pub That's the Way;05.07.18 09:10;28.05.21 14:38;C Entença;85;9;la Nova Esquerra de l'Eixample;2;Eixample;8015;BARCELONA;4,28985E+15;4,58123E+15;4,13794E+15;2,15071E+16
﻿99400596592;Bar Pub That's the Way;05.07.18 09:10;28.05.21 14:38;C Entença;85;9;la Nova Esquerra de l'Eixample;2;Eixample;8015;BARCELONA;4,28985E+15;4,58123E+15;4,13794E+15;2,15071E+16
﻿99400596592;Bar Pub That's the Way;05.07.18 09:10;28.05.21 14:38;C Entença;85;9;la Nova Esquerra de l'Eixample;2;Eixample;8015;BARCELONA;4,28985E+15;4,58123E+15;4,13794E+15;2,15071E+16
﻿99400596636;Restaurant Nogg;05.07.18 13:13;28.05.21 14:38;C Tuset;30;26;Sant Gervasi - Galvany;5;Sarrià-Sant Gervasi;8006;BARCELONA;4,29071E+16;4,58312E+15;4,13964E+15;2,15153E+16
﻿99400596636;Restaurant Nogg;05.07.18 13:13;28.05.21 14:38;C Tuset;30;26;Sant Gervasi - Galvany;5;Sarrià-Sant Gervasi;8006;BARCELONA;4,29071E+16;4,58312E+15;4,13964E+15;2,15153E+16
﻿99400596636;Restaurant Nogg;05.07.18 13:13;28.05.21 14:38;C Tuset;30;26;Sant Gervasi - Galvany;5;Sarrià-Sant Gervasi;8006;BARCELONA;4,29071E+16;4,58312E+15;4,13964E+15;2,15153E+16
﻿99400596688;Cocteleria Ventuno;06.07.18 08:58;28.05.21 14:38;C Or;21;31;la Vila de Gràcia;6;Gràcia;8012;BARCELONA;4,29533E+15;4,58401E+15;4,14046E+14;2,15695E+16
﻿99400596688;Cocteleria Ventuno;06.07.18 08:58;28.05.21 14:38;C Or;21;31;la Vila de Gràcia;6;Gràcia;8012;BARCELONA;4,29533E+15;4,58401E+15;4,14046E+14;2,15695E+16
﻿99400275889;Restaurant Cachitos Rambla;09.08.11 12:40;28.05.21 14:38;Rbla Catalunya;33;7;la Dreta de l'Eixample;2;Eixample;8007;BARCELONA;4,30217E+15;4,58234E+15;4,13896E+15;2,16532E+16
﻿99400275889;Restaurant Cachitos Rambla;09.08.11 12:40;28.05.21 14:38;Rbla Catalunya;33;7;la Dreta de l'Eixample;2;Eixample;8007;BARCELONA;4,30217E+15;4,58234E+15;4,13896E+15;2,16532E+16
﻿99400275889;Restaurant Cachitos Rambla;09.08.11 12:40;28.05.21 14:38;Rbla Catalunya;33;7;la Dreta de l'Eixample;2;Eixample;8007;BARCELONA;4,30217E+15;4,58234E+15;4,13896E+15;2,16532E+16
﻿75990709870;Discoteca Q Pedralbes;21.07.01 00:00;17.09.22 03:42;C Santa Caterina de Siena;28;21;Pedralbes;4;Les Corts;8034;BARCELONA;4,25642E+15;4,58244E+15;4,13901E+15;2,11059E+16
﻿99400593707;Cocteleria P41 Bar & Coctelarium;04.06.18 00:00;28.05.21 14:38;C Marina;19;3;la Barceloneta;1;Ciutat Vella;8005;BARCELONA;4,32827E+15;4,58204E+15;4,13871E+16;2,19657E+15
﻿99400593707;Cocteleria P41 Bar & Coctelarium;04.06.18 00:00;28.05.21 14:38;C Marina;19;3;la Barceloneta;1;Ciutat Vella;8005;BARCELONA;4,32827E+15;4,58204E+15;4,13871E+16;2,19657E+15
﻿99400592989;Cocteleria Caporal;28.05.18 10:23;28.05.21 14:38;C Escudellers;5;2;el Barri Gòtic;1;Ciutat Vella;8002;BARCELONA;4,31091E+16;4,58118E+15;4,13792E+15;2,17591E+16
﻿99400592989;Cocteleria Caporal;28.05.18 10:23;28.05.21 14:38;C Escudellers;5;2;el Barri Gòtic;1;Ciutat Vella;8002;BARCELONA;4,31091E+16;4,58118E+15;4,13792E+15;2,17591E+16
﻿92086026130;Bar musical San Trop;17.03.88 00:00;17.09.22 04:36;C Comte d'Urgell;90;8;l'Antiga Esquerra de l'Eixample;2;Eixample;8011;BARCELONA;4,29572E+16;4,58162E+15;4,1383E+15;2,15769E+15
﻿96103120011;Discoteca Club Catwalk;12.04.96 00:00;17.09.22 05:19;C Ramon Trias Fargas;2;3;la Barceloneta;1;Ciutat Vella;8005;BARCELONA;4,32825E+16;4,58192E+15;4,1386E+15;2,19656E+15
﻿96103120011;Discoteca Club Catwalk;12.04.96 00:00;17.09.22 05:19;C Ramon Trias Fargas;2;3;la Barceloneta;1;Ciutat Vella;8005;BARCELONA;4,32825E+16;4,58192E+15;4,1386E+15;2,19656E+15
﻿96103120011;Discoteca Club Catwalk;12.04.96 00:00;17.09.22 05:19;C Ramon Trias Fargas;2;3;la Barceloneta;1;Ciutat Vella;8005;BARCELONA;4,32825E+16;4,58192E+15;4,1386E+15;2,19656E+15
﻿99400319043;Sala Upload *Poble Espanyol;28.05.13 17:25;17.09.22 07:54;Av Francesc Ferrer Guàrdia;13;11;el Poble-sec;3;Sants-Montjuïc;8038;BARCELONA;4,28641E+15;4,58009E+15;4,13691E+15;2,14674E+16
﻿99400319043;Sala Upload *Poble Espanyol;28.05.13 17:25;17.09.22 07:54;Av Francesc Ferrer Guàrdia;13;11;el Poble-sec;3;Sants-Montjuïc;8038;BARCELONA;4,28641E+15;4,58009E+15;4,13691E+15;2,14674E+16
﻿75990035365;Bar Cocteleria Sapelly;17.09.96 00:00;28.05.21 14:37;C Casanova;91;8;l'Antiga Esquerra de l'Eixample;2;Eixample;8011;BARCELONA;4,29496E+15;4,58205E+15;4,13869E+15;2,15673E+16
﻿75990035365;Bar Cocteleria Sapelly;17.09.96 00:00;28.05.21 14:37;C Casanova;91;8;l'Antiga Esquerra de l'Eixample;2;Eixample;8011;BARCELONA;4,29496E+15;4,58205E+15;4,13869E+15;2,15673E+16
﻿99400566604;Discoteca Downtown  Barcelona;20.12.17 10:21;03.10.22 12:24;Av Doctor Marañón;17;20;la Maternitat i Sant Ramon;4;Les Corts;8028;BARCELONA;4,25954E+15;4,58146E+15;4,13813E+15;2,11445E+16
﻿99400224722;Discoteca The Roxy Blue Barcelona;27.04.09 14:41;17.09.22 07:11;C Consell de Cent;294;7;la Dreta de l'Eixample;2;Eixample;8007;BARCELONA;4,30124E+16;4,58237E+15;4,13898E+15;2,1642E+16
﻿99400592742;Bar musical Bendita Salsa;23.05.18 14:37;17.09.22 09:18;Ptge Escudellers;3;2;el Barri Gòtic;1;Ciutat Vella;8002;BARCELONA;4,31136E+15;4,58117E+15;4,13791E+15;2,17645E+16
﻿75990023351;Bar Musical Velvet;17.09.96 00:00;17.09.22 02:40;C Balmes;161;8;l'Antiga Esquerra de l'Eixample;2;Eixample;8008;BARCELONA;4,29401E+15;4,58291E+15;4,13946E+16;2,15549E+16
﻿99400075344;Cocteleria El Rabipelao *Gòtic;03.03.04 13:41;28.05.21 14:37;C Mercè;26;2;el Barri Gòtic;1;Ciutat Vella;8002;BARCELONA;4,31473E+14;4,58129E+15;4,13802E+15;2,18046E+15
﻿99400075344;Cocteleria El Rabipelao *Gòtic;03.03.04 13:41;28.05.21 14:37;C Mercè;26;2;el Barri Gòtic;1;Ciutat Vella;8002;BARCELONA;4,31473E+14;4,58129E+15;4,13802E+15;2,18046E+15
﻿99400075344;Cocteleria El Rabipelao *Gòtic;03.03.04 13:41;28.05.21 14:37;C Mercè;26;2;el Barri Gòtic;1;Ciutat Vella;8002;BARCELONA;4,31473E+14;4,58129E+15;4,13802E+15;2,18046E+15
﻿1211173854;Bar Café Berlín;30.07.01 00:00;17.09.22 02:24;C Muntaner;240;26;Sant Gervasi - Galvany;5;Sarrià-Sant Gervasi;8021;BARCELONA;4,28901E+16;4,58289E+16;4,13944E+16;2,14952E+16
﻿99400420446;Cocteleria Doble;03.02.16 00:00;28.05.21 14:38;Pg Gràcia;116;31;la Vila de Gràcia;6;Gràcia;8008;BARCELONA;4,29714E+16;4,58319E+15;4,13972E+16;2,15921E+15
﻿99400420446;Cocteleria Doble;03.02.16 00:00;28.05.21 14:38;Pg Gràcia;116;31;la Vila de Gràcia;6;Gràcia;8008;BARCELONA;4,29714E+16;4,58319E+15;4,13972E+16;2,15921E+15
﻿283174133;Bar La Confiteria;09.10.00 00:00;28.05.21 14:37;Sant Pau;128;1;el Raval;1;Ciutat Vella;8001;BARCELONA;4,30421E+12;4,58078E+15;4,13755E+14;2,16794E+15
﻿283174133;Bar La Confiteria;09.10.00 00:00;28.05.21 14:37;Sant Pau;128;1;el Raval;1;Ciutat Vella;8001;BARCELONA;4,30421E+12;4,58078E+15;4,13755E+14;2,16794E+15
﻿283174133;Bar La Confiteria;09.10.00 00:00;28.05.21 14:37;Sant Pau;128;1;el Raval;1;Ciutat Vella;8001;BARCELONA;4,30421E+12;4,58078E+15;4,13755E+14;2,16794E+15
﻿99400182371;Bar Musical Saint Germain;03.05.07 13:17;28.05.21 14:38;C Torrent de l'Olla;113;31;la Vila de Gràcia;6;Gràcia;8012;BARCELONA;4,29513E+16;4,58378E+15;4,14025E+15;2,15674E+15
﻿99400182371;Bar Musical Saint Germain;03.05.07 13:17;28.05.21 14:38;C Torrent de l'Olla;113;31;la Vila de Gràcia;6;Gràcia;8012;BARCELONA;4,29513E+16;4,58378E+15;4,14025E+15;2,15674E+15
﻿99400182371;Bar Musical Saint Germain;03.05.07 13:17;28.05.21 14:38;C Torrent de l'Olla;113;31;la Vila de Gràcia;6;Gràcia;8012;BARCELONA;4,29513E+16;4,58378E+15;4,14025E+15;2,15674E+15
﻿99400182423;Bar Restaurant Café San Telmo;04.05.07 10:11;28.05.21 14:38;C Buenos Aires;60;8;l'Antiga Esquerra de l'Eixample;2;Eixample;8036;BARCELONA;4,2882E+15;4,58278E+15;4,13934E+15;2,14856E+16
﻿99400182423;Bar Restaurant Café San Telmo;04.05.07 10:11;28.05.21 14:38;C Buenos Aires;60;8;l'Antiga Esquerra de l'Eixample;2;Eixample;8036;BARCELONA;4,2882E+15;4,58278E+15;4,13934E+15;2,14856E+16
﻿99400182423;Bar Restaurant Café San Telmo;04.05.07 10:11;28.05.21 14:38;C Buenos Aires;60;8;l'Antiga Esquerra de l'Eixample;2;Eixample;8036;BARCELONA;4,2882E+15;4,58278E+15;4,13934E+15;2,14856E+16
﻿75990497941;The Philharmonic;20.06.98 00:00;17.09.22 03:36;C Mallorca;204;8;l'Antiga Esquerra de l'Eixample;2;Eixample;8036;BARCELONA;4,29634E+14;4,58243E+15;4,13903E+15;2,15833E+16
﻿75990497941;The Philharmonic;20.06.98 00:00;17.09.22 03:36;C Mallorca;204;8;l'Antiga Esquerra de l'Eixample;2;Eixample;8036;BARCELONA;4,29634E+14;4,58243E+15;4,13903E+15;2,15833E+16
﻿75990017982;Bar musical Le Cyrano;17.09.96 00:00;17.09.22 02:39;Aribau;154;8;l'Antiga Esquerra de l'Eixample;2;Eixample;8036;BARCELONA;4,29314E+15;4,58264E+14;4,13922E+14;2,15449E+16
﻿99400384119;Bar Treze;23.04.15 13:37;28.05.21 14:38;C Major de Sarrià;115;23;Sarrià;5;Sarrià-Sant Gervasi;8017;BARCELONA;4,26505E+16;4,5836E+15;4,14006E+15;2,12078E+16
﻿99400384119;Bar Treze;23.04.15 13:37;28.05.21 14:38;C Major de Sarrià;115;23;Sarrià;5;Sarrià-Sant Gervasi;8017;BARCELONA;4,26505E+16;4,5836E+15;4,14006E+15;2,12078E+16
﻿99400453809;Taberna Tio Carlos;22.06.16 10:34;17.09.22 08:41;Ptge Gutenberg;7;1;el Raval;1;Ciutat Vella;8001;BARCELONA;4,30989E+16;4,58093E+15;4,13769E+15;2,17471E+16
﻿99400453809;Taberna Tio Carlos;22.06.16 10:34;17.09.22 08:41;Ptge Gutenberg;7;1;el Raval;1;Ciutat Vella;8001;BARCELONA;4,30989E+16;4,58093E+15;4,13769E+15;2,17471E+16
﻿75990722164;El Cafè de Les Delícies;08.12.01 00:00;17.09.22 03:42;Rbla Raval;47;1;el Raval;1;Ciutat Vella;8001;BARCELONA;4,30637E+16;4,58107E+15;4,13782E+16;2,17049E+14
﻿75990415247;Bar musical karaoke A viva voz *Rocafort;25.11.96 00:00;04.04.22 12:13;Rocafort;187;9;la Nova Esquerra de l'Eixample;2;Eixample;8029;BARCELONA;4,28753E+16;4,58166E+15;4,13833E+14;2,1479E+16
﻿75990415247;Bar musical karaoke A viva voz *Rocafort;25.11.96 00:00;04.04.22 12:13;Rocafort;187;9;la Nova Esquerra de l'Eixample;2;Eixample;8029;BARCELONA;4,28753E+16;4,58166E+15;4,13833E+14;2,1479E+16
﻿98289134934;Discoteca Undead Dark Club;16.10.98 00:00;17.09.22 05:43;C Violant Hongria Reina Aragó;128;18;Sants;3;Sants-Montjuïc;8028;BARCELONA;4,27532E+14;4,58129E+15;4,13799E+15;2,13334E+15
﻿99400603815;Restaurant Nut Gastrobar;17.07.18 14:28;28.05.21 14:38;C Olesa;4;63;Navas;9;Sant Andreu;8027;BARCELONA;4,31644E+16;4,58573E+15;4,14202E+15;2,182E+16
﻿99400603815;Restaurant Nut Gastrobar;17.07.18 14:28;28.05.21 14:38;C Olesa;4;63;Navas;9;Sant Andreu;8027;BARCELONA;4,31644E+16;4,58573E+15;4,14202E+15;2,182E+16
﻿99400603815;Restaurant Nut Gastrobar;17.07.18 14:28;28.05.21 14:38;C Olesa;4;63;Navas;9;Sant Andreu;8027;BARCELONA;4,31644E+16;4,58573E+15;4,14202E+15;2,182E+16
﻿96239122733;Discoteca Zich *Port Olímpic;26.08.96 00:00;17.09.22 05:23;Moll Mestral;45;67;la Vila Olímpica del Poblenou;10;Sant Martí;8005;BARCELONA;4,33054E+15;4,58217E+15;4,13882E+15;2,19928E+16
﻿99400069768;Bar Musical Gran Bodega Saltó;15.12.03 18:15;17.09.22 06:06;C Blesa;36;11;el Poble-sec;3;Sants-Montjuïc;8004;BARCELONA;4,30354E+16;4,58047E+15;4,13728E+15;2,16718E+16
﻿75990352099;Bikini Barcelona;18.09.96 00:00;17.09.22 03:26;Av Diagonal;547;19;les Corts;4;Les Corts;8029;BARCELONA;4,27715E+15;4,58238E+16;4,13897E+16;2,1354E+15
﻿75990352099;Bikini Barcelona;18.09.96 00:00;17.09.22 03:26;Av Diagonal;547;19;les Corts;4;Les Corts;8029;BARCELONA;4,27715E+15;4,58238E+16;4,13897E+16;2,1354E+15
﻿96172114237;Bar Musical Smar *Port Olímpic;20.06.96 00:00;28.05.21 14:37;Port Olímpic;100;67;la Vila Olímpica del Poblenou;10;Sant Martí;8005;BARCELONA;4,33054E+15;4,58211E+15;4,13877E+15;2,19928E+15
﻿96172114237;Bar Musical Smar *Port Olímpic;20.06.96 00:00;28.05.21 14:37;Port Olímpic;100;67;la Vila Olímpica del Poblenou;10;Sant Martí;8005;BARCELONA;4,33054E+15;4,58211E+15;4,13877E+15;2,19928E+15
﻿75990279814;Bar Musical The Daily Telegraph;18.09.96 00:00;17.09.22 03:19;C Pau Claris;139;7;la Dreta de l'Eixample;2;Eixample;8009;BARCELONA;4,30258E+16;4,58279E+16;4,13937E+14;2,16576E+16
﻿75990331366;Restaurant La Bodeguita del Poble *Poble Espanyol;18.09.96 00:00;28.05.21 14:37;Av Francesc Ferrer Guàrdia;25;11;el Poble-sec;3;Sants-Montjuïc;8038;BARCELONA;4,28641E+15;4,58009E+15;4,13691E+15;2,14674E+16
﻿75990331366;Restaurant La Bodeguita del Poble *Poble Espanyol;18.09.96 00:00;28.05.21 14:37;Av Francesc Ferrer Guàrdia;25;11;el Poble-sec;3;Sants-Montjuïc;8038;BARCELONA;4,28641E+15;4,58009E+15;4,13691E+15;2,14674E+16
﻿75990331366;Restaurant La Bodeguita del Poble *Poble Espanyol;18.09.96 00:00;28.05.21 14:37;Av Francesc Ferrer Guàrdia;25;11;el Poble-sec;3;Sants-Montjuïc;8038;BARCELONA;4,28641E+15;4,58009E+15;4,13691E+15;2,14674E+16
﻿75990331366;Restaurant La Bodeguita del Poble *Poble Espanyol;18.09.96 00:00;28.05.21 14:37;Av Francesc Ferrer Guàrdia;25;11;el Poble-sec;3;Sants-Montjuïc;8038;BARCELONA;4,28641E+15;4,58009E+15;4,13691E+15;2,14674E+16
﻿75990331366;Restaurant La Bodeguita del Poble *Poble Espanyol;18.09.96 00:00;28.05.21 14:37;Av Francesc Ferrer Guàrdia;25;11;el Poble-sec;3;Sants-Montjuïc;8038;BARCELONA;4,28641E+15;4,58009E+15;4,13691E+15;2,14674E+16
﻿75990174572;Cocteleria Boadas;18.09.96 00:00;28.05.21 14:37;C Tallers;1;1;el Raval;1;Ciutat Vella;8001;BARCELONA;4,30616E+16;4,5818E+15;4,13847E+15;2,17016E+14
﻿75990174572;Cocteleria Boadas;18.09.96 00:00;28.05.21 14:37;C Tallers;1;1;el Raval;1;Ciutat Vella;8001;BARCELONA;4,30616E+16;4,5818E+15;4,13847E+15;2,17016E+14
﻿75990035678;Bar musical Flann O'Brien's;17.09.96 00:00;17.09.22 02:43;C Casanova;264;26;Sant Gervasi - Galvany;5;Sarrià-Sant Gervasi;8021;BARCELONA;4,28725E+16;4,58286E+15;4,13942E+15;2,14741E+16
﻿99400259437;Marula Café Barcelona;16.11.10 14:09;17.09.22 07:27;C Escudellers;49;2;el Barri Gòtic;1;Ciutat Vella;8002;BARCELONA;4,31174E+16;4,58129E+15;4,13802E+15;2,17689E+15
﻿99400259437;Marula Café Barcelona;16.11.10 14:09;17.09.22 07:27;C Escudellers;49;2;el Barri Gòtic;1;Ciutat Vella;8002;BARCELONA;4,31174E+16;4,58129E+15;4,13802E+15;2,17689E+15
﻿75990477616;Bar Restaurant Hard Rock Café;18.10.97 00:00;23.07.21 12:01;Plaça de Catalunya;21;2;el Barri Gòtic;1;Ciutat Vella;8002;Barcelona;4,30666E+15;4,58193E+14;4,13859E+15;2,17073E+15
﻿75990477616;Bar Restaurant Hard Rock Café;18.10.97 00:00;23.07.21 12:01;Plaça de Catalunya;21;2;el Barri Gòtic;1;Ciutat Vella;8002;Barcelona;4,30666E+15;4,58193E+14;4,13859E+15;2,17073E+15
﻿75990469788;Tablao Flamenco Cordobés;02.08.97 00:00;17.09.22 03:33;C la Rambla;35;1;el Raval;1;Ciutat Vella;8002;BARCELONA;4,30985E+15;4,58116E+15;4,1379E+15;2,17465E+16
﻿75990469788;Tablao Flamenco Cordobés;02.08.97 00:00;17.09.22 03:33;C la Rambla;35;1;el Raval;1;Ciutat Vella;8002;BARCELONA;4,30985E+15;4,58116E+15;4,1379E+15;2,17465E+16
﻿99400263461;Sala Fundació Màgica;21.01.11 12:18;17.09.22 07:29;C Zamora;86;66;el Parc i la Llacuna del Poblenou;10;Sant Martí;8018;BARCELONA;4,32284E+16;4,58304E+15;4,1396E+15;2,18997E+16
﻿75990405384;Discoteca Moog;18.09.96 00:00;17.09.22 03:30;C Arc del Teatre;3;1;el Raval;1;Ciutat Vella;8001;BARCELONA;4,31016E+15;4,58106E+15;4,13781E+15;2,17502E+16
﻿92086038702;Bar Marsella;13.03.92 00:00;17.09.22 04:48;C Sant Pau;65;1;el Raval;1;Ciutat Vella;8001;BARCELONA;4,30698E+15;4,58108E+15;4,13783E+14;2,17122E+14
﻿75990042698;Bar musical Átame;18.09.96 00:00;17.09.22 02:45;C Consell de Cent;257;8;l'Antiga Esquerra de l'Eixample;2;Eixample;8011;BARCELONA;4,29763E+16;4,58205E+15;4,13869E+15;2,15993E+15
﻿75990028309;Cocteleria El Copetín;17.09.96 00:00;28.05.21 14:37;Pg Born;19;4;Sant Pere, Santa Caterina i la Ribera;1;Ciutat Vella;8003;BARCELONA;4,31668E+15;4,58181E+15;4,13849E+15;2,18274E+15
﻿75990028309;Cocteleria El Copetín;17.09.96 00:00;28.05.21 14:37;Pg Born;19;4;Sant Pere, Santa Caterina i la Ribera;1;Ciutat Vella;8003;BARCELONA;4,31668E+15;4,58181E+15;4,13849E+15;2,18274E+15
﻿75990028309;Cocteleria El Copetín;17.09.96 00:00;28.05.21 14:37;Pg Born;19;4;Sant Pere, Santa Caterina i la Ribera;1;Ciutat Vella;8003;BARCELONA;4,31668E+15;4,58181E+15;4,13849E+15;2,18274E+15
﻿75990341591;Bar Musical Jazzpetit;18.09.96 00:00;17.09.22 03:24;C Provença;181;8;l'Antiga Esquerra de l'Eixample;2;Eixample;8036;BARCELONA;4,29472E+15;4,58251E+15;4,1391E+16;2,15639E+15
﻿75990489733;Restaurant Xampanyeria Xampú Xampany;18.04.98 00:00;28.05.21 14:37;G.V. Corts Catalanes;702;7;la Dreta de l'Eixample;2;Eixample;8010;BARCELONA;4,3098E+15;4,58279E+15;4,13937E+16;2,1744E+16
﻿75990489733;Restaurant Xampanyeria Xampú Xampany;18.04.98 00:00;28.05.21 14:37;G.V. Corts Catalanes;702;7;la Dreta de l'Eixample;2;Eixample;8010;BARCELONA;4,3098E+15;4,58279E+15;4,13937E+16;2,1744E+16
﻿75990489733;Restaurant Xampanyeria Xampú Xampany;18.04.98 00:00;28.05.21 14:37;G.V. Corts Catalanes;702;7;la Dreta de l'Eixample;2;Eixample;8010;BARCELONA;4,3098E+15;4,58279E+15;4,13937E+16;2,1744E+16
﻿75990083497;Bar Musical Breston Club;18.09.96 00:00;17.09.22 02:54;Marià Cubí;111;26;Sant Gervasi - Galvany;5;Sarrià-Sant Gervasi;8021;BARCELONA;4,28745E+15;4,58316E+15;4,13968E+15;2,14762E+16
﻿75990131581;Bar L'Antiquari;18.09.96 00:00;28.05.21 14:37;C Veguer;13;2;el Barri Gòtic;1;Ciutat Vella;8002;BARCELONA;4,3123E+15;4,58171E+15;4,13839E+15;2,17751E+16
﻿75990131581;Bar L'Antiquari;18.09.96 00:00;28.05.21 14:37;C Veguer;13;2;el Barri Gòtic;1;Ciutat Vella;8002;BARCELONA;4,3123E+15;4,58171E+15;4,13839E+15;2,17751E+16
﻿75990094018;Bar Musical Macarena Club;18.09.96 00:00;17.09.22 02:57;C Nou de Sant Francesc;5;2;el Barri Gòtic;1;Ciutat Vella;8002;BARCELONA;4,31169E+15;4,58121E+15;4,13794E+16;2,17683E+14
﻿75990094018;Bar Musical Macarena Club;18.09.96 00:00;17.09.22 02:57;C Nou de Sant Francesc;5;2;el Barri Gòtic;1;Ciutat Vella;8002;BARCELONA;4,31169E+15;4,58121E+15;4,13794E+16;2,17683E+14
﻿92086038273;Café Mudanzas;09.01.92 00:00;17.09.22 04:48;C Vidrieria;15;4;Sant Pere, Santa Caterina i la Ribera;1;Ciutat Vella;8003;BARCELONA;4,31705E+15;4,58171E+15;4,13841E+15;2,18318E+15
﻿75990331543;Bar Cocteleria El Born;18.09.96 00:00;28.05.21 14:37;Pg Born;26;4;Sant Pere, Santa Caterina i la Ribera;1;Ciutat Vella;8003;BARCELONA;4,31688E+15;4,5818E+15;4,13848E+14;2,18298E+16
﻿75990331543;Bar Cocteleria El Born;18.09.96 00:00;28.05.21 14:37;Pg Born;26;4;Sant Pere, Santa Caterina i la Ribera;1;Ciutat Vella;8003;BARCELONA;4,31688E+15;4,5818E+15;4,13848E+14;2,18298E+16
﻿75990272030;Bar musical Inercia;18.09.96 00:00;17.09.22 03:18;C Aribau;124;8;l'Antiga Esquerra de l'Eixample;2;Eixample;8036;BARCELONA;4,29427E+15;4,58253E+15;4,13912E+15;2,15586E+16
﻿75990210217;Bar Musical El Cangrejo;18.09.96 00:00;17.09.22 03:13;C Montserrat;9;1;el Raval;1;Ciutat Vella;8001;BARCELONA;4,31006E+15;4,58097E+15;4,13773E+15;2,17492E+16
﻿75990210325;Sala Vol;18.09.96 00:00;17.09.22 03:13;Sancho de Avila;78;66;el Parc i la Llacuna del Poblenou;10;Sant Martí;8018;BARCELONA;4,32389E+16;4,58342E+15;4,13995E+15;2,19118E+16
﻿75990210498;Bar musical Marley;18.09.96 00:00;17.09.22 03:13;C Joan Torras;25;60;Sant Andreu;9;Sant Andreu;8030;BARCELONA;4,32472E+15;4,58768E+15;4,14378E+16;2,1917E+15
﻿75990473394;Harlem Jazz Club;23.08.97 00:00;17.09.22 03:34;C Comtessa de Sobradiel;8;2;el Barri Gòtic;1;Ciutat Vella;8002;BARCELONA;4,31304E+15;4,5814E+14;4,13812E+15;2,17843E+16
﻿75990281100;Sala Soda Acústic;18.09.96 00:00;17.09.22 03:19;C Guilleries;6;31;la Vila de Gràcia;6;Gràcia;8012;BARCELONA;4,29537E+16;4,58385E+15;4,14031E+15;2,15701E+16
﻿99400265320;Bar Cocteleria Cooler;28.02.11 18:28;28.05.21 14:38;C Mallorca;196;8;l'Antiga Esquerra de l'Eixample;2;Eixample;8036;BARCELONA;4,29588E+15;4,58241E+15;4,13901E+15;2,1578E+16
﻿99400265320;Bar Cocteleria Cooler;28.02.11 18:28;28.05.21 14:38;C Mallorca;196;8;l'Antiga Esquerra de l'Eixample;2;Eixample;8036;BARCELONA;4,29588E+15;4,58241E+15;4,13901E+15;2,1578E+16
﻿75990174460;Sala Plataforma;18.09.96 00:00;17.09.22 03:11;C Nou de la Rambla;145;11;el Poble-sec;3;Sants-Montjuïc;8004;BARCELONA;4,30423E+15;4,58049E+15;4,13729E+14;2,168E+16
﻿75990174460;Sala Plataforma;18.09.96 00:00;17.09.22 03:11;C Nou de la Rambla;145;11;el Poble-sec;3;Sants-Montjuïc;8004;BARCELONA;4,30423E+15;4,58049E+15;4,13729E+14;2,168E+16
﻿75990121093;Bar musical Eldorado;18.09.96 00:00;17.09.22 03:04;Pl Sol;4;31;la Vila de Gràcia;6;Gràcia;8012;BARCELONA;4,29529E+15;4,58367E+14;4,14015E+16;2,15694E+16
﻿75990121093;Bar musical Eldorado;18.09.96 00:00;17.09.22 03:04;Pl Sol;4;31;la Vila de Gràcia;6;Gràcia;8012;BARCELONA;4,29529E+15;4,58367E+14;4,14015E+16;2,15694E+16
﻿75990561637;La Cervesera Artesana;01.05.99 00:00;17.09.22 03:38;C Sant Agustí;14;31;la Vila de Gràcia;6;Gràcia;8012;BARCELONA;4,29855E+16;4,5833E+15;4,13982E+15;2,16088E+15
﻿75990431415;Bar Musical New Underground;26.04.97 00:00;17.09.22 03:33;C Aviació;5;19;les Corts;4;Les Corts;8029;BARCELONA;4,27718E+14;4,58212E+15;4,13874E+16;2,13546E+16
﻿75990217323;Ideal Cocktail's Bar;18.09.96 00:00;28.05.21 14:37;C Aribau;89;8;l'Antiga Esquerra de l'Eixample;2;Eixample;8036;BARCELONA;4,29561E+16;4,58236E+14;4,13897E+15;2,15748E+16
﻿75990217323;Ideal Cocktail's Bar;18.09.96 00:00;28.05.21 14:37;C Aribau;89;8;l'Antiga Esquerra de l'Eixample;2;Eixample;8036;BARCELONA;4,29561E+16;4,58236E+14;4,13897E+15;2,15748E+16
﻿75990303269;Discoteca Oak Barcelona;18.09.96 00:00;17.09.22 03:22;C Rosselló;208;7;la Dreta de l'Eixample;2;Eixample;8008;BARCELONA;4,29606E+15;4,5828E+15;4,13936E+15;2,15797E+16
﻿75990303269;Discoteca Oak Barcelona;18.09.96 00:00;17.09.22 03:22;C Rosselló;208;7;la Dreta de l'Eixample;2;Eixample;8008;BARCELONA;4,29606E+15;4,5828E+15;4,13936E+15;2,15797E+16
﻿99400147324;Bar musical Mascotte;14.11.05 17:55;17.09.22 06:31;C Muntaner;414;26;Sant Gervasi - Galvany;5;Sarrià-Sant Gervasi;8006;BARCELONA;4,28198E+15;4,58359E+16;4,14007E+15;2,14103E+15
﻿99400109578;Cocteleria Negroni;26.04.05 12:12;28.05.21 14:37;C Joaquín Costa;46;1;el Raval;1;Ciutat Vella;8001;BARCELONA;4,30222E+15;4,58161E+15;4,1383E+16;2,16547E+16
﻿99400109578;Cocteleria Negroni;26.04.05 12:12;28.05.21 14:37;C Joaquín Costa;46;1;el Raval;1;Ciutat Vella;8001;BARCELONA;4,30222E+15;4,58161E+15;4,1383E+16;2,16547E+16
﻿75990212293;Discoteca Bailodromo;18.09.96 00:00;17.09.22 03:14;C Felip II;25;63;Navas;9;Sant Andreu;8027;BARCELONA;4,3234E+15;4,58543E+15;4,14176E+15;2,19037E+16
﻿75990212297;Discoteca Arena;18.09.96 00:00;17.09.22 03:14;C Balmes;32;7;la Dreta de l'Eixample;2;Eixample;8007;BARCELONA;4,30101E+16;4,58222E+15;4,13885E+16;2,16395E+15
﻿75990165912;Restaurant Cómico-Cómico;18.09.96 00:00;17.09.22 03:10;C Aribau;87;8;l'Antiga Esquerra de l'Eixample;2;Eixample;8036;BARCELONA;4,29568E+16;4,58235E+14;4,13896E+15;2,15756E+15
﻿75990165912;Restaurant Cómico-Cómico;18.09.96 00:00;17.09.22 03:10;C Aribau;87;8;l'Antiga Esquerra de l'Eixample;2;Eixample;8036;BARCELONA;4,29568E+16;4,58235E+14;4,13896E+15;2,15756E+15
﻿75990103859;Sala Continental;18.09.96 00:00;17.09.22 03:00;Providència;30;31;la Vila de Gràcia;6;Gràcia;8024;BARCELONA;4,29492E+16;4,5842E+14;4,14063E+15;2,15644E+15
﻿75990363296;Cocteleria Stereo 18;18.09.96 00:00;28.05.21 14:37;Pg Born;18;4;Sant Pere, Santa Caterina i la Ribera;1;Ciutat Vella;8003;BARCELONA;4,31674E+16;4,58176E+15;4,13845E+16;2,18281E+15
﻿75990363296;Cocteleria Stereo 18;18.09.96 00:00;28.05.21 14:37;Pg Born;18;4;Sant Pere, Santa Caterina i la Ribera;1;Ciutat Vella;8003;BARCELONA;4,31674E+16;4,58176E+15;4,13845E+16;2,18281E+15
﻿99400194209;Milano Cocktail - Bar;31.10.07 11:36;28.05.21 14:38;Rda Universitat;35;7;la Dreta de l'Eixample;2;Eixample;8007;BARCELONA;4,3041E+16;4,58208E+15;4,13872E+14;2,16766E+15
﻿99400194209;Milano Cocktail - Bar;31.10.07 11:36;28.05.21 14:38;Rda Universitat;35;7;la Dreta de l'Eixample;2;Eixample;8007;BARCELONA;4,3041E+16;4,58208E+15;4,13872E+14;2,16766E+15
﻿99400158658;Bar musical Le Journal;10.05.06 13:50;28.05.21 14:37;C Francisco Giner;36;31;la Vila de Gràcia;6;Gràcia;8012;BARCELONA;4,29684E+15;4,58345E+15;4,13995E+15;2,15882E+16
﻿99400158658;Bar musical Le Journal;10.05.06 13:50;28.05.21 14:37;C Francisco Giner;36;31;la Vila de Gràcia;6;Gràcia;8012;BARCELONA;4,29684E+15;4,58345E+15;4,13995E+15;2,15882E+16
﻿99400158658;Bar musical Le Journal;10.05.06 13:50;28.05.21 14:37;C Francisco Giner;36;31;la Vila de Gràcia;6;Gràcia;8012;BARCELONA;4,29684E+15;4,58345E+15;4,13995E+15;2,15882E+16
﻿75990129129;Bar Musical Cafè de les Arts;18.09.96 00:00;17.09.22 03:05;C València;234;8;l'Antiga Esquerra de l'Eixample;2;Eixample;8007;BARCELONA;4,29796E+16;4,58242E+15;4,13903E+15;2,16028E+15
﻿75990129129;Bar Musical Cafè de les Arts;18.09.96 00:00;17.09.22 03:05;C València;234;8;l'Antiga Esquerra de l'Eixample;2;Eixample;8007;BARCELONA;4,29796E+16;4,58242E+15;4,13903E+15;2,16028E+15
﻿75990079636;Disco Bar Joe's;18.09.96 00:00;17.09.22 02:54;Pg Sant Antoni;19;18;Sants;3;Sants-Montjuïc;8014;BARCELONA;4,27838E+15;4,58099E+15;4,13772E+16;2,13703E+15
﻿75990163301;Bar musical Pastís;18.09.96 00:00;17.09.22 03:09;Santa Mònica;4;1;el Raval;1;Ciutat Vella;8001;BARCELONA;4,31026E+15;4,58098E+15;4,13774E+16;2,17516E+16
﻿75990123322;Elephant Restaurant & Lounge Club;18.09.96 00:00;17.09.22 03:04;C Pau Claris;92;7;la Dreta de l'Eixample;2;Eixample;8010;BARCELONA;4,30659E+15;4,58241E+14;4,13903E+15;2,1706E+16
﻿75990123322;Elephant Restaurant & Lounge Club;18.09.96 00:00;17.09.22 03:04;C Pau Claris;92;7;la Dreta de l'Eixample;2;Eixample;8010;BARCELONA;4,30659E+15;4,58241E+14;4,13903E+15;2,1706E+16
﻿95171165310;Bar El Rouge;20.06.95 00:00;28.05.21 14:37;C Poeta Cabanyes;21;11;el Poble-sec;3;Sants-Montjuïc;8004;BARCELONA;4,30232E+14;4,58063E+15;4,13742E+15;2,1657E+14
﻿95171165310;Bar El Rouge;20.06.95 00:00;28.05.21 14:37;C Poeta Cabanyes;21;11;el Poble-sec;3;Sants-Montjuïc;8004;BARCELONA;4,30232E+14;4,58063E+15;4,13742E+15;2,1657E+14
﻿95171165310;Bar El Rouge;20.06.95 00:00;28.05.21 14:37;C Poeta Cabanyes;21;11;el Poble-sec;3;Sants-Montjuïc;8004;BARCELONA;4,30232E+14;4,58063E+15;4,13742E+15;2,1657E+14
﻿75990713121;Bar Manchester *Milans;03.11.01 00:00;17.09.22 03:42;C Milans;5;2;el Barri Gòtic;1;Ciutat Vella;8002;BARCELONA;4,31354E+16;4,58134E+15;4,13807E+15;2,17903E+16
﻿75990490801;Bar Musical La Concha;28.03.98 00:00;17.09.22 03:35;C Guàrdia;14;1;el Raval;1;Ciutat Vella;8001;BARCELONA;4,30946E+15;4,58102E+15;4,13777E+15;2,1742E+16
﻿75990348460;Restaurant Cocteleria Belvedere;18.09.96 00:00;28.05.21 14:37;Ptge Mercader;3;7;la Dreta de l'Eixample;2;Eixample;8008;BARCELONA;4,29735E+15;4,58271E+15;4,13929E+15;2,15952E+15
﻿75990348460;Restaurant Cocteleria Belvedere;18.09.96 00:00;28.05.21 14:37;Ptge Mercader;3;7;la Dreta de l'Eixample;2;Eixample;8008;BARCELONA;4,29735E+15;4,58271E+15;4,13929E+15;2,15952E+15
﻿75990348460;Restaurant Cocteleria Belvedere;18.09.96 00:00;28.05.21 14:37;Ptge Mercader;3;7;la Dreta de l'Eixample;2;Eixample;8008;BARCELONA;4,29735E+15;4,58271E+15;4,13929E+15;2,15952E+15
﻿75990691308;Bar Cafeteria Cafè d'Annunzio;10.03.01 00:00;28.05.21 14:37;Pl Vicenç Martorell;5;1;el Raval;1;Ciutat Vella;8001;BARCELONA;4,30504E+15;4,58176E+15;4,13844E+16;2,16882E+16
﻿75990691308;Bar Cafeteria Cafè d'Annunzio;10.03.01 00:00;28.05.21 14:37;Pl Vicenç Martorell;5;1;el Raval;1;Ciutat Vella;8001;BARCELONA;4,30504E+15;4,58176E+15;4,13844E+16;2,16882E+16
﻿99400603677;Bar Guayoyo;16.07.18 11:52;11.06.21 13:15;Pl Camp;2;25;Sant Gervasi - la Bonanova;5;Sarrià-Sant Gervasi;8022;BARCELONA;4,2781E+15;4,58392E+15;4,14035E+15;2,13635E+15
﻿99400603677;Bar Guayoyo;16.07.18 11:52;11.06.21 13:15;Pl Camp;2;25;Sant Gervasi - la Bonanova;5;Sarrià-Sant Gervasi;8022;BARCELONA;4,2781E+15;4,58392E+15;4,14035E+15;2,13635E+15
﻿75990363427;Discoteca Nick;18.09.96 00:00;17.09.22 03:28;Av Madrid;160;18;Sants;3;Sants-Montjuïc;8028;BARCELONA;4,27353E+15;4,58134E+14;4,13803E+16;2,13119E+16
﻿75990363427;Discoteca Nick;18.09.96 00:00;17.09.22 03:28;Av Madrid;160;18;Sants;3;Sants-Montjuïc;8028;BARCELONA;4,27353E+15;4,58134E+14;4,13803E+16;2,13119E+16
﻿75990670265;Cerveseria The Fastnet Irish Pub;04.11.00 00:00;17.09.22 03:40;Pg Joan Borbó Comte Barcelona;22;3;la Barceloneta;1;Ciutat Vella;8003;BARCELONA;4,32088E+15;4,58121E+15;4,13796E+15;2,18782E+15
﻿99400476804;Sala Nota79;30.01.17 10:59;28.05.21 14:38;C Vallirana;79;27;el Putxet i el Farró;5;Sarrià-Sant Gervasi;8006;BARCELONA;4,28605E+15;4,58411E+15;4,14053E+15;2,14583E+16
﻿99400476804;Sala Nota79;30.01.17 10:59;28.05.21 14:38;C Vallirana;79;27;el Putxet i el Farró;5;Sarrià-Sant Gervasi;8006;BARCELONA;4,28605E+15;4,58411E+15;4,14053E+15;2,14583E+16
﻿99400592902;Bar musical Revival;25.05.18 11:05;17.09.22 09:18;Trav Gràcia;40;26;Sant Gervasi - Galvany;5;Sarrià-Sant Gervasi;8021;BARCELONA;4,28826E+15;4,583E+15;4,13954E+15;2,14861E+16
﻿95327105318;Discoteca Wolf Barcelona;23.11.95 00:00;18.01.22 14:33;Almogàvers;88;66;el Parc i la Llacuna del Poblenou;10;Sant Martí;8018;BARCELONA;4,32171E+15;4,58303E+15;4,13959E+14;2,18861E+16
﻿75990017884;Restaurant Season;17.09.96 00:00;28.05.21 14:37;C Aribau;125;8;l'Antiga Esquerra de l'Eixample;2;Eixample;8036;BARCELONA;4,29378E+16;4,58255E+15;4,13914E+15;2,15526E+15
﻿75990017884;Restaurant Season;17.09.96 00:00;28.05.21 14:37;C Aribau;125;8;l'Antiga Esquerra de l'Eixample;2;Eixample;8036;BARCELONA;4,29378E+16;4,58255E+15;4,13914E+15;2,15526E+15
﻿75990017884;Restaurant Season;17.09.96 00:00;28.05.21 14:37;C Aribau;125;8;l'Antiga Esquerra de l'Eixample;2;Eixample;8036;BARCELONA;4,29378E+16;4,58255E+15;4,13914E+15;2,15526E+15
﻿75990159282;Bar musical Sabor Cubano *Francisco Giner;18.09.96 00:00;17.09.22 03:09;C Francisco Giner;32;31;la Vila de Gràcia;6;Gràcia;8012;BARCELONA;4,29695E+15;4,58344E+14;4,13994E+15;2,15896E+15
﻿96352193513;JazzSí Club Taller de Músics;17.12.96 00:00;17.09.22 05:27;C Requesens;2;1;el Raval;1;Ciutat Vella;8001;BARCELONA;4,30104E+16;4,58126E+15;4,13798E+15;2,16409E+16
﻿96071124258;Bar musical Arena Bar;11.03.96 00:00;17.09.22 05:19;Carassa;4;4;Sant Pere, Santa Caterina i la Ribera;1;Ciutat Vella;8003;BARCELONA;4,31462E+15;4,58177E+15;4,13845E+15;2,18028E+15
﻿96127115035;Associació Cultural Heliogàbal;06.05.96 00:00;17.09.22 05:21;C Ramón y Cajal;80;31;la Vila de Gràcia;6;Gràcia;8012;BARCELONA;4,29807E+16;4,5839E+15;4,14035E+15;2,16023E+16
﻿75990042641;Plata Cocktail Bar;18.09.96 00:00;31.12.21 07:50;Carrer del Consell de Cent;233;8;l'Antiga Esquerra de l'Eixample;2;Eixample;8011;Barcelona;4,29653E+15;4,58194E+15;4,13859E+15;2,15862E+16
﻿75990042641;Plata Cocktail Bar;18.09.96 00:00;31.12.21 07:50;Carrer del Consell de Cent;233;8;l'Antiga Esquerra de l'Eixample;2;Eixample;8011;Barcelona;4,29653E+15;4,58194E+15;4,13859E+15;2,15862E+16
﻿95188195803;Bar Bobby's Free;07.07.95 00:00;17.09.22 05:16;Pau Claris;85;7;la Dreta de l'Eixample;2;Eixample;8010;BARCELONA;4,30666E+15;4,58238E+14;4,13899E+15;2,17069E+15
﻿97119201118;Bar Musical Baroke;29.04.97 00:00;17.09.22 05:31;C Mallorca;492;6;la Sagrada Família;2;Eixample;8013;BARCELONA;4,31445E+15;4,58423E+15;4,14066E+15;2,1798E+16
﻿97141154512;Bar Musical The Shamrock;21.05.97 00:00;17.09.22 05:31;C Tallers;72;1;el Raval;1;Ciutat Vella;8001;BARCELONA;4,30278E+16;4,58184E+15;4,13851E+16;2,16611E+16
﻿75990699880;Bar Origginals Club;02.06.01 00:00;17.09.22 03:41;C Gaiarre;50;18;Sants;3;Sants-Montjuïc;8014;BARCELONA;4,28107E+16;4,58057E+15;4,13735E+15;2,1403E+16
﻿96005085900;Bar musical Barroc;05.01.96 00:00;17.09.22 05:18;Rec;67;4;Sant Pere, Santa Caterina i la Ribera;1;Ciutat Vella;8003;BARCELONA;4,31729E+15;4,58178E+15;4,13847E+15;2,18347E+15
﻿75990174513;Dome Club Barcelona;18.09.96 00:00;17.09.22 03:12;la Rambla;33;1;el Raval;1;Ciutat Vella;8002;BARCELONA;4,31006E+15;4,58116E+15;4,1379E+15;2,17489E+13
﻿75990174513;Dome Club Barcelona;18.09.96 00:00;17.09.22 03:12;la Rambla;33;1;el Raval;1;Ciutat Vella;8002;BARCELONA;4,31006E+15;4,58116E+15;4,1379E+15;2,17489E+13
﻿75990121097;Bar musical Woody;18.09.96 00:00;28.05.21 14:37;Pl Sol;7;31;la Vila de Gràcia;6;Gràcia;8012;BARCELONA;4,29534E+15;4,5837E+16;4,14018E+14;2,15699E+15
﻿75990121097;Bar musical Woody;18.09.96 00:00;28.05.21 14:37;Pl Sol;7;31;la Vila de Gràcia;6;Gràcia;8012;BARCELONA;4,29534E+15;4,5837E+16;4,14018E+14;2,15699E+15
﻿75990121097;Bar musical Woody;18.09.96 00:00;28.05.21 14:37;Pl Sol;7;31;la Vila de Gràcia;6;Gràcia;8012;BARCELONA;4,29534E+15;4,5837E+16;4,14018E+14;2,15699E+15
﻿75990702408;Restaurant Carpe Diem Lounge Club - CDLC;19.05.01 00:00;22.09.21 08:46;Passeig Marítim de la Barceloneta;32;3;la Barceloneta;1;Ciutat Vella;8003;Barcelona;4,32711E+15;4,58164E+15;4,13835E+15;2,19523E+16
﻿75990702408;Restaurant Carpe Diem Lounge Club - CDLC;19.05.01 00:00;22.09.21 08:46;Passeig Marítim de la Barceloneta;32;3;la Barceloneta;1;Ciutat Vella;8003;Barcelona;4,32711E+15;4,58164E+15;4,13835E+15;2,19523E+16
﻿75990618595;Café Royale;26.02.00 00:00;17.09.22 03:39;C Nou de Zurbano;3;2;el Barri Gòtic;1;Ciutat Vella;8002;BARCELONA;4,31075E+15;4,58122E+13;4,13795E+15;2,17571E+16
﻿75990662594;Santé Café;24.06.00 00:00;28.05.21 14:37;Comte d'Urgell;171;9;la Nova Esquerra de l'Eixample;2;Eixample;8036;BARCELONA;4,28988E+15;4,58217E+15;4,1388E+15;2,15065E+16
﻿75990662594;Santé Café;24.06.00 00:00;28.05.21 14:37;Comte d'Urgell;171;9;la Nova Esquerra de l'Eixample;2;Eixample;8036;BARCELONA;4,28988E+15;4,58217E+15;4,1388E+15;2,15065E+16
﻿99088120250;Discoteca La Terrrazza *Poble Espanyol;29.03.99 00:00;17.09.22 05:49;Av Francesc Ferrer Guàrdia;13;11;el Poble-sec;3;Sants-Montjuïc;8038;BARCELONA;4,28641E+15;4,58009E+15;4,13691E+15;2,14674E+16
﻿96359123240;Escola de ball La Clave;24.12.96 00:00;17.09.22 05:27;Tenor Masini;65;18;Sants;3;Sants-Montjuïc;8028;BARCELONA;4,27386E+15;4,58106E+16;4,13778E+16;2,13162E+16
﻿75990177420;Discoteca Karma;18.09.96 00:00;17.09.22 03:12;Pl Reial;10;2;el Barri Gòtic;1;Ciutat Vella;8002;BARCELONA;4,31067E+15;4,5813E+15;4,13802E+15;2,17561E+16
﻿75990102820;Bar Musical La Fira;18.09.96 00:00;17.09.22 02:59;C Provença;171;8;l'Antiga Esquerra de l'Eixample;2;Eixample;8036;BARCELONA;4,29403E+15;4,58244E+14;4,13904E+15;2,15558E+16
﻿75990118547;Cocteleria Gimlet;18.09.96 00:00;28.05.21 14:37;C Santaló;46;26;Sant Gervasi - Galvany;5;Sarrià-Sant Gervasi;8021;BARCELONA;4,28558E+15;4,58308E+15;4,13961E+15;2,14539E+16
﻿75990118547;Cocteleria Gimlet;18.09.96 00:00;28.05.21 14:37;C Santaló;46;26;Sant Gervasi - Galvany;5;Sarrià-Sant Gervasi;8021;BARCELONA;4,28558E+15;4,58308E+15;4,13961E+15;2,14539E+16
﻿75990114488;Bar musical El Local;18.09.96 00:00;17.09.22 03:02;Sant Eusebi;36;26;Sant Gervasi - Galvany;5;Sarrià-Sant Gervasi;8006;BARCELONA;4,28762E+16;4,58358E+15;4,14006E+15;2,14777E+16
﻿75990049580;Cocteleria Casablanca;18.09.96 00:00;28.05.21 14:37;C Dos de Maig;277;6;la Sagrada Família;2;Eixample;8025;BARCELONA;4,31415E+16;4,58448E+15;4,1409E+15;2,17941E+16
﻿75990049580;Cocteleria Casablanca;18.09.96 00:00;28.05.21 14:37;C Dos de Maig;277;6;la Sagrada Família;2;Eixample;8025;BARCELONA;4,31415E+16;4,58448E+15;4,1409E+15;2,17941E+16
﻿75990682883;Bar musical Konbe;13.01.01 00:00;17.09.22 03:41;C Deu i Mata;136;19;les Corts;4;Les Corts;8029;BARCELONA;4,27973E+16;4,58241E+15;4,139E+16;2,13848E+16
﻿98049115349;Bar musical Sol de Nit;18.02.98 00:00;17.09.22 05:37;Pl Sol;9;31;la Vila de Gràcia;6;Gràcia;8012;BARCELONA;4,29529E+15;4,58371E+15;4,14018E+15;2,15693E+15
﻿75990053121;Sidecar Factory Club;18.09.96 00:00;17.09.22 02:48;Pl Reial;7;2;el Barri Gòtic;1;Ciutat Vella;8002;BARCELONA;4,31033E+15;4,58133E+15;4,13806E+15;2,17519E+15
﻿75990053121;Sidecar Factory Club;18.09.96 00:00;17.09.22 02:48;Pl Reial;7;2;el Barri Gòtic;1;Ciutat Vella;8002;BARCELONA;4,31033E+15;4,58133E+15;4,13806E+15;2,17519E+15
﻿92086025238;Bar musical Abanico;30.01.88 00:00;28.05.21 14:37;C Camp;3;26;Sant Gervasi - Galvany;5;Sarrià-Sant Gervasi;8021;BARCELONA;4,27961E+16;4,5837E+15;4,14016E+16;2,13817E+14
﻿92086025238;Bar musical Abanico;30.01.88 00:00;28.05.21 14:37;C Camp;3;26;Sant Gervasi - Galvany;5;Sarrià-Sant Gervasi;8021;BARCELONA;4,27961E+16;4,5837E+15;4,14016E+16;2,13817E+14
﻿92086025238;Bar musical Abanico;30.01.88 00:00;28.05.21 14:37;C Camp;3;26;Sant Gervasi - Galvany;5;Sarrià-Sant Gervasi;8021;BARCELONA;4,27961E+16;4,5837E+15;4,14016E+16;2,13817E+14
﻿99400689376;Bar musical karaoke A viva voz *Muntaner;04.04.22 12:13;04.04.22 12:16;Carrer de Muntaner;414;26;Sant Gervasi - Galvany;5;Sarrià-Sant Gervasi;8006;Barcelona;428197241;4583590007;4,14006E+16;2,14102E+15
﻿99400689376;Bar musical karaoke A viva voz *Muntaner;04.04.22 12:13;04.04.22 12:16;Carrer de Muntaner;414;26;Sant Gervasi - Galvany;5;Sarrià-Sant Gervasi;8006;Barcelona;428197241;4583590007;4,14006E+16;2,14102E+15
﻿99400165173;Bar Ultramarinos;19.07.06 12:45;28.05.21 14:37;C Sant Pau;126;1;el Raval;1;Ciutat Vella;8001;BARCELONA;4,30429E+15;4,58079E+14;4,13756E+15;2,16803E+15
﻿99400165173;Bar Ultramarinos;19.07.06 12:45;28.05.21 14:37;C Sant Pau;126;1;el Raval;1;Ciutat Vella;8001;BARCELONA;4,30429E+15;4,58079E+14;4,13756E+15;2,16803E+15
﻿99400165173;Bar Ultramarinos;19.07.06 12:45;28.05.21 14:37;C Sant Pau;126;1;el Raval;1;Ciutat Vella;8001;BARCELONA;4,30429E+15;4,58079E+14;4,13756E+15;2,16803E+15
﻿75990331974;Bar Restaurant La Fourmi;18.09.96 00:00;28.05.21 14:37;C Alba;2;31;la Vila de Gràcia;6;Gràcia;8012;BARCELONA;4,29933E+15;4,58372E+15;4,1402E+16;2,16176E+15
﻿75990331974;Bar Restaurant La Fourmi;18.09.96 00:00;28.05.21 14:37;C Alba;2;31;la Vila de Gràcia;6;Gràcia;8012;BARCELONA;4,29933E+15;4,58372E+15;4,1402E+16;2,16176E+15
﻿75990331974;Bar Restaurant La Fourmi;18.09.96 00:00;28.05.21 14:37;C Alba;2;31;la Vila de Gràcia;6;Gràcia;8012;BARCELONA;4,29933E+15;4,58372E+15;4,1402E+16;2,16176E+15
﻿75990421116;Cocteleria Sips Drinkery House;22.03.97 00:00;03.10.22 10:13;Muntaner;108;8;l'Antiga Esquerra de l'Eixample;2;Eixample;8036;BARCELONA;4,29495E+15;4,58227E+15;4,13889E+15;2,1567E+16
﻿75990421116;Cocteleria Sips Drinkery House;22.03.97 00:00;03.10.22 10:13;Muntaner;108;8;l'Antiga Esquerra de l'Eixample;2;Eixample;8036;BARCELONA;4,29495E+15;4,58227E+15;4,13889E+15;2,1567E+16
﻿99400682961;Restaurant Gala Barcelona;31.12.21 08:30;31.12.21 08:33;Carrer de Provença;286;7;la Dreta de l'Eixample;2;Eixample;8008;Barcelona;4,29852E+13;4,58285E+14;4,13942E+15;2,16089E+16
﻿99400682961;Restaurant Gala Barcelona;31.12.21 08:30;31.12.21 08:33;Carrer de Provença;286;7;la Dreta de l'Eixample;2;Eixample;8008;Barcelona;4,29852E+13;4,58285E+14;4,13942E+15;2,16089E+16
﻿99400682961;Restaurant Gala Barcelona;31.12.21 08:30;31.12.21 08:33;Carrer de Provença;286;7;la Dreta de l'Eixample;2;Eixample;8008;Barcelona;4,29852E+13;4,58285E+14;4,13942E+15;2,16089E+16
﻿99400168325;Bar Musical Sugar;28.09.06 13:17;28.05.21 14:37;C Rauric;21;2;el Barri Gòtic;1;Ciutat Vella;8002;BARCELONA;4,31071E+15;4,58136E+15;4,13808E+15;2,17565E+16
﻿99400168325;Bar Musical Sugar;28.09.06 13:17;28.05.21 14:37;C Rauric;21;2;el Barri Gòtic;1;Ciutat Vella;8002;BARCELONA;4,31071E+15;4,58136E+15;4,13808E+15;2,17565E+16
﻿99400168325;Bar Musical Sugar;28.09.06 13:17;28.05.21 14:37;C Rauric;21;2;el Barri Gòtic;1;Ciutat Vella;8002;BARCELONA;4,31071E+15;4,58136E+15;4,13808E+15;2,17565E+16
﻿99400172660;Bar musical Ballbreak;27.11.06 17:33;17.09.22 06:39;C Matilde;7;31;la Vila de Gràcia;6;Gràcia;8012;BARCELONA;4,29526E+15;4,58356E+15;4,14005E+15;2,15692E+15
﻿99400165181;Bar People Lounge;19.07.06 13:56;28.05.21 14:37;C Villarroel;71;8;l'Antiga Esquerra de l'Eixample;2;Eixample;8011;BARCELONA;4,2965E+16;4,5817E+15;4,13837E+15;2,15862E+15
﻿99400165181;Bar People Lounge;19.07.06 13:56;28.05.21 14:37;C Villarroel;71;8;l'Antiga Esquerra de l'Eixample;2;Eixample;8011;BARCELONA;4,2965E+16;4,5817E+15;4,13837E+15;2,15862E+15
﻿99400165181;Bar People Lounge;19.07.06 13:56;28.05.21 14:37;C Villarroel;71;8;l'Antiga Esquerra de l'Eixample;2;Eixample;8011;BARCELONA;4,2965E+16;4,5817E+15;4,13837E+15;2,15862E+15
﻿75990405246;Karaoke Weekend;18.09.96 00:00;17.09.22 03:30;C Diputació;365;7;la Dreta de l'Eixample;2;Eixample;8009;BARCELONA;4,31021E+15;4,58309E+15;4,13964E+15;2,17485E+16
﻿99400169921;Bar Restaurant Regina Lobby Bar;16.10.06 16:54;28.05.21 14:38;C Bergara;2;7;la Dreta de l'Eixample;2;Eixample;8002;BARCELONA;4,30432E+15;4,58194E+15;4,1386E+14;2,16794E+16
﻿99400169921;Bar Restaurant Regina Lobby Bar;16.10.06 16:54;28.05.21 14:38;C Bergara;2;7;la Dreta de l'Eixample;2;Eixample;8002;BARCELONA;4,30432E+15;4,58194E+15;4,1386E+14;2,16794E+16
﻿99400169921;Bar Restaurant Regina Lobby Bar;16.10.06 16:54;28.05.21 14:38;C Bergara;2;7;la Dreta de l'Eixample;2;Eixample;8002;BARCELONA;4,30432E+15;4,58194E+15;4,1386E+14;2,16794E+16
﻿99182194919;Discoteca Arena Clàssic;01.07.99 00:00;17.09.22 05:52;Diputació;233;7;la Dreta de l'Eixample;2;Eixample;8007;BARCELONA;4,30129E+15;4,58222E+15;4,13885E+16;2,16428E+16
﻿99400632799;Golden Shisha Lounge;24.07.19 11:48;17.09.22 11:06;C Plató;13;26;Sant Gervasi - Galvany;5;Sarrià-Sant Gervasi;8006;BARCELONA;4,28262E+16;4,58356E+15;4,14004E+16;2,1418E+16
﻿75990264956;Cafeteria restaurant Comillas;18.09.96 00:00;17.09.22 03:17;C Muntaner;190;8;l'Antiga Esquerra de l'Eixample;2;Eixample;8036;BARCELONA;4,29066E+15;4,58271E+14;4,13928E+15;2,15151E+16
﻿75990406306;Restaurant Nervión;18.09.96 00:00;17.09.22 03:30;C Princesa;2;4;Sant Pere, Santa Caterina i la Ribera;1;Ciutat Vella;8003;BARCELONA;4,31363E+16;4,58173E+15;4,13842E+15;2,17909E+14
﻿75990406306;Restaurant Nervión;18.09.96 00:00;17.09.22 03:30;C Princesa;2;4;Sant Pere, Santa Caterina i la Ribera;1;Ciutat Vella;8003;BARCELONA;4,31363E+16;4,58173E+15;4,13842E+15;2,17909E+14
﻿99400161793;Bar musical Vinilo;09.06.06 13:12;28.05.21 14:37;C Matilde;2;31;la Vila de Gràcia;6;Gràcia;8012;BARCELONA;4,29534E+16;4,58356E+15;4,14005E+15;2,15701E+15
﻿99400161793;Bar musical Vinilo;09.06.06 13:12;28.05.21 14:37;C Matilde;2;31;la Vila de Gràcia;6;Gràcia;8012;BARCELONA;4,29534E+16;4,58356E+15;4,14005E+15;2,15701E+15
﻿99400161793;Bar musical Vinilo;09.06.06 13:12;28.05.21 14:37;C Matilde;2;31;la Vila de Gràcia;6;Gràcia;8012;BARCELONA;4,29534E+16;4,58356E+15;4,14005E+15;2,15701E+15
﻿75990489045;Bar musical Honky Tonk  Blues;28.03.98 00:00;17.09.22 03:35;C Finlàndia;45;18;Sants;3;Sants-Montjuïc;8014;BARCELONA;4,27686E+15;4,58069E+15;4,13745E+15;2,13525E+16
﻿96292161332;Bar musical Terra;18.10.96 00:00;17.09.22 05:25;Pl Virreina;5;31;la Vila de Gràcia;6;Gràcia;8024;BARCELONA;4,29539E+16;4,58405E+15;4,14049E+16;2,15701E+15
﻿99400194361;Opium Mar Bcn;02.11.07 14:18;22.09.21 08:47;Passeig Marítim de la Barceloneta;34;3;la Barceloneta;1;Ciutat Vella;8003;Barcelona;4,32732E+15;4,58164E+15;4,13835E+15;2,19548E+15
﻿99400194361;Opium Mar Bcn;02.11.07 14:18;22.09.21 08:47;Passeig Marítim de la Barceloneta;34;3;la Barceloneta;1;Ciutat Vella;8003;Barcelona;4,32732E+15;4,58164E+15;4,13835E+15;2,19548E+15
﻿75990100097;Bar musical La Torre Rosa;18.09.96 00:00;28.05.21 14:37;C Francesc Tàrrega;22;62;el Congrés i els Indians;9;Sant Andreu;8027;BARCELONA;4,31521E+15;4,58601E+15;4,14227E+15;2,1805E+16
﻿75990100097;Bar musical La Torre Rosa;18.09.96 00:00;28.05.21 14:37;C Francesc Tàrrega;22;62;el Congrés i els Indians;9;Sant Andreu;8027;BARCELONA;4,31521E+15;4,58601E+15;4,14227E+15;2,1805E+16
﻿75990100097;Bar musical La Torre Rosa;18.09.96 00:00;28.05.21 14:37;C Francesc Tàrrega;22;62;el Congrés i els Indians;9;Sant Andreu;8027;BARCELONA;4,31521E+15;4,58601E+15;4,14227E+15;2,1805E+16
﻿98238104125;Pub anglès The Black Horse;26.08.98 00:00;17.09.22 05:42;C Allada-Vermell;16;4;Sant Pere, Santa Caterina i la Ribera;1;Ciutat Vella;8003;BARCELONA;4,31529E+15;4,58201E+15;4,13867E+14;2,18105E+16
﻿99400557452;Restaurant Cocteleria Ajoblanco;15.11.17 17:49;28.05.21 14:38;C Tuset;20;26;Sant Gervasi - Galvany;5;Sarrià-Sant Gervasi;8006;BARCELONA;4,29119E+16;4,58307E+15;4,1396E+16;2,1521E+16
﻿99400557452;Restaurant Cocteleria Ajoblanco;15.11.17 17:49;28.05.21 14:38;C Tuset;20;26;Sant Gervasi - Galvany;5;Sarrià-Sant Gervasi;8006;BARCELONA;4,29119E+16;4,58307E+15;4,1396E+16;2,1521E+16
﻿99400557452;Restaurant Cocteleria Ajoblanco;15.11.17 17:49;28.05.21 14:38;C Tuset;20;26;Sant Gervasi - Galvany;5;Sarrià-Sant Gervasi;8006;BARCELONA;4,29119E+16;4,58307E+15;4,1396E+16;2,1521E+16
﻿97310175200;Bar Musical Bare Nostrum;06.11.97 00:00;17.09.22 05:34;Consell de Cent;384;7;la Dreta de l'Eixample;2;Eixample;8009;BARCELONA;4,30753E+16;4,58299E+15;4,13954E+15;2,17166E+16
﻿99400370686;Restaurant Lounge My Way;13.02.15 17:27;17.09.22 08:14;C Heures;4;2;el Barri Gòtic;1;Ciutat Vella;8002;BARCELONA;4,3104E+15;4,58136E+15;4,13808E+15;2,17528E+16
﻿99400370686;Restaurant Lounge My Way;13.02.15 17:27;17.09.22 08:14;C Heures;4;2;el Barri Gòtic;1;Ciutat Vella;8002;BARCELONA;4,3104E+15;4,58136E+15;4,13808E+15;2,17528E+16
﻿92086032966;Bar Musical Kahiki;21.03.90 00:00;17.09.22 04:43;G.V. Corts Catalanes;581;8;l'Antiga Esquerra de l'Eixample;2;Eixample;8011;BARCELONA;4,29981E+15;4,58189E+15;4,13855E+15;2,16256E+16
﻿99400486994;Restaurant Cuba de Janeiro;21.03.17 12:33;28.05.21 14:38;Av Mistral;33;10;Sant Antoni;2;Eixample;8015;BARCELONA;4,2952E+14;4,58092E+15;4,13767E+16;2,15716E+15
﻿99400486994;Restaurant Cuba de Janeiro;21.03.17 12:33;28.05.21 14:38;Av Mistral;33;10;Sant Antoni;2;Eixample;8015;BARCELONA;4,2952E+14;4,58092E+15;4,13767E+16;2,15716E+15
﻿99400486994;Restaurant Cuba de Janeiro;21.03.17 12:33;28.05.21 14:38;Av Mistral;33;10;Sant Antoni;2;Eixample;8015;BARCELONA;4,2952E+14;4,58092E+15;4,13767E+16;2,15716E+15
﻿99400637674;Restaurant & Cocktails Oda;27.09.19 00:00;28.05.21 14:38;Marina;19;3;la Barceloneta;1;Ciutat Vella;8005;BARCELONA;4,32827E+16;4,58204E+15;4,13871E+15;2,19657E+14
﻿99400637674;Restaurant & Cocktails Oda;27.09.19 00:00;28.05.21 14:38;Marina;19;3;la Barceloneta;1;Ciutat Vella;8005;BARCELONA;4,32827E+16;4,58204E+15;4,13871E+15;2,19657E+14
﻿99400637674;Restaurant & Cocktails Oda;27.09.19 00:00;28.05.21 14:38;Marina;19;3;la Barceloneta;1;Ciutat Vella;8005;BARCELONA;4,32827E+16;4,58204E+15;4,13871E+15;2,19657E+14
﻿92274113445;Bar musical Aire - Sala Diana;30.09.92 00:00;17.09.22 04:58;València;236;8;l'Antiga Esquerra de l'Eixample;2;Eixample;8007;BARCELONA;4,29805E+16;4,58243E+15;4,13904E+15;2,16038E+15
﻿99400631235;Jardín de Diana;04.07.19 00:00;28.05.21 14:38;G.V. Corts Catalanes;668;7;la Dreta de l'Eixample;2;Eixample;8010;BARCELONA;4,30742E+16;4,58256E+15;4,13916E+14;2,17158E+16
﻿99400631235;Jardín de Diana;04.07.19 00:00;28.05.21 14:38;G.V. Corts Catalanes;668;7;la Dreta de l'Eixample;2;Eixample;8010;BARCELONA;4,30742E+16;4,58256E+15;4,13916E+14;2,17158E+16
﻿99400629064;Bar Musical Robadors 23;03.06.19 15:38;17.09.22 11:04;C Robador;23;1;el Raval;1;Ciutat Vella;8001;BARCELONA;4,30662E+15;4,58124E+15;4,13797E+15;2,17077E+16
﻿99400377990;Bar musical Summum NightBar;17.02.15 16:01;17.09.22 08:14;C Aribau;66;8;l'Antiga Esquerra de l'Eixample;2;Eixample;8011;BARCELONA;4,29688E+16;4,58226E+15;4,13888E+15;2,159E+16
﻿99400557479;Hall0 Cocktail Bar;16.11.17 00:00;28.05.21 14:38;Pg Gràcia;75;7;la Dreta de l'Eixample;2;Eixample;8008;BARCELONA;4,29963E+16;4,58283E+16;4,13939E+15;2,16223E+16
﻿99400557479;Hall0 Cocktail Bar;16.11.17 00:00;28.05.21 14:38;Pg Gràcia;75;7;la Dreta de l'Eixample;2;Eixample;8008;BARCELONA;4,29963E+16;4,58283E+16;4,13939E+15;2,16223E+16
﻿92086026486;Bar musical Kahala;05.04.88 00:00;17.09.22 04:36;Av Diagonal;537;19;les Corts;4;Les Corts;8029;BARCELONA;4,27938E+15;4,58249E+15;4,13907E+15;2,13804E+16
﻿99400683060;Cocteleria Libertine;07.01.22 09:03;07.01.22 09:04;Gran Via de les Corts Catalanes;700;7;la Dreta de l'Eixample;2;Eixample;8010;Barcelona;4,30971E+16;4,58278E+15;4,13936E+15;2,17429E+15
﻿99400683060;Cocteleria Libertine;07.01.22 09:03;07.01.22 09:04;Gran Via de les Corts Catalanes;700;7;la Dreta de l'Eixample;2;Eixample;8010;Barcelona;4,30971E+16;4,58278E+15;4,13936E+15;2,17429E+15
﻿99400596452;Restaurant Pur - Impur;02.07.18 14:17;28.05.21 14:38;Ptge Concepció;11;7;la Dreta de l'Eixample;2;Eixample;8008;BARCELONA;4,29784E+15;4,58289E+15;4,13945E+15;2,16008E+16
﻿99400596452;Restaurant Pur - Impur;02.07.18 14:17;28.05.21 14:38;Ptge Concepció;11;7;la Dreta de l'Eixample;2;Eixample;8008;BARCELONA;4,29784E+15;4,58289E+15;4,13945E+15;2,16008E+16
﻿99400596452;Restaurant Pur - Impur;02.07.18 14:17;28.05.21 14:38;Ptge Concepció;11;7;la Dreta de l'Eixample;2;Eixample;8008;BARCELONA;4,29784E+15;4,58289E+15;4,13945E+15;2,16008E+16
﻿75990263715;Discoteca Otto Zutz;15.12.96 00:00;17.09.22 03:17;C Lincoln;15;26;Sant Gervasi - Galvany;5;Sarrià-Sant Gervasi;8006;BARCELONA;4,28948E+15;4,58356E+15;4,14004E+16;2,15001E+16
﻿75990355982;Solange Cocktails & Luxury Spirits;18.09.96 00:00;28.05.21 14:37;C Aribau;143;8;l'Antiga Esquerra de l'Eixample;2;Eixample;8036;BARCELONA;4,29275E+14;4,58265E+15;4,13923E+15;2,15403E+16
﻿75990355982;Solange Cocktails & Luxury Spirits;18.09.96 00:00;28.05.21 14:37;C Aribau;143;8;l'Antiga Esquerra de l'Eixample;2;Eixample;8036;BARCELONA;4,29275E+14;4,58265E+15;4,13923E+15;2,15403E+16
﻿93221210635;Bar musical Com-tu;09.08.93 00:00;17.09.22 05:04;C Pere IV;101;66;el Parc i la Llacuna del Poblenou;10;Sant Martí;8018;BARCELONA;4,32663E+15;4,58337E+15;4,1399E+16;2,19446E+15
﻿99400209562;Bar Musical Paspartú;03.07.08 14:02;28.05.21 14:38;C Basses de Sant Pere;14;4;Sant Pere, Santa Caterina i la Ribera;1;Ciutat Vella;8003;BARCELONA;4,3144E+15;4,58223E+15;4,13887E+15;2,17997E+15
﻿99400209562;Bar Musical Paspartú;03.07.08 14:02;28.05.21 14:38;C Basses de Sant Pere;14;4;Sant Pere, Santa Caterina i la Ribera;1;Ciutat Vella;8003;BARCELONA;4,3144E+15;4,58223E+15;4,13887E+15;2,17997E+15
﻿99400209562;Bar Musical Paspartú;03.07.08 14:02;28.05.21 14:38;C Basses de Sant Pere;14;4;Sant Pere, Santa Caterina i la Ribera;1;Ciutat Vella;8003;BARCELONA;4,3144E+15;4,58223E+15;4,13887E+15;2,17997E+15
﻿99400169910;Bar de copes Sub-Rosa;16.10.06 16:21;17.09.22 06:38;C Rauric;23;2;el Barri Gòtic;1;Ciutat Vella;8002;BARCELONA;4,31076E+16;4,58136E+14;4,13808E+15;2,1757E+15
﻿99400632797;White Shisha Lounge;24.07.19 11:43;17.09.22 11:06;C Doctor Trueta;218;68;el Poblenou;10;Sant Martí;8005;BARCELONA;4,33435E+16;4,58332E+15;4,13986E+16;2,2037E+15
﻿99400504492;Sala de Festes La Paloma *Pendent reobertura;17.05.17 12:36;09.11.22 12:31;C Tigre;27;1;el Raval;1;Ciutat Vella;8001;BARCELONA;4,30117E+16;4,58155E+15;4,13824E+15;2,16421E+15
﻿99400628265;Bar Musical Sinestesia;20.05.19 16:26;17.09.22 11:03;C Santa Caterina;52;18;Sants;3;Sants-Montjuïc;8014;BARCELONA;4,27758E+15;4,58126E+15;4,13796E+16;2,13605E+14
﻿99400628364;Bar Musical Brujas;21.05.19 11:30;17.09.22 11:03;C Mascaró;58;35;el Guinardó;7;Horta-Guinardó;8032;BARCELONA;4,30934E+15;4,586E+15;4,14226E+15;2,17348E+16
﻿99400692513;Club Red 58;23.05.22 12:04;23.05.22 12:12;Carrer del Consell de Cent;280;7;la Dreta de l'Eixample;2;Eixample;8007;Barcelona;430066055;4582313671;4,13893E+16;2,16352E+16
﻿99400692513;Club Red 58;23.05.22 12:04;23.05.22 12:12;Carrer del Consell de Cent;280;7;la Dreta de l'Eixample;2;Eixample;8007;Barcelona;430066055;4582313671;4,13893E+16;2,16352E+16
﻿92086010064;Bar Musical Glaciar;20.12.90 00:00;17.09.22 04:11;Pl Reial;3;2;el Barri Gòtic;1;Ciutat Vella;8002;BARCELONA;4,30993E+14;4,58129E+14;4,13802E+15;2,17472E+16
﻿1033153036;Bar Restaurant El Último Agave;02.02.01 00:00;17.09.22 02:21;C Aragó;193;8;l'Antiga Esquerra de l'Eixample;2;Eixample;8011;BARCELONA;4,29679E+15;4,58216E+15;4,13879E+15;2,15891E+16
﻿1033153036;Bar Restaurant El Último Agave;02.02.01 00:00;17.09.22 02:21;C Aragó;193;8;l'Antiga Esquerra de l'Eixample;2;Eixample;8011;BARCELONA;4,29679E+15;4,58216E+15;4,13879E+15;2,15891E+16
﻿321103526;Bar Musical Síncopa;16.11.00 00:00;28.05.21 14:37;C Avinyó;35;2;el Barri Gòtic;1;Ciutat Vella;8002;BARCELONA;4,31355E+15;4,58131E+14;4,13804E+15;2,17905E+15
﻿321103526;Bar Musical Síncopa;16.11.00 00:00;28.05.21 14:37;C Avinyó;35;2;el Barri Gòtic;1;Ciutat Vella;8002;BARCELONA;4,31355E+15;4,58131E+14;4,13804E+15;2,17905E+15
﻿321103526;Bar Musical Síncopa;16.11.00 00:00;28.05.21 14:37;C Avinyó;35;2;el Barri Gòtic;1;Ciutat Vella;8002;BARCELONA;4,31355E+15;4,58131E+14;4,13804E+15;2,17905E+15
﻿325120406;Atlàntic Bar;20.11.00 00:00;17.09.22 02:20;Av Tibidabo;56;25;Sant Gervasi - la Bonanova;5;Sarrià-Sant Gervasi;8035;BARCELONA;4,27428E+16;4,58523E+15;4,14154E+16;2,13162E+15
﻿92086021222;Bar musical Miramelindo;21.05.87 00:00;17.09.22 04:32;Pg Born;15;4;Sant Pere, Santa Caterina i la Ribera;1;Ciutat Vella;8003;BARCELONA;4,31652E+15;4,58178E+15;4,13846E+15;2,18255E+16
﻿99400628268;L'Ex-Designer Project Bar;20.05.19 16:41;17.09.22 11:03;C Entença;3;10;Sant Antoni;2;Eixample;8015;BARCELONA;4,2942E+15;4,58078E+15;4,13755E+15;2,15598E+15
﻿99400628369;Bar Musical Ruta 66;21.05.19 11:37;17.09.22 11:03;C Sòcrates;66;60;Sant Andreu;9;Sant Andreu;8030;BARCELONA;4,31991E+16;4,58703E+15;4,1432E+15;2,18601E+15
﻿99400621024;Lounge Bar Restaurant Cirkuz Land;27.02.19 10:38;28.05.21 14:38;C Comerç;24;4;Sant Pere, Santa Caterina i la Ribera;1;Ciutat Vella;8003;BARCELONA;4,31556E+16;4,58221E+15;4,13885E+14;2,18136E+15
﻿99400621024;Lounge Bar Restaurant Cirkuz Land;27.02.19 10:38;28.05.21 14:38;C Comerç;24;4;Sant Pere, Santa Caterina i la Ribera;1;Ciutat Vella;8003;BARCELONA;4,31556E+16;4,58221E+15;4,13885E+14;2,18136E+15
﻿99400621024;Lounge Bar Restaurant Cirkuz Land;27.02.19 10:38;28.05.21 14:38;C Comerç;24;4;Sant Pere, Santa Caterina i la Ribera;1;Ciutat Vella;8003;BARCELONA;4,31556E+16;4,58221E+15;4,13885E+14;2,18136E+15
﻿99400164991;Cocteleria Milk;14.07.06 12:35;28.05.21 14:37;C Gignàs;21;2;el Barri Gòtic;1;Ciutat Vella;8002;BARCELONA;4,31447E+16;4,58142E+15;4,13813E+15;2,18014E+16
﻿99400164991;Cocteleria Milk;14.07.06 12:35;28.05.21 14:37;C Gignàs;21;2;el Barri Gòtic;1;Ciutat Vella;8002;BARCELONA;4,31447E+16;4,58142E+15;4,13813E+15;2,18014E+16
﻿99400596754;Bar Pub The James Joyce;06.07.18 11:34;17.09.22 09:25;C Casp;92;7;la Dreta de l'Eixample;2;Eixample;8010;BARCELONA;4,3116E+16;4,58278E+14;4,13936E+15;2,17655E+15
﻿99400073886;Flaherty's Irish Bar;18.02.04 14:05;17.09.22 06:10;Pl Joaquim Xirau i Palau;3;2;el Barri Gòtic;1;Ciutat Vella;8002;BARCELONA;4,31148E+15;4,58109E+15;4,13784E+15;2,1766E+16
﻿99400370736;Bar musical Número 9;16.02.15 13:21;17.09.22 08:14;C Vidrieria;9;4;Sant Pere, Santa Caterina i la Ribera;1;Ciutat Vella;8003;BARCELONA;4,31682E+16;4,58173E+15;4,13842E+16;2,18292E+16
﻿99400576535;Bar musical Le Standard;08.02.18 11:19;17.09.22 09:12;C Topazi;24;31;la Vila de Gràcia;6;Gràcia;8012;BARCELONA;4,29359E+15;4,58407E+15;4,14051E+16;2,15485E+16
﻿99400604555;Restaurant Feroz;26.07.18 10:10;28.05.21 14:38;C Tuset;27;26;Sant Gervasi - Galvany;5;Sarrià-Sant Gervasi;8006;BARCELONA;4,29021E+15;4,58313E+15;4,13966E+16;2,15093E+15
﻿99400604555;Restaurant Feroz;26.07.18 10:10;28.05.21 14:38;C Tuset;27;26;Sant Gervasi - Galvany;5;Sarrià-Sant Gervasi;8006;BARCELONA;4,29021E+15;4,58313E+15;4,13966E+16;2,15093E+15
﻿99400604555;Restaurant Feroz;26.07.18 10:10;28.05.21 14:38;C Tuset;27;26;Sant Gervasi - Galvany;5;Sarrià-Sant Gervasi;8006;BARCELONA;4,29021E+15;4,58313E+15;4,13966E+16;2,15093E+15
﻿99400027886;Cocteleria Upiaywasi;23.11.02 14:08;28.05.21 14:37;C Allada-Vermell;11;4;Sant Pere, Santa Caterina i la Ribera;1;Ciutat Vella;8003;BARCELONA;4,31532E+16;4,58204E+15;4,1387E+15;2,18109E+15
﻿99400027886;Cocteleria Upiaywasi;23.11.02 14:08;28.05.21 14:37;C Allada-Vermell;11;4;Sant Pere, Santa Caterina i la Ribera;1;Ciutat Vella;8003;BARCELONA;4,31532E+16;4,58204E+15;4,1387E+15;2,18109E+15
﻿99400566394;Bar Muy Buenas;18.12.17 13:21;28.05.21 14:38;C Carme;63;1;el Raval;1;Ciutat Vella;8001;BARCELONA;4,30434E+14;4,58138E+16;4,13809E+14;2,16803E+16
﻿99400566394;Bar Muy Buenas;18.12.17 13:21;28.05.21 14:38;C Carme;63;1;el Raval;1;Ciutat Vella;8001;BARCELONA;4,30434E+14;4,58138E+16;4,13809E+14;2,16803E+16
﻿92086017325;Discoteca Boulevard Culture Club;13.01.89 00:00;17.09.22 04:27;C la Rambla;27;1;el Raval;1;Ciutat Vella;8002;BARCELONA;4,31037E+16;4,58113E+15;4,13787E+15;2,17527E+16
﻿99400593988;Cocteleria Divina Gloria;07.06.18 09:44;28.05.21 14:38;Av Paral·lel;169;11;el Poble-sec;3;Sants-Montjuïc;8004;BARCELONA;4,29439E+15;4,58071E+15;4,13748E+15;2,15621E+16
﻿99400593988;Cocteleria Divina Gloria;07.06.18 09:44;28.05.21 14:38;Av Paral·lel;169;11;el Poble-sec;3;Sants-Montjuïc;8004;BARCELONA;4,29439E+15;4,58071E+15;4,13748E+15;2,15621E+16
﻿99400595976;Restaurant La República;27.06.18 09:54;28.05.21 14:38;C Mercè;13;2;el Barri Gòtic;1;Ciutat Vella;8002;BARCELONA;4,31458E+16;4,58128E+15;4,13801E+16;2,18028E+16
﻿99400595976;Restaurant La República;27.06.18 09:54;28.05.21 14:38;C Mercè;13;2;el Barri Gòtic;1;Ciutat Vella;8002;BARCELONA;4,31458E+16;4,58128E+15;4,13801E+16;2,18028E+16
﻿99400595976;Restaurant La República;27.06.18 09:54;28.05.21 14:38;C Mercè;13;2;el Barri Gòtic;1;Ciutat Vella;8002;BARCELONA;4,31458E+16;4,58128E+15;4,13801E+16;2,18028E+16
﻿99400604398;Pub Ambarito;24.07.18 14:03;17.09.22 10:51;C Consell de Cent;193;8;l'Antiga Esquerra de l'Eixample;2;Eixample;8011;BARCELONA;4,29472E+15;4,58176E+15;4,13843E+15;2,15648E+16
﻿99400604399;Pub Ambarito;24.07.18 14:03;17.09.22 10:51;C Consell de Cent;193;8;l'Antiga Esquerra de l'Eixample;2;Eixample;8011;BARCELONA;4,29472E+15;4,58176E+15;4,13843E+15;2,15648E+16
﻿99400694323;Restaurant Jacqueline Barcelona;27.06.22 11:31;06.09.22 15:12;Carrer d'Enric Granados;66;8;l'Antiga Esquerra de l'Eixample;2;Eixample;8008;Barcelona;429511873;4582629742;4,13921E+16;2,15686E+15
﻿99400694323;Restaurant Jacqueline Barcelona;27.06.22 11:31;06.09.22 15:12;Carrer d'Enric Granados;66;8;l'Antiga Esquerra de l'Eixample;2;Eixample;8008;Barcelona;429511873;4582629742;4,13921E+16;2,15686E+15
﻿99400694323;Restaurant Jacqueline Barcelona;27.06.22 11:31;06.09.22 15:12;Carrer d'Enric Granados;66;8;l'Antiga Esquerra de l'Eixample;2;Eixample;8008;Barcelona;429511873;4582629742;4,13921E+16;2,15686E+15
﻿1033170144;Restaurant Candela Raval;02.02.01 00:00;28.05.21 14:37;Pl Salvador Seguí;13;1;el Raval;1;Ciutat Vella;8001;BARCELONA;4,30657E+16;4,58117E+12;4,13791E+15;2,17072E+16
﻿1033170144;Restaurant Candela Raval;02.02.01 00:00;28.05.21 14:37;Pl Salvador Seguí;13;1;el Raval;1;Ciutat Vella;8001;BARCELONA;4,30657E+16;4,58117E+12;4,13791E+15;2,17072E+16
﻿1033170144;Restaurant Candela Raval;02.02.01 00:00;28.05.21 14:37;Pl Salvador Seguí;13;1;el Raval;1;Ciutat Vella;8001;BARCELONA;4,30657E+16;4,58117E+12;4,13791E+15;2,17072E+16
﻿75990106254;Bar musical Lunatic Pub;18.09.96 00:00;17.09.22 03:00;C Regent Mendieta;38;20;la Maternitat i Sant Ramon;4;Les Corts;8028;BARCELONA;4,26715E+15;4,58103E+15;4,13774E+16;2,12359E+15
﻿75990029749;Cocteleria Caribbean Club;17.09.96 00:00;28.05.21 14:37;C Sitges;5;1;el Raval;1;Ciutat Vella;8001;BARCELONA;4,3057E+15;4,58177E+15;4,13845E+15;2,16961E+15
﻿75990029749;Cocteleria Caribbean Club;17.09.96 00:00;28.05.21 14:37;C Sitges;5;1;el Raval;1;Ciutat Vella;8001;BARCELONA;4,3057E+15;4,58177E+15;4,13845E+15;2,16961E+15
﻿99400592750;Discoteca Mandarina Delux;23.05.18 14:51;17.09.22 09:18;C València;335;7;la Dreta de l'Eixample;2;Eixample;8009;BARCELONA;4,30555E+15;4,5832E+15;4,13973E+16;2,16927E+16
﻿75990145637;Bar Musical London Bar;18.09.96 00:00;17.09.22 03:08;C Nou de la Rambla;34;1;el Raval;1;Ciutat Vella;8001;BARCELONA;4,30862E+15;4,58107E+15;4,13781E+15;2,17318E+16
﻿92086009134;Bar musical La Garrafa dels Beatles;13.12.84 00:00;17.09.22 04:06;C Joan Güell;150;19;les Corts;4;Les Corts;8028;BARCELONA;4,27382E+15;4,58166E+15;4,13832E+16;2,1315E+16
﻿75990090931;Luz de Gas;18.09.96 00:00;17.09.22 02:56;C Muntaner;246;26;Sant Gervasi - Galvany;5;Sarrià-Sant Gervasi;8021;BARCELONA;4,28863E+15;4,58291E+15;4,13946E+15;2,14906E+16
﻿75990090931;Luz de Gas;18.09.96 00:00;17.09.22 02:56;C Muntaner;246;26;Sant Gervasi - Galvany;5;Sarrià-Sant Gervasi;8021;BARCELONA;4,28863E+15;4,58291E+15;4,13946E+15;2,14906E+16
﻿75990076519;Bar musical Basel 79;18.09.96 00:00;17.09.22 02:53;C Loreto;5;19;les Corts;4;Les Corts;8029;BARCELONA;4,28244E+15;4,58229E+15;4,13889E+16;2,14173E+15
﻿99400328185;Discoteca Small's Club;15.10.13 13:12;17.09.22 07:58;C Tuset;3;26;Sant Gervasi - Galvany;5;Sarrià-Sant Gervasi;8006;BARCELONA;4,29143E+16;4,58301E+15;4,13955E+15;2,1524E+16
﻿99400328186;Discoteca Bling Bling;15.10.13 13:22;17.09.22 07:58;C Tuset;8;26;Sant Gervasi - Galvany;5;Sarrià-Sant Gervasi;8006;BARCELONA;4,29163E+15;4,58302E+15;4,13956E+15;2,15264E+15
﻿75990127095;Discoteca Sutton The Club;18.09.96 00:00;17.09.22 03:05;C Tuset;13;26;Sant Gervasi - Galvany;5;Sarrià-Sant Gervasi;8006;BARCELONA;4,29087E+15;4,58307E+15;4,1396E+15;2,15172E+16
﻿75990092643;Taverna Anglesa City Arms;18.09.96 00:00;17.09.22 02:57;Pl Narcís Oller;9;31;la Vila de Gràcia;6;Gràcia;8006;BARCELONA;4,29401E+15;4,58317E+14;4,1397E+15;2,15547E+14
﻿75990176444;Bar musical New Fizz Barcelona;18.09.96 00:00;28.05.21 14:37;Balmes;83;8;l'Antiga Esquerra de l'Eixample;2;Eixample;8008;BARCELONA;4,29794E+16;4,58251E+15;4,1391E+15;2,16024E+16
﻿75990176444;Bar musical New Fizz Barcelona;18.09.96 00:00;28.05.21 14:37;Balmes;83;8;l'Antiga Esquerra de l'Eixample;2;Eixample;8008;BARCELONA;4,29794E+16;4,58251E+15;4,1391E+15;2,16024E+16
﻿75990176444;Bar musical New Fizz Barcelona;18.09.96 00:00;28.05.21 14:37;Balmes;83;8;l'Antiga Esquerra de l'Eixample;2;Eixample;8008;BARCELONA;4,29794E+16;4,58251E+15;4,1391E+15;2,16024E+16
﻿75990225831;Bar musical La Trabanqueta;18.09.96 00:00;17.09.22 03:15;C Mallorca;329;7;la Dreta de l'Eixample;2;Eixample;8037;BARCELONA;4,30469E+16;4,5833E+15;4,13983E+15;2,16823E+15
﻿99400069053;Bar Tequila Bom Bom;03.12.03 09:05;17.09.22 06:06;C Nou de la Rambla;103;1;el Raval;1;Ciutat Vella;8001;BARCELONA;4,30639E+15;4,58077E+15;4,13754E+15;2,17055E+16
﻿75990129349;Bar Musical Les Qents Que J'aime;18.09.96 00:00;17.09.22 03:05;C València;286;7;la Dreta de l'Eixample;2;Eixample;8007;BARCELONA;4,30183E+16;4,5828E+16;4,13937E+14;2,16486E+15
﻿75990150522;Bar musical El Col·leccionista;18.09.96 00:00;17.09.22 03:08;C Torrent de les Flors;46;31;la Vila de Gràcia;6;Gràcia;8024;BARCELONA;4,2984E+16;4,58416E+16;4,14059E+16;2,1606E+15
﻿92205145712;Jamboree;23.07.92 00:00;01.08.22 08:42;Plaça Reial;17;2;el Barri Gòtic;1;Ciutat Vella;8002;Barcelona;4,3104E+15;4,58124E+15;4,13797E+14;2,17529E+16
﻿92205145712;Jamboree;23.07.92 00:00;01.08.22 08:42;Plaça Reial;17;2;el Barri Gòtic;1;Ciutat Vella;8002;Barcelona;4,3104E+15;4,58124E+15;4,13797E+14;2,17529E+16
﻿75990271886;Sala Vivaldi;18.09.96 00:00;17.09.22 03:18;C Llança;5;10;Sant Antoni;2;Eixample;8015;BARCELONA;4,29032E+15;4,5808E+15;4,13756E+15;2,15133E+16
﻿75990271886;Sala Vivaldi;18.09.96 00:00;17.09.22 03:18;C Llança;5;10;Sant Antoni;2;Eixample;8015;BARCELONA;4,29032E+15;4,5808E+15;4,13756E+15;2,15133E+16
﻿99400109274;Sala de Ball Nueva Época;20.04.05 17:51;17.09.22 06:23;G.V. Corts Catalanes;770;5;el Fort Pienc;2;Eixample;8013;BARCELONA;4,31516E+15;4,58332E+15;4,13985E+15;2,18075E+16
﻿99400109274;Sala de Ball Nueva Época;20.04.05 17:51;17.09.22 06:23;G.V. Corts Catalanes;770;5;el Fort Pienc;2;Eixample;8013;BARCELONA;4,31516E+15;4,58332E+15;4,13985E+15;2,18075E+16
﻿99400128206;Pub Irlandès McCarthy's Bar;23.07.05 12:30;28.05.21 14:37;Via Laietana;44;4;Sant Pere, Santa Caterina i la Ribera;1;Ciutat Vella;8003;BARCELONA;4,31105E+16;4,58196E+15;4,13862E+15;2,17598E+15
﻿99400128206;Pub Irlandès McCarthy's Bar;23.07.05 12:30;28.05.21 14:37;Via Laietana;44;4;Sant Pere, Santa Caterina i la Ribera;1;Ciutat Vella;8003;BARCELONA;4,31105E+16;4,58196E+15;4,13862E+15;2,17598E+15
﻿99400128206;Pub Irlandès McCarthy's Bar;23.07.05 12:30;28.05.21 14:37;Via Laietana;44;4;Sant Pere, Santa Caterina i la Ribera;1;Ciutat Vella;8003;BARCELONA;4,31105E+16;4,58196E+15;4,13862E+15;2,17598E+15
﻿99400214354;Bar Cocteleria Mama Shake;02.10.08 13:46;28.05.21 14:38;C Fonollar;8;4;Sant Pere, Santa Caterina i la Ribera;1;Ciutat Vella;8003;BARCELONA;4,3142E+14;4,58203E+15;4,13869E+14;2,17975E+16
﻿99400214354;Bar Cocteleria Mama Shake;02.10.08 13:46;28.05.21 14:38;C Fonollar;8;4;Sant Pere, Santa Caterina i la Ribera;1;Ciutat Vella;8003;BARCELONA;4,3142E+14;4,58203E+15;4,13869E+14;2,17975E+16
﻿75990022850;Bar musical Paco Moreno;17.09.96 00:00;17.09.22 02:40;C Balmes;56;7;la Dreta de l'Eixample;2;Eixample;8007;BARCELONA;4,29992E+14;4,58233E+15;4,13895E+15;2,16264E+16
﻿75990017166;Bar Kentucky;17.09.96 00:00;17.09.22 02:38;Arc del Teatre;11;1;el Raval;1;Ciutat Vella;8001;BARCELONA;4,3099E+16;4,58102E+16;4,13777E+15;2,17471E+16
﻿99400147900;Pub Madame Jasmine;23.11.05 11:53;28.05.21 14:37;Rbla Raval;22;1;el Raval;1;Ciutat Vella;8001;BARCELONA;4,3057E+16;4,58106E+15;4,1378E+15;2,16969E+15
﻿99400147900;Pub Madame Jasmine;23.11.05 11:53;28.05.21 14:37;Rbla Raval;22;1;el Raval;1;Ciutat Vella;8001;BARCELONA;4,3057E+16;4,58106E+15;4,1378E+15;2,16969E+15
﻿99400201862;Pub The George Payne Irish Bar;11.03.08 13:22;17.09.22 06:57;Pl Urquinaona;5;7;la Dreta de l'Eixample;2;Eixample;8010;BARCELONA;4,30857E+15;4,58233E+15;4,13895E+16;2,17297E+16
﻿75990018325;Restaurant El Patio Andaluz;17.09.96 00:00;17.09.22 02:39;C Rocafort;231;9;la Nova Esquerra de l'Eixample;2;Eixample;8029;BARCELONA;4,28571E+16;4,58184E+16;4,13849E+15;2,1457E+15
﻿75990018325;Restaurant El Patio Andaluz;17.09.96 00:00;17.09.22 02:39;C Rocafort;231;9;la Nova Esquerra de l'Eixample;2;Eixample;8029;BARCELONA;4,28571E+16;4,58184E+16;4,13849E+15;2,1457E+15
﻿99400158645;Karaoke Touch Music;10.05.06 13:15;04.04.22 12:18;C Joan Miró;8;67;la Vila Olímpica del Poblenou;10;Sant Martí;8005;BARCELONA;4,32831E+16;4,58236E+14;4,139E+16;2,19658E+16
﻿99400173593;Pepe Bar;11.12.06 18:15;17.09.22 06:42;C Pamplona;91;66;el Parc i la Llacuna del Poblenou;10;Sant Martí;8018;BARCELONA;4,32374E+15;4,58313E+15;4,13968E+16;2,19103E+16
﻿99400176913;Milans Cocktail Barcelona;02.02.07 14:29;25.02.22 12:37;Carrer de Milans;7;2;el Barri Gòtic;1;Ciutat Vella;8002;Barcelona;4,31368E+16;4,58134E+15;4,13807E+15;2,1792E+15
﻿99400176913;Milans Cocktail Barcelona;02.02.07 14:29;25.02.22 12:37;Carrer de Milans;7;2;el Barri Gòtic;1;Ciutat Vella;8002;Barcelona;4,31368E+16;4,58134E+15;4,13807E+15;2,1792E+15
﻿75990099622;Virreina Bar;18.09.96 00:00;17.09.22 02:58;Pl Virreina;1;31;la Vila de Gràcia;6;Gràcia;8024;BARCELONA;4,29588E+15;4,58406E+15;4,1405E+15;2,1576E+16
﻿99400698842;Cocteleria Monk;03.10.22 10:09;03.10.22 10:09;Carrer dels Abaixadors;6;4;Sant Pere, Santa Caterina i la Ribera;1;Ciutat Vella;8003;Barcelona;431536934;458161029;4,13831E+15;2,18119E+15
﻿99400698842;Cocteleria Monk;03.10.22 10:09;03.10.22 10:09;Carrer dels Abaixadors;6;4;Sant Pere, Santa Caterina i la Ribera;1;Ciutat Vella;8003;Barcelona;431536934;458161029;4,13831E+15;2,18119E+15
﻿75990074105;Bar Musical Snooker Club Barcelona;18.09.96 00:00;28.05.21 14:37;C Roger de Llúria;42;7;la Dreta de l'Eixample;2;Eixample;8009;BARCELONA;4,30642E+16;4,58262E+15;4,13922E+16;2,17037E+16
﻿75990074105;Bar Musical Snooker Club Barcelona;18.09.96 00:00;28.05.21 14:37;C Roger de Llúria;42;7;la Dreta de l'Eixample;2;Eixample;8009;BARCELONA;4,30642E+16;4,58262E+15;4,13922E+16;2,17037E+16
﻿75990074105;Bar Musical Snooker Club Barcelona;18.09.96 00:00;28.05.21 14:37;C Roger de Llúria;42;7;la Dreta de l'Eixample;2;Eixample;8009;BARCELONA;4,30642E+16;4,58262E+15;4,13922E+16;2,17037E+16
﻿75990061273;Discoteca Blue Boîte;18.09.96 00:00;17.09.22 02:49;Av Diagonal;477;8;l'Antiga Esquerra de l'Eixample;2;Eixample;8036;BARCELONA;4,2858E+15;4,58272E+15;4,13928E+15;2,1457E+15
﻿75990044525;Sala de Ball Duvet;18.09.96 00:00;17.09.22 02:46;Còrsega;327;31;la Vila de Gràcia;6;Gràcia;8037;BARCELONA;4,29785E+16;4,58319E+14;4,13972E+15;2,16006E+14
﻿75990044525;Sala de Ball Duvet;18.09.96 00:00;17.09.22 02:46;Còrsega;327;31;la Vila de Gràcia;6;Gràcia;8037;BARCELONA;4,29785E+16;4,58319E+14;4,13972E+15;2,16006E+14
﻿99400355659;Sala Artte;14.10.14 14:19;28.05.21 14:38;C Muntaner;83;8;l'Antiga Esquerra de l'Eixample;2;Eixample;8011;BARCELONA;4,29589E+16;4,58214E+15;4,13877E+15;2,15784E+15
﻿99400355659;Sala Artte;14.10.14 14:19;28.05.21 14:38;C Muntaner;83;8;l'Antiga Esquerra de l'Eixample;2;Eixample;8011;BARCELONA;4,29589E+16;4,58214E+15;4,13877E+15;2,15784E+15
﻿99400175216;Bar Musical Pub Sotavent;09.01.07 10:14;28.05.21 14:37;C Major de Sarrià;61;23;Sarrià;5;Sarrià-Sant Gervasi;8017;BARCELONA;4,26637E+16;4,58333E+15;4,13982E+15;2,12239E+15
﻿99400175216;Bar Musical Pub Sotavent;09.01.07 10:14;28.05.21 14:37;C Major de Sarrià;61;23;Sarrià;5;Sarrià-Sant Gervasi;8017;BARCELONA;4,26637E+16;4,58333E+15;4,13982E+15;2,12239E+15
﻿99400175216;Bar Musical Pub Sotavent;09.01.07 10:14;28.05.21 14:37;C Major de Sarrià;61;23;Sarrià;5;Sarrià-Sant Gervasi;8017;BARCELONA;4,26637E+16;4,58333E+15;4,13982E+15;2,12239E+15
﻿99400384107;Restaurant Club Bananas;23.04.15 13:20;17.09.22 08:17;C Fusina;7;4;Sant Pere, Santa Caterina i la Ribera;1;Ciutat Vella;8003;BARCELONA;4,31708E+16;4,58199E+15;4,13865E+14;2,18319E+15
﻿99400384107;Restaurant Club Bananas;23.04.15 13:20;17.09.22 08:17;C Fusina;7;4;Sant Pere, Santa Caterina i la Ribera;1;Ciutat Vella;8003;BARCELONA;4,31708E+16;4,58199E+15;4,13865E+14;2,18319E+15
﻿99400479262;Ebony Club;28.02.17 13:24;17.09.22 08:54;Av Doctor Marañón;17;20;la Maternitat i Sant Ramon;4;Les Corts;8028;BARCELONA;4,25954E+15;4,58146E+15;4,13813E+15;2,11445E+16
﻿99400119281;Bar Manchester *Valldonzella;17.06.05 08:26;17.09.22 06:26;C Valldonzella;40;1;el Raval;1;Ciutat Vella;8001;BARCELONA;4,30187E+15;4,58166E+15;4,13835E+16;2,16504E+16
﻿1011130845;Bar Musical Barbara Ann;11.01.01 00:00;17.09.22 02:21;Taquígraf Garriga;163;19;les Corts;4;Les Corts;8029;BARCELONA;4,28056E+16;4,58246E+15;4,13904E+15;2,13947E+16
﻿99400142309;Venta Flamenco Barcelona;21.09.05 13:52;17.09.22 06:29;C Marquès de Barberà;6;1;el Raval;1;Ciutat Vella;8001;BARCELONA;4,30807E+16;4,58113E+15;4,13787E+16;2,17252E+16
﻿75990171294;Discoteca Metro;18.09.96 00:00;17.09.22 03:11;C Sepúlveda;185;10;Sant Antoni;2;Eixample;8011;BARCELONA;4,30053E+15;4,58173E+15;4,13841E+14;2,16343E+15
﻿75990146806;Bar musical New Chaps;18.09.96 00:00;17.09.22 03:08;Av Diagonal;365;7;la Dreta de l'Eixample;2;Eixample;8037;BARCELONA;4,30014E+16;4,58318E+16;4,13971E+15;2,1628E+16
﻿99400603947;Restaurant Tapas&Beer;19.07.18 09:44;17.09.22 10:51;G.V. Corts Catalanes;640;7;la Dreta de l'Eixample;2;Eixample;8007;BARCELONA;4,30556E+16;4,58238E+15;4,13899E+16;2,16938E+16
﻿99400603947;Restaurant Tapas&Beer;19.07.18 09:44;17.09.22 10:51;G.V. Corts Catalanes;640;7;la Dreta de l'Eixample;2;Eixample;8007;BARCELONA;4,30556E+16;4,58238E+15;4,13899E+16;2,16938E+16
﻿99400476331;Bar Cocteleria Elephanta;23.01.17 15:34;28.05.21 14:38;C Torrent d'en Vidalet;37;31;la Vila de Gràcia;6;Gràcia;8012;BARCELONA;4,29682E+15;4,58401E+15;4,14046E+15;2,15873E+16
﻿99400476331;Bar Cocteleria Elephanta;23.01.17 15:34;28.05.21 14:38;C Torrent d'en Vidalet;37;31;la Vila de Gràcia;6;Gràcia;8012;BARCELONA;4,29682E+15;4,58401E+15;4,14046E+15;2,15873E+16
﻿99400391689;Restaurant Los Juanele;16.07.15 14:33;17.09.22 08:23;C Aldana;4;10;Sant Antoni;2;Eixample;8015;BARCELONA;4,30259E+15;4,58078E+15;4,13755E+15;2,16601E+16
﻿99400391689;Restaurant Los Juanele;16.07.15 14:33;17.09.22 08:23;C Aldana;4;10;Sant Antoni;2;Eixample;8015;BARCELONA;4,30259E+15;4,58078E+15;4,13755E+15;2,16601E+16
﻿99400621096;Pacha Barcelona;28.02.19 10:00;17.09.22 10:59;Pg Marítim de la Barceloneta;38;3;la Barceloneta;1;Ciutat Vella;8003;BARCELONA;4,32711E+15;4,58164E+15;4,13835E+15;2,19523E+16
﻿99400621096;Pacha Barcelona;28.02.19 10:00;17.09.22 10:59;Pg Marítim de la Barceloneta;38;3;la Barceloneta;1;Ciutat Vella;8003;BARCELONA;4,32711E+15;4,58164E+15;4,13835E+15;2,19523E+16
﻿75990017964;Bar Musical Quilombo;17.09.96 00:00;17.09.22 02:39;C Aribau;149;8;l'Antiga Esquerra de l'Eixample;2;Eixample;8036;BARCELONA;4,29244E+15;4,58269E+14;4,13926E+15;2,15364E+16
﻿99400486863;Tablao Framenco La Singla;20.03.17 13:27;17.09.22 08:56;C Marina;181;5;el Fort Pienc;2;Eixample;8013;BARCELONA;4,31472E+16;4,58344E+15;4,13996E+15;2,1802E+15
﻿99400486863;Tablao Framenco La Singla;20.03.17 13:27;17.09.22 08:56;C Marina;181;5;el Fort Pienc;2;Eixample;8013;BARCELONA;4,31472E+16;4,58344E+15;4,13996E+15;2,1802E+15
﻿99400628372;Bar Musical Acústic Sant Andreu;21.05.19 11:41;17.09.22 11:03;Rier Sant Andreu;9;60;Sant Andreu;9;Sant Andreu;8030;BARCELONA;4,32221E+15;4,58724E+15;4,14338E+15;2,18874E+16
﻿99400596522;Bar Museum;04.07.18 09:33;15.09.21 10:06;C Sepúlveda;178;10;Sant Antoni;2;Eixample;8011;BARCELONA;4,29995E+15;4,58164E+15;4,13833E+16;2,16275E+16
﻿99400596558;Cocteleria Bloody Mary;04.07.18 13:19;28.05.21 14:38;C Ferrer de Blanes;3;31;la Vila de Gràcia;6;Gràcia;8012;BARCELONA;4,29717E+15;4,58332E+15;4,13984E+15;2,15923E+16
﻿99400596558;Cocteleria Bloody Mary;04.07.18 13:19;28.05.21 14:38;C Ferrer de Blanes;3;31;la Vila de Gràcia;6;Gràcia;8012;BARCELONA;4,29717E+15;4,58332E+15;4,13984E+15;2,15923E+16
﻿99400596570;Bar Eldiset;04.07.18 14:37;28.05.21 14:38;C Antic de Sant Joan;3;4;Sant Pere, Santa Caterina i la Ribera;1;Ciutat Vella;8003;BARCELONA;4,31729E+16;4,58182E+15;4,1385E+16;2,18346E+16
﻿99400596570;Bar Eldiset;04.07.18 14:37;28.05.21 14:38;C Antic de Sant Joan;3;4;Sant Pere, Santa Caterina i la Ribera;1;Ciutat Vella;8003;BARCELONA;4,31729E+16;4,58182E+15;4,1385E+16;2,18346E+16
﻿99400370754;Bar Live BCN;16.02.15 16:32;17.09.22 08:14;C Camp;16;26;Sant Gervasi - Galvany;5;Sarrià-Sant Gervasi;8021;BARCELONA;4,27946E+15;4,58374E+15;4,14019E+16;2,13799E+16
﻿98335121727;Discoteca Antilla  Salsa Barcelona;01.12.98 00:00;28.05.21 14:37;Aragó;141;9;la Nova Esquerra de l'Eixample;2;Eixample;8015;BARCELONA;4,29316E+15;4,5818E+15;4,13846E+15;2,15461E+15
﻿98335121727;Discoteca Antilla  Salsa Barcelona;01.12.98 00:00;28.05.21 14:37;Aragó;141;9;la Nova Esquerra de l'Eixample;2;Eixample;8015;BARCELONA;4,29316E+15;4,5818E+15;4,13846E+15;2,15461E+15
﻿98335121727;Discoteca Antilla  Salsa Barcelona;01.12.98 00:00;28.05.21 14:37;Aragó;141;9;la Nova Esquerra de l'Eixample;2;Eixample;8015;BARCELONA;4,29316E+15;4,5818E+15;4,13846E+15;2,15461E+15
﻿99400061927;Bar musical Bubblic Bar;02.10.03 11:34;17.09.22 06:04;C Marià Cubí;183;26;Sant Gervasi - Galvany;5;Sarrià-Sant Gervasi;8021;BARCELONA;4,28515E+16;4,583E+15;4,13954E+16;2,14489E+15
﻿97037210405;Discoteca Bembé;06.02.97 00:00;17.09.22 05:28;Viladomat;211;9;la Nova Esquerra de l'Eixample;2;Eixample;8029;BARCELONA;4,28945E+14;4,58184E+15;4,1385E+15;2,15017E+16
﻿97037210405;Discoteca Bembé;06.02.97 00:00;17.09.22 05:28;Viladomat;211;9;la Nova Esquerra de l'Eixample;2;Eixample;8029;BARCELONA;4,28945E+14;4,58184E+15;4,1385E+15;2,15017E+16
﻿99400533969;Restaurant Maná 75;18.09.17 13:04;28.05.21 14:38;Pg Joan Borbó Comte Barcelona;101;3;la Barceloneta;1;Ciutat Vella;8039;BARCELONA;4,32063E+15;4,5803E+15;4,13713E+16;2,18763E+16
﻿99400533969;Restaurant Maná 75;18.09.17 13:04;28.05.21 14:38;Pg Joan Borbó Comte Barcelona;101;3;la Barceloneta;1;Ciutat Vella;8039;BARCELONA;4,32063E+15;4,5803E+15;4,13713E+16;2,18763E+16
﻿99400533969;Restaurant Maná 75;18.09.17 13:04;28.05.21 14:38;Pg Joan Borbó Comte Barcelona;101;3;la Barceloneta;1;Ciutat Vella;8039;BARCELONA;4,32063E+15;4,5803E+15;4,13713E+16;2,18763E+16
﻿99400533974;Restaurant Nº 30;18.09.17 13:16;28.05.21 14:38;Pg Joan Borbó Comte Barcelona;30;3;la Barceloneta;1;Ciutat Vella;8003;BARCELONA;4,32105E+16;4,58115E+15;4,1379E+15;2,18804E+16
﻿99400533974;Restaurant Nº 30;18.09.17 13:16;28.05.21 14:38;Pg Joan Borbó Comte Barcelona;30;3;la Barceloneta;1;Ciutat Vella;8003;BARCELONA;4,32105E+16;4,58115E+15;4,1379E+15;2,18804E+16
﻿99400533974;Restaurant Nº 30;18.09.17 13:16;28.05.21 14:38;Pg Joan Borbó Comte Barcelona;30;3;la Barceloneta;1;Ciutat Vella;8003;BARCELONA;4,32105E+16;4,58115E+15;4,1379E+15;2,18804E+16
﻿99400476312;Discoteca Hyde Club;23.01.17 14:27;17.09.22 08:49;Ptge Domingo;3;7;la Dreta de l'Eixample;2;Eixample;8007;BARCELONA;4,29987E+15;4,58269E+15;4,13927E+15;2,16253E+16
﻿99400608660;Restaurant The Alchemix;17.09.18 13:23;07.01.22 09:05;Carrer de València;212;8;l'Antiga Esquerra de l'Eixample;2;Eixample;8011;Barcelona;4,29688E+16;4,58232E+15;4,13893E+15;2,159E+16
﻿99400608660;Restaurant The Alchemix;17.09.18 13:23;07.01.22 09:05;Carrer de València;212;8;l'Antiga Esquerra de l'Eixample;2;Eixample;8011;Barcelona;4,29688E+16;4,58232E+15;4,13893E+15;2,159E+16
﻿99400608660;Restaurant The Alchemix;17.09.18 13:23;07.01.22 09:05;Carrer de València;212;8;l'Antiga Esquerra de l'Eixample;2;Eixample;8011;Barcelona;4,29688E+16;4,58232E+15;4,13893E+15;2,159E+16
﻿99400236992;Banker's Bar;26.11.09 00:00;28.05.21 14:38;Pg Gràcia;38;7;la Dreta de l'Eixample;2;Eixample;8007;BARCELONA;4,30331E+14;4,58252E+15;4,13912E+15;2,16666E+15
﻿99400236992;Banker's Bar;26.11.09 00:00;28.05.21 14:38;Pg Gràcia;38;7;la Dreta de l'Eixample;2;Eixample;8007;BARCELONA;4,30331E+14;4,58252E+15;4,13912E+15;2,16666E+15
﻿99350182951;Discoteca Bachata Dance Club;16.12.99 00:00;17.09.22 05:55;C Casanova;171;8;l'Antiga Esquerra de l'Eixample;2;Eixample;8036;BARCELONA;4,28943E+14;4,58261E+16;4,13919E+15;2,15006E+16
﻿99400637878;Espai ClubHaus;30.09.19 15:14;28.05.21 14:38;Av Marquès de l'Argentera;13;4;Sant Pere, Santa Caterina i la Ribera;1;Ciutat Vella;8003;BARCELONA;4,31819E+15;4,58176E+15;4,13844E+16;2,18454E+16
﻿99400637878;Espai ClubHaus;30.09.19 15:14;28.05.21 14:38;Av Marquès de l'Argentera;13;4;Sant Pere, Santa Caterina i la Ribera;1;Ciutat Vella;8003;BARCELONA;4,31819E+15;4,58176E+15;4,13844E+16;2,18454E+16
﻿99400637878;Espai ClubHaus;30.09.19 15:14;28.05.21 14:38;Av Marquès de l'Argentera;13;4;Sant Pere, Santa Caterina i la Ribera;1;Ciutat Vella;8003;BARCELONA;4,31819E+15;4,58176E+15;4,13844E+16;2,18454E+16
﻿99400594206;Restaurant Saraya Shisha Club;08.06.18 12:09;28.05.21 14:38;C Muntaner;102;8;l'Antiga Esquerra de l'Eixample;2;Eixample;8036;BARCELONA;4,29513E+16;4,58225E+15;4,13887E+16;2,15692E+15
﻿99400594206;Restaurant Saraya Shisha Club;08.06.18 12:09;28.05.21 14:38;C Muntaner;102;8;l'Antiga Esquerra de l'Eixample;2;Eixample;8036;BARCELONA;4,29513E+16;4,58225E+15;4,13887E+16;2,15692E+15
﻿99400594206;Restaurant Saraya Shisha Club;08.06.18 12:09;28.05.21 14:38;C Muntaner;102;8;l'Antiga Esquerra de l'Eixample;2;Eixample;8036;BARCELONA;4,29513E+16;4,58225E+15;4,13887E+16;2,15692E+15
﻿99400450914;Restaurant La Robadora;23.05.16 12:08;28.05.21 14:38;C Robador;18;1;el Raval;1;Ciutat Vella;8001;BARCELONA;4,30657E+15;4,58122E+15;4,13795E+15;2,17071E+15
﻿99400450914;Restaurant La Robadora;23.05.16 12:08;28.05.21 14:38;C Robador;18;1;el Raval;1;Ciutat Vella;8001;BARCELONA;4,30657E+15;4,58122E+15;4,13795E+15;2,17071E+15
﻿99400450914;Restaurant La Robadora;23.05.16 12:08;28.05.21 14:38;C Robador;18;1;el Raval;1;Ciutat Vella;8001;BARCELONA;4,30657E+15;4,58122E+15;4,13795E+15;2,17071E+15
﻿99400328189;Discoteca Sala Bloc;15.10.13 13:55;17.09.22 07:58;Rda Sant Pere;19;7;la Dreta de l'Eixample;2;Eixample;8010;BARCELONA;4,30946E+15;4,58234E+15;4,13896E+15;2,17405E+16
﻿99400096823;Bar Cocteleria 14 de la Rosa;30.09.04 13:49;28.05.21 14:37;C Martínez de la Rosa;14;31;la Vila de Gràcia;6;Gràcia;8012;BARCELONA;4,29761E+15;4,58343E+14;4,13993E+16;2,15974E+15
﻿99400096823;Bar Cocteleria 14 de la Rosa;30.09.04 13:49;28.05.21 14:37;C Martínez de la Rosa;14;31;la Vila de Gràcia;6;Gràcia;8012;BARCELONA;4,29761E+15;4,58343E+14;4,13993E+16;2,15974E+15
﻿99400079362;Bar Restaurant Copa Café;13.04.04 13:55;28.05.21 14:37;Av Gaudí;25;6;la Sagrada Família;2;Eixample;8025;BARCELONA;4,30982E+15;4,58414E+15;4,14058E+14;2,17427E+15
﻿99400079362;Bar Restaurant Copa Café;13.04.04 13:55;28.05.21 14:37;Av Gaudí;25;6;la Sagrada Família;2;Eixample;8025;BARCELONA;4,30982E+15;4,58414E+15;4,14058E+14;2,17427E+15
﻿99400079362;Bar Restaurant Copa Café;13.04.04 13:55;28.05.21 14:37;Av Gaudí;25;6;la Sagrada Família;2;Eixample;8025;BARCELONA;4,30982E+15;4,58414E+15;4,14058E+14;2,17427E+15
﻿99400370747;La Sonora de Gràcia;16.02.15 14:19;17.09.22 08:14;C Riera de Sant Miquel;59;31;la Vila de Gràcia;6;Gràcia;8006;BARCELONA;4,29364E+15;4,58334E+15;4,13985E+15;2,15501E+15
﻿99400149745;Cocteleria Mareva;21.12.05 09:45;28.05.21 14:37;C Aribau;54;8;l'Antiga Esquerra de l'Eixample;2;Eixample;8011;BARCELONA;4,29769E+15;4,58218E+15;4,13881E+14;2,15998E+15
﻿99400149745;Cocteleria Mareva;21.12.05 09:45;28.05.21 14:37;C Aribau;54;8;l'Antiga Esquerra de l'Eixample;2;Eixample;8011;BARCELONA;4,29769E+15;4,58218E+15;4,13881E+14;2,15998E+15
﻿99400466415;Restaurant El Mamón;28.09.16 13:24;28.05.21 14:38;Ptge Pere Calders;2;10;Sant Antoni;2;Eixample;8015;BARCELONA;4,30001E+15;4,58085E+15;4,13761E+15;2,16291E+16
﻿99400466415;Restaurant El Mamón;28.09.16 13:24;28.05.21 14:38;Ptge Pere Calders;2;10;Sant Antoni;2;Eixample;8015;BARCELONA;4,30001E+15;4,58085E+15;4,13761E+15;2,16291E+16
﻿99400466415;Restaurant El Mamón;28.09.16 13:24;28.05.21 14:38;Ptge Pere Calders;2;10;Sant Antoni;2;Eixample;8015;BARCELONA;4,30001E+15;4,58085E+15;4,13761E+15;2,16291E+16
﻿99400119229;Sala The Club M7;16.06.05 14:41;17.09.22 06:26;C Mèxic;7;11;el Poble-sec;3;Sants-Montjuïc;8004;BARCELONA;4,28772E+16;4,58052E+15;4,13731E+16;2,14825E+16
﻿99400574837;Restaurant Jok;19.01.18 09:18;11.02.22 11:36;C Mallorca;275;7;la Dreta de l'Eixample;2;Eixample;8008;BARCELONA;4,30079E+15;4,58292E+15;4,13948E+15;2,16361E+16
﻿99400574837;Restaurant Jok;19.01.18 09:18;11.02.22 11:36;C Mallorca;275;7;la Dreta de l'Eixample;2;Eixample;8008;BARCELONA;4,30079E+15;4,58292E+15;4,13948E+15;2,16361E+16
﻿99400574837;Restaurant Jok;19.01.18 09:18;11.02.22 11:36;C Mallorca;275;7;la Dreta de l'Eixample;2;Eixample;8008;BARCELONA;4,30079E+15;4,58292E+15;4,13948E+15;2,16361E+16
﻿99400676456;Bar Musical Sala Taro;16.09.21 08:45;16.09.21 08:46;Carrer de Rossend Arús;9;18;Sants;3;Sants-Montjuïc;8014;Barcelona;4,27865E+13;4,5806E+14;4,13737E+15;2,13741E+15
﻿75990169221;Bar Musical Club Mix;18.09.96 00:00;28.05.21 14:37;Comerç;21;4;Sant Pere, Santa Caterina i la Ribera;1;Ciutat Vella;8003;BARCELONA;4,31652E+15;4,58198E+15;4,13865E+15;2,18253E+15
﻿75990169221;Bar Musical Club Mix;18.09.96 00:00;28.05.21 14:37;Comerç;21;4;Sant Pere, Santa Caterina i la Ribera;1;Ciutat Vella;8003;BARCELONA;4,31652E+15;4,58198E+15;4,13865E+15;2,18253E+15
﻿75990169221;Bar Musical Club Mix;18.09.96 00:00;28.05.21 14:37;Comerç;21;4;Sant Pere, Santa Caterina i la Ribera;1;Ciutat Vella;8003;BARCELONA;4,31652E+15;4,58198E+15;4,13865E+15;2,18253E+15
﻿99400168903;Cocteleria Nosé;04.10.06 17:41;28.05.21 14:37;Pg Born;21;4;Sant Pere, Santa Caterina i la Ribera;1;Ciutat Vella;8003;BARCELONA;4,31674E+15;4,58182E+15;4,1385E+14;2,1828E+15
﻿99400168903;Cocteleria Nosé;04.10.06 17:41;28.05.21 14:37;Pg Born;21;4;Sant Pere, Santa Caterina i la Ribera;1;Ciutat Vella;8003;BARCELONA;4,31674E+15;4,58182E+15;4,1385E+14;2,1828E+15
﻿75990348434;Bar Café del Born Nou;18.09.96 00:00;17.09.22 03:26;Pl Comercial;10;4;Sant Pere, Santa Caterina i la Ribera;1;Ciutat Vella;8003;BARCELONA;4,31745E+14;4,58184E+13;4,13851E+15;2,18365E+15
﻿99400472118;Bar Musical Craft Barcelona;14.12.16 14:19;17.09.22 08:48;C Paradís;4;2;el Barri Gòtic;1;Ciutat Vella;8002;BARCELONA;4,31185E+16;4,58162E+16;4,13832E+15;2,17698E+16
﻿99400604213;Discoteca Pub Dixit 724;23.07.18 11:06;17.09.22 10:51;C Pallars;115;66;el Parc i la Llacuna del Poblenou;10;Sant Martí;8018;BARCELONA;4,32454E+16;4,58315E+15;4,1397E+15;2,19199E+15
﻿99400604213;Discoteca Pub Dixit 724;23.07.18 11:06;17.09.22 10:51;C Pallars;115;66;el Parc i la Llacuna del Poblenou;10;Sant Martí;8018;BARCELONA;4,32454E+16;4,58315E+15;4,1397E+15;2,19199E+15
﻿75990331992;Bar musical Juan Sebastián Bar;18.09.96 00:00;17.09.22 03:23;C Comte Borrell;296;9;la Nova Esquerra de l'Eixample;2;Eixample;8029;BARCELONA;4,28648E+15;4,58237E+15;4,13897E+16;2,14655E+16
﻿99400621820;Espai Abaixadors10;07.03.19 14:07;28.05.21 14:38;C Abaixadors;10;4;Sant Pere, Santa Caterina i la Ribera;1;Ciutat Vella;8003;BARCELONA;4,31538E+16;4,58161E+15;4,13831E+15;2,18121E+16
﻿99400621820;Espai Abaixadors10;07.03.19 14:07;28.05.21 14:38;C Abaixadors;10;4;Sant Pere, Santa Caterina i la Ribera;1;Ciutat Vella;8003;BARCELONA;4,31538E+16;4,58161E+15;4,13831E+15;2,18121E+16
﻿75990173036;Bar musical Merbeyé;18.09.96 00:00;28.05.21 14:37;Pl Doctor Andreu;1;25;Sant Gervasi - la Bonanova;5;Sarrià-Sant Gervasi;8035;BARCELONA;4,27412E+16;4,58534E+15;4,14163E+15;2,13142E+16
﻿75990173036;Bar musical Merbeyé;18.09.96 00:00;28.05.21 14:37;Pl Doctor Andreu;1;25;Sant Gervasi - la Bonanova;5;Sarrià-Sant Gervasi;8035;BARCELONA;4,27412E+16;4,58534E+15;4,14163E+15;2,13142E+16
﻿75990173036;Bar musical Merbeyé;18.09.96 00:00;28.05.21 14:37;Pl Doctor Andreu;1;25;Sant Gervasi - la Bonanova;5;Sarrià-Sant Gervasi;8035;BARCELONA;4,27412E+16;4,58534E+15;4,14163E+15;2,13142E+16
﻿99400319608;Le Pop Bar;06.06.13 00:00;17.09.22 07:55;la Rambla;111;1;el Raval;1;Ciutat Vella;8002;BARCELONA;4,30679E+16;4,58171E+15;4,13839E+16;2,17093E+15
﻿99400188606;Bar Musical Jazzman;03.08.07 10:52;17.09.22 06:50;C Roger de Flor;238;7;la Dreta de l'Eixample;2;Eixample;8025;BARCELONA;4,30562E+15;4,58366E+15;4,14015E+16;2,1693E+16
﻿99400467597;City Hall Barcelona;19.10.16 10:40;17.09.22 08:46;Rbla Catalunya;2;7;la Dreta de l'Eixample;2;Eixample;8007;BARCELONA;4,30476E+16;4,58213E+15;4,13877E+15;2,16844E+15
﻿99400467597;City Hall Barcelona;19.10.16 10:40;17.09.22 08:46;Rbla Catalunya;2;7;la Dreta de l'Eixample;2;Eixample;8007;BARCELONA;4,30476E+16;4,58213E+15;4,13877E+15;2,16844E+15
﻿99400155586;Cocteleria Paradiso;16.03.06 14:23;28.05.21 14:37;C Rere Palau;4;4;Sant Pere, Santa Caterina i la Ribera;1;Ciutat Vella;8003;BARCELONA;4,31747E+16;4,58168E+15;4,13837E+15;2,18369E+15
﻿99400155586;Cocteleria Paradiso;16.03.06 14:23;28.05.21 14:37;C Rere Palau;4;4;Sant Pere, Santa Caterina i la Ribera;1;Ciutat Vella;8003;BARCELONA;4,31747E+16;4,58168E+15;4,13837E+15;2,18369E+15
﻿99400596605;Bar Nevermind;05.07.18 10:20;28.05.21 14:38;C Tallers;68;1;el Raval;1;Ciutat Vella;8001;BARCELONA;4,30306E+15;4,58184E+15;4,13851E+15;2,16645E+16
﻿99400596605;Bar Nevermind;05.07.18 10:20;28.05.21 14:38;C Tallers;68;1;el Raval;1;Ciutat Vella;8001;BARCELONA;4,30306E+15;4,58184E+15;4,13851E+15;2,16645E+16
﻿99400596605;Bar Nevermind;05.07.18 10:20;28.05.21 14:38;C Tallers;68;1;el Raval;1;Ciutat Vella;8001;BARCELONA;4,30306E+15;4,58184E+15;4,13851E+15;2,16645E+16
﻿99400596605;Bar Nevermind;05.07.18 10:20;28.05.21 14:38;C Tallers;68;1;el Raval;1;Ciutat Vella;8001;BARCELONA;4,30306E+15;4,58184E+15;4,13851E+15;2,16645E+16
﻿99400596652;Bar L'Antic del Born;05.07.18 14:16;28.05.21 14:38;Pl Comercial;11;4;Sant Pere, Santa Caterina i la Ribera;1;Ciutat Vella;8003;BARCELONA;4,31756E+16;4,58182E+15;4,1385E+16;2,18379E+16
﻿99400596652;Bar L'Antic del Born;05.07.18 14:16;28.05.21 14:38;Pl Comercial;11;4;Sant Pere, Santa Caterina i la Ribera;1;Ciutat Vella;8003;BARCELONA;4,31756E+16;4,58182E+15;4,1385E+16;2,18379E+16
﻿99400689374;Bar musical karaoke A viva voz *Aribau;04.04.22 12:05;04.04.22 12:09;Carrer d'Aribau;103;8;l'Antiga Esquerra de l'Eixample;2;Eixample;8036;Barcelona;429485772;4582433469;4,13903E+16;2,15657E+16
﻿99400689374;Bar musical karaoke A viva voz *Aribau;04.04.22 12:05;04.04.22 12:09;Carrer d'Aribau;103;8;l'Antiga Esquerra de l'Eixample;2;Eixample;8036;Barcelona;429485772;4582433469;4,13903E+16;2,15657E+16
﻿99400593706;Gastrobar Origen;04.06.18 00:00;28.05.21 14:38;C Diputació;257;7;la Dreta de l'Eixample;2;Eixample;8007;BARCELONA;4,30281E+15;4,58237E+15;4,13898E+15;2,16608E+15
﻿99400593706;Gastrobar Origen;04.06.18 00:00;28.05.21 14:38;C Diputació;257;7;la Dreta de l'Eixample;2;Eixample;8007;BARCELONA;4,30281E+15;4,58237E+15;4,13898E+15;2,16608E+15
﻿99400685836;Cocteleria Popular Gopnik;11.02.22 11:12;11.02.22 11:17;Carrer de Vallfogona;23;31;la Vila de Gràcia;6;Gràcia;8012;Barcelona;429617031;4583895785;4,14035E+15;2,15797E+16
﻿99400685836;Cocteleria Popular Gopnik;11.02.22 11:12;11.02.22 11:17;Carrer de Vallfogona;23;31;la Vila de Gràcia;6;Gràcia;8012;Barcelona;429617031;4583895785;4,14035E+15;2,15797E+16
﻿99400683088;Especiarium Bar;07.01.22 11:05;07.01.22 11:05;Carrer de la Princesa;29;4;Sant Pere, Santa Caterina i la Ribera;1;Ciutat Vella;8003;Barcelona;4,31506E+16;4,5819E+14;4,13857E+15;2,18079E+16
﻿99400683088;Especiarium Bar;07.01.22 11:05;07.01.22 11:05;Carrer de la Princesa;29;4;Sant Pere, Santa Caterina i la Ribera;1;Ciutat Vella;8003;Barcelona;4,31506E+16;4,5819E+14;4,13857E+15;2,18079E+16
﻿94306084135;Shenanigans Irish Pub;02.11.94 00:00;17.09.22 05:10;Marquès de Barberà;11;1;el Raval;1;Ciutat Vella;8001;BARCELONA;4,30812E+15;4,58113E+15;4,13787E+15;2,17258E+16
﻿92086037747;Discoteca Magic Rock Barcelona;05.11.91 00:00;17.09.22 04:47;Pg Picasso;40;4;Sant Pere, Santa Caterina i la Ribera;1;Ciutat Vella;8003;BARCELONA;4,31859E+15;4,58192E+15;4,1386E+15;2,18501E+16
﻿99400574272;Restaurant Cocteleria Barítimo *Maremàgnum;15.01.18 13:57;28.05.21 14:38;Moll Espanya;5;2;el Barri Gòtic;1;Ciutat Vella;8039;BARCELONA;4,31629E+15;4,58076E+15;4,13755E+16;2,18239E+15
﻿99400574272;Restaurant Cocteleria Barítimo *Maremàgnum;15.01.18 13:57;28.05.21 14:38;Moll Espanya;5;2;el Barri Gòtic;1;Ciutat Vella;8039;BARCELONA;4,31629E+15;4,58076E+15;4,13755E+16;2,18239E+15
﻿99400574272;Restaurant Cocteleria Barítimo *Maremàgnum;15.01.18 13:57;28.05.21 14:38;Moll Espanya;5;2;el Barri Gòtic;1;Ciutat Vella;8039;BARCELONA;4,31629E+15;4,58076E+15;4,13755E+16;2,18239E+15
﻿99400698702;Discoteca Arena Xperience;30.09.22 10:55;30.09.22 11:02;Rda Sant Pere;19;7;la Dreta de l'Eixample;2;Eixample;8010;BARCELONA;4,30946E+15;4,58234E+15;4,13896E+15;2,17405E+16
﻿99400695903;Jamboree 3;01.08.22 08:37;04.10.22 14:05;Plaça Reial;18;2;el Barri Gòtic;1;Ciutat Vella;8002;Barcelona;431029326;4581247024;4,13798E+16;2,17516E+16
﻿99400695903;Jamboree 3;01.08.22 08:37;04.10.22 14:05;Plaça Reial;18;2;el Barri Gòtic;1;Ciutat Vella;8002;Barcelona;431029326;4581247024;4,13798E+16;2,17516E+16
﻿99400698847;Bar Olímpic;03.10.22 10:19;03.10.22 10:20;Carrer de Joaquín Costa;25;1;el Raval;1;Ciutat Vella;8001;Barcelona;430288269;4581504093;4,1382E+16;2,16627E+16
﻿99400698847;Bar Olímpic;03.10.22 10:19;03.10.22 10:20;Carrer de Joaquín Costa;25;1;el Raval;1;Ciutat Vella;8001;Barcelona;430288269;4581504093;4,1382E+16;2,16627E+16
﻿99400701254;Bar Trash Talk;21.11.22 10:48;21.11.22 10:48;Carrer de Pere IV;244;68;el Poblenou;10;Sant Martí;8005;Barcelona;433111544;4584037525;4,14051E+15;2,19975E+16
﻿99400701255;Bar Trikini;21.11.22 10:52;21.11.22 10:58;Carrer de Pujades;226;68;el Poblenou;10;Sant Martí;8005;Barcelona;433355545;4583809105;4,14031E+15;2,2027E+16
﻿99400701255;Bar Trikini;21.11.22 10:52;21.11.22 10:58;Carrer de Pujades;226;68;el Poblenou;10;Sant Martí;8005;Barcelona;433355545;4583809105;4,14031E+15;2,2027E+16