register_id;name;created;modified;addresses_road_id;addresses_road_name;addresses_start_street_number;addresses_end_street_number;neighbourhood_code;neighbourhood_name;district_code;district_name;zip_code;addresses_town;geo_epgs_25831_x;geo_epgs_25831_y;geo_epgs_4326_x;geo_epgs_4326_y
﻿99400604895;Jardins Maria Capdevila;30.07.18 13:33;23.11.22 12:39;150604;C Grífols;41;;43;Horta;7;Horta-Guinardó;8032;BARCELONA;4,29777E+15;4,58655E+15;4,14275E+15;2,15957E+15
﻿335195642;Jardins Interior d'Illa d'Emma de Barcelona;30.11.00 00:00;23.11.22 12:39;87009;Carrer del Comte Borrell;157;;9;la Nova Esquerra de l'Eixample;2;Eixample;8015;Barcelona;4,2939E+14;4,58158E+14;4,13826E+15;2,15552E+16
﻿335195642;Jardins Interior d'Illa d'Emma de Barcelona;30.11.00 00:00;23.11.22 12:39;87009;Carrer del Comte Borrell;157;;9;la Nova Esquerra de l'Eixample;2;Eixample;8015;Barcelona;4,2939E+14;4,58158E+14;4,13826E+15;2,15552E+16
﻿99400596451;Jardins de Can Ferrer;02.07.18 14:00;23.11.22 12:39;8501;C Alfons XII;42;;26;Sant Gervasi - Galvany;5;Sarrià-Sant Gervasi;8006;BARCELONA;4,2885E+16;4,58344E+15;4,13993E+15;2,14884E+16
﻿99400181025;Jardins de Mossèn Costa i Llobera;17.04.07 12:52;23.11.22 12:39;213409;Ctra Miramar;38;;11;el Poble-sec;3;Sants-Montjuïc;8038;BARCELONA;4,30781E+16;4,58012E+15;4,13696E+15;2,17232E+14
﻿99400179873;Jardins Interiors d'Illa  Via Favència;26.03.07 15:07;23.11.22 12:39;120807;Via Favència;398;;52;la Prosperitat;8;Nou Barris;8016;BARCELONA;4,31743E+15;4,58862E+14;4,14463E+15;2,18286E+16
﻿95081125600;Jardins de Can Sentmenat;22.03.95 00:00;23.11.22 12:39;58601;C Can Caralleu;6;;23;Sarrià;5;Sarrià-Sant Gervasi;8017;BARCELONA;4,26033E+15;4,58383E+15;4,14026E+15;2,1151E+16
﻿99400182240;Jardins Interior d'Illa d'Ermessenda de Carcassona;30.04.07 13:11;23.11.22 12:39;349706;Carrer del Comte d'Urgell;145;145;9;la Nova Esquerra de l'Eixample;2;Eixample;8036;Barcelona;4,29104E+16;4,58206E+14;4,13869E+16;2,15204E+16
﻿99400182240;Jardins Interior d'Illa d'Ermessenda de Carcassona;30.04.07 13:11;23.11.22 12:39;349706;Carrer del Comte d'Urgell;145;145;9;la Nova Esquerra de l'Eixample;2;Eixample;8036;Barcelona;4,29104E+16;4,58206E+14;4,13869E+16;2,15204E+16
﻿99400078413;Jardí de Joana Tomàs;30.03.04 14:15;23.11.22 12:39;350308;C València;643;;65;el Clot;10;Sant Martí;8026;BARCELONA;4,32196E+16;4,58484E+15;4,14122E+16;2,18872E+16
﻿99400078447;Jardins de Jaime Gil de Biedma;30.03.04 16:42;23.11.22 12:39;115603;Carrer d'Espronceda;15;15;69;Diagonal Mar i el Front Marítim del Poblenou;10;Sant Martí;8005;Barcelona;4,33887E+15;4,58362E+15;4,14014E+16;2,20908E+15
﻿99400078455;Jardins de Manuel Sacristán;30.03.04 17:12;23.11.22 12:39;267907;Carrer de Provençals;5;5;69;Diagonal Mar i el Front Marítim del Poblenou;10;Sant Martí;8019;Barcelona;4,34247E+16;4,58386E+16;4,14036E+15;2,21336E+15
﻿99400176876;Jardins de Margarida Comas;02.02.07 11:08;23.11.22 12:39;186703;C Llull;32;;67;la Vila Olímpica del Poblenou;10;Sant Martí;8005;BARCELONA;4,32405E+15;4,58263E+15;4,13924E+15;2,19146E+15
﻿99400660532;Parc de Trinitat Nova;02.12.20 10:20;23.11.22 12:39;330005;C Tamariu;3;;53;la Trinitat Nova;8;Nou Barris;8033;BARCELONA;4,31941E+16;4,58899E+15;4,14496E+15;2,18519E+16
﻿95069105212;Jardins;10.03.95 00:00;23.11.22 12:39;169409;G.V. Corts Catalanes;585;;8;l'Antiga Esquerra de l'Eixample;2;Eixample;8007;BARCELONA;4,30106E+15;4,58201E+15;4,13866E+16;2,16403E+16
﻿99400078452;Jardins de Carles Barral;30.03.04 17:02;23.11.22 12:39;701205;Carrer de Josep Ferrater i Móra;9;9;69;Diagonal Mar i el Front Marítim del Poblenou;10;Sant Martí;8019;Barcelona;4,34069E+15;4,58379E+15;4,1403E+14;2,21123E+15
﻿99400146184;Jardins de Vil·la Florida;28.10.05 11:36;23.11.22 12:39;223606;C Muntaner;548;;25;Sant Gervasi - la Bonanova;5;Sarrià-Sant Gervasi;8022;BARCELONA;4,27725E+15;4,58412E+15;4,14054E+16;2,13531E+15
﻿99400146184;Jardins de Vil·la Florida;28.10.05 11:36;23.11.22 12:39;223606;C Muntaner;548;;25;Sant Gervasi - la Bonanova;5;Sarrià-Sant Gervasi;8022;BARCELONA;4,27725E+15;4,58412E+15;4,14054E+16;2,13531E+15
﻿99400139986;Jardins d'Interior d'Illa Clot d'en Salvi;03.08.05 14:39;23.11.22 12:39;343903;Trav Corts;60;;20;la Maternitat i Sant Ramon;4;Les Corts;8028;BARCELONA;4,26582E+15;4,58111E+15;4,13781E+15;2,12199E+16
﻿99400118971;El Parc del Fòrum;13.06.05 14:48;23.11.22 12:39;701612;Pl Fòrum;1;;70;el Besòs i el Maresme;10;Sant Martí;8019;BARCELONA;4,34953E+15;4,58468E+15;4,14111E+16;2,22171E+16
﻿99335120020;Jardins Pl. Sol de Baix;01.12.99 00:00;23.11.22 12:39;700721;Gerard Piera;15;;19;les Corts;4;Les Corts;8028;BARCELONA;4,27228E+15;4,58161E+15;4,13827E+15;2,12967E+16
﻿98224200832;Jardins Can Cuiàs;12.08.98 00:00;23.11.22 12:39;199909;Marquès de Sentmenat;19;;19;les Corts;4;Les Corts;8014;BARCELONA;4,27745E+15;4,58186E+15;4,1385E+15;2,13581E+15
﻿99400349080;Jardins de Piscines i Esports;07.08.14 09:44;23.11.22 12:39;101904;Carrer del Doctor Fleming;8;8;26;Sant Gervasi - Galvany;5;Sarrià-Sant Gervasi;8017;Barcelona;4,27737E+16;4,58276E+14;4,13931E+15;2,13561E+16
﻿99188085150;Jardins Mestre Balcells;07.07.99 00:00;23.11.22 12:39;310802;C Sant Salvador;49;;31;la Vila de Gràcia;6;Gràcia;8024;BARCELONA;4,29292E+15;4,58433E+15;4,14074E+15;2,15403E+16
﻿99188085150;Jardins Mestre Balcells;07.07.99 00:00;23.11.22 12:39;310802;C Sant Salvador;49;;31;la Vila de Gràcia;6;Gràcia;8024;BARCELONA;4,29292E+15;4,58433E+15;4,14074E+15;2,15403E+16
﻿99188085150;Jardins Mestre Balcells;07.07.99 00:00;23.11.22 12:39;310802;C Sant Salvador;49;;31;la Vila de Gràcia;6;Gràcia;8024;BARCELONA;4,29292E+15;4,58433E+15;4,14074E+15;2,15403E+16
﻿99188085150;Jardins Mestre Balcells;07.07.99 00:00;23.11.22 12:39;310802;C Sant Salvador;49;;31;la Vila de Gràcia;6;Gràcia;8024;BARCELONA;4,29292E+15;4,58433E+15;4,14074E+15;2,15403E+16
﻿98202134253;Jardins del Doctor Fleming;21.07.98 00:00;23.11.22 12:39;127806;C Floristes de la Rambla;12;;1;el Raval;1;Ciutat Vella;8001;BARCELONA;4,30589E+15;4,58146E+15;4,13817E+14;2,16987E+15
﻿99400582805;Jardí d'Assumpció Català;11.04.18 12:47;23.11.22 12:39;87009;C Comte Borrell;305;;9;la Nova Esquerra de l'Eixample;2;Eixample;8029;BARCELONA;4,28636E+15;4,58235E+15;4,13895E+15;2,14642E+16
﻿1086092955;Jardins dels Horts de Sant Pau;27.03.01 00:00;23.11.22 12:39;330300;Tàpies;20;;1;el Raval;1;Ciutat Vella;8001;BARCELONA;4,30617E+16;4,58086E+15;4,13763E+15;2,17028E+16
﻿99329084824;Jardins de Frida Kahlo;25.11.99 00:00;23.11.22 12:39;41201;Berruguete;85;;41;la Vall d'Hebron;7;Horta-Guinardó;8035;BARCELONA;4,28773E+15;4,58724E+15;4,14336E+16;2,14748E+16
﻿99098133752;Jardins Joaquim Domingo i Sanchez;08.04.99 00:00;23.11.22 12:39;88001;Comtes de Bell-lloc;49;;18;Sants;3;Sants-Montjuïc;8014;BARCELONA;4,27951E+16;4,58118E+15;4,13789E+15;2,13836E+16
﻿99400378255;Jardí de les Alzines;19.02.15 18:27;23.11.22 12:39;146902;Pl Glòries Catalanes;7;;5;el Fort Pienc;2;Eixample;8013;BARCELONA;4,31922E+16;4,58366E+15;4,14016E+16;2,18556E+15
﻿99400378276;Espai enjardinat;19.02.15 19:18;23.11.22 12:39;144601;Av Diagonal;280;;66;el Parc i la Llacuna del Poblenou;10;Sant Martí;8018;BARCELONA;4,32218E+16;4,58395E+15;4,14042E+15;2,18908E+15
﻿92086017159;Parc de la Pegaso;10.11.86 00:00;23.11.22 12:39;292507;C Sagrera;179;;61;la Sagrera;9;Sant Andreu;8027;BARCELONA;4,32381E+16;4,58646E+15;4,14269E+15;2,19074E+15
﻿92086017159;Parc de la Pegaso;10.11.86 00:00;23.11.22 12:39;292507;C Sagrera;179;;61;la Sagrera;9;Sant Andreu;8027;BARCELONA;4,32381E+16;4,58646E+15;4,14269E+15;2,19074E+15
﻿99400063301;Jardins de la Casa Elizalde;16.10.03 13:21;23.11.22 12:39;350308;Carrer de València;302;;7;la Dreta de l'Eixample;2;Eixample;8009;Barcelona;4,30271E+16;4,58289E+14;4,13945E+16;2,1659E+16
﻿99400063301;Jardins de la Casa Elizalde;16.10.03 13:21;23.11.22 12:39;350308;Carrer de València;302;;7;la Dreta de l'Eixample;2;Eixample;8009;Barcelona;4,30271E+16;4,58289E+14;4,13945E+16;2,1659E+16
﻿99400063301;Jardins de la Casa Elizalde;16.10.03 13:21;23.11.22 12:39;350308;Carrer de València;302;;7;la Dreta de l'Eixample;2;Eixample;8009;Barcelona;4,30271E+16;4,58289E+14;4,13945E+16;2,1659E+16
﻿92086010721;Parc de Cervantes;12.02.85 00:00;23.11.22 12:39;144601;Av Diagonal;706;;21;Pedralbes;4;Les Corts;8034;BARCELONA;4,25539E+16;4,58183E+15;4,13846E+15;2,10944E+16
﻿92086015836;Parc de l'Espanya Industrial;09.07.86 00:00;23.11.22 12:39;223504;Carrer de Muntadas;1;1;18;Sants;3;Sants-Montjuïc;8014;Barcelona;4,28075E+16;4,58091E+13;4,13765E+15;2,13987E+15
﻿92086015836;Parc de l'Espanya Industrial;09.07.86 00:00;23.11.22 12:39;223504;Carrer de Muntadas;1;1;18;Sants;3;Sants-Montjuïc;8014;Barcelona;4,28075E+16;4,58091E+13;4,13765E+15;2,13987E+15
﻿92086027340;Parc de les Corts;09.06.88 00:00;23.11.22 12:39;227800;Nicaragua;139;;19;les Corts;4;Les Corts;8029;BARCELONA;4,27815E+16;4,58206E+15;4,13868E+15;2,13663E+16
﻿92086012469;Jardins de Montserrat;23.04.85 00:00;23.11.22 12:39;285807;C Rocafort;226;;9;la Nova Esquerra de l'Eixample;2;Eixample;8029;BARCELONA;4,28574E+15;4,5819E+15;4,13854E+15;2,14573E+16
﻿92086035921;Jardins de Ca n'Altimira;15.05.91 00:00;23.11.22 12:39;189803;Maó;9;;25;Sant Gervasi - la Bonanova;5;Sarrià-Sant Gervasi;8022;BARCELONA;4,27403E+15;4,58393E+15;4,14037E+15;2,13148E+16
﻿98301094052;Jardins;28.10.98 00:00;23.11.22 12:39;700827;Avinguda del Cardenal Vidal i Barraquer;1;;41;la Vall d'Hebron;7;Horta-Guinardó;8035;Barcelona;4,28919E+16;4,58655E+15;4,14274E+15;2,14931E+15
﻿97142135707;Jardins Manuel de Pedrolo;22.05.97 00:00;23.11.22 12:39;100800;Carrer de la Diputació;459;;5;el Fort Pienc;2;Eixample;8013;Barcelona;4,31501E+15;4,58356E+15;4,14007E+16;2,18054E+16
﻿97142135707;Jardins Manuel de Pedrolo;22.05.97 00:00;23.11.22 12:39;100800;Carrer de la Diputació;459;;5;el Fort Pienc;2;Eixample;8013;Barcelona;4,31501E+15;4,58356E+15;4,14007E+16;2,18054E+16
﻿97142135851;Jardins Interior d'Illa de Cèsar Martinell;22.05.97 00:00;23.11.22 12:39;363809;C Villarroel;60;;8;l'Antiga Esquerra de l'Eixample;2;Eixample;8011;BARCELONA;4,29696E+15;4,58168E+16;4,13836E+15;2,15917E+15
﻿97142135851;Jardins Interior d'Illa de Cèsar Martinell;22.05.97 00:00;23.11.22 12:39;363809;C Villarroel;60;;8;l'Antiga Esquerra de l'Eixample;2;Eixample;8011;BARCELONA;4,29696E+15;4,58168E+16;4,13836E+15;2,15917E+15
﻿99400550297;Jardins d'Ana Figuera;02.11.17 13:21;23.11.22 12:39;700731;C Jordi Rubió i Balaguer;5;;72;Sant Martí de Provençals;10;Sant Martí;8020;BARCELONA;4,33339E+15;4,5853E+15;4,14165E+16;2,20234E+15
﻿97209125302;Parc de la Vall d'Hebron;28.07.97 00:00;23.11.22 12:39;172709;Juan de Mena;2;;41;la Vall d'Hebron;7;Horta-Guinardó;8032;BARCELONA;4,28847E+14;4,58698E+15;4,14312E+16;2,14839E+16
﻿99278142252;Jardins Can Brasó;05.10.99 00:00;23.11.22 12:39;172709;Juan de Mena;10;;41;la Vall d'Hebron;7;Horta-Guinardó;8032;BARCELONA;4,28847E+14;4,58698E+15;4,14312E+16;2,14839E+16
﻿99278142252;Jardins Can Brasó;05.10.99 00:00;23.11.22 12:39;172709;Juan de Mena;10;;41;la Vall d'Hebron;7;Horta-Guinardó;8032;BARCELONA;4,28847E+14;4,58698E+15;4,14312E+16;2,14839E+16
﻿99400354562;Parc Plaça de Sóller;01.10.14 16:09;23.11.22 12:39;327703;Pl Sóller;1;;45;Porta;8;Nou Barris;8016;BARCELONA;4,31252E+15;4,58721E+15;4,14335E+15;2,17715E+16
﻿99400355348;Parc de Xavier Montsalvatge;09.10.14 10:00;23.11.22 12:39;701638;C Síndic Rahola;1;;43;Horta;7;Horta-Guinardó;8035;BARCELONA;4,29224E+15;4,58802E+15;4,14406E+15;2,15278E+16
﻿99400355356;Parc Lineal Garcia Fària;09.10.14 12:05;23.11.22 12:39;700892;Passeig de Garcia Fària;2;2;69;Diagonal Mar i el Front Marítim del Poblenou;10;Sant Martí;8019;Barcelona;4,3426E+13;4,5838E+13;4,14031E+15;2,21352E+15
﻿99400384847;Jardi de les Aromes;29.04.15 11:18;23.11.22 12:39;230601;C Mare de Déu de Port;56;;11;el Poble-sec;3;Sants-Montjuïc;8038;BARCELONA;4,28815E+15;4,57845E+14;4,13544E+16;2,14901E+15
﻿99400384855;Jardí de la Mediterrànea;29.04.15 11:24;23.11.22 12:39;230601;C Mare de Déu de Port;56;;11;el Poble-sec;3;Sants-Montjuïc;8038;BARCELONA;4,28815E+15;4,57845E+14;4,13544E+16;2,14901E+15
﻿92086011935;Parc de la Font del Racó;01.04.85 00:00;23.11.22 12:39;101008;Av Tibidabo;72;;25;Sant Gervasi - la Bonanova;5;Sarrià-Sant Gervasi;8035;BARCELONA;4,27364E+16;4,58531E+15;4,14161E+15;2,13084E+15
﻿99400214781;Jardins del Mirall de Pedralbes;07.10.08 17:19;23.11.22 12:39;101700;C Doctor Ferran;16;;21;Pedralbes;4;Les Corts;8034;BARCELONA;4,26786E+15;4,5825E+16;4,13907E+16;2,12427E+15
﻿95125123806;Parc Jorge Manrique;05.05.95 00:00;23.11.22 12:39;169103;Jorge Manrique;30;;41;la Vall d'Hebron;7;Horta-Guinardó;8035;BARCELONA;4,28722E+16;4,58709E+15;4,14323E+15;2,14688E+16
﻿95345112746;Jardins Maluquer;11.12.95 00:00;23.11.22 12:39;190904;Ptge Maluquer;22;;25;Sant Gervasi - la Bonanova;5;Sarrià-Sant Gervasi;8022;BARCELONA;4,27788E+15;4,58459E+15;4,14096E+15;2,136E+15
﻿95081125403;Parc Can Ponsic;22.03.95 00:00;23.11.22 12:39;110202;Enric Giménez;16;;23;Sarrià;5;Sarrià-Sant Gervasi;8034;BARCELONA;4,2639E+15;4,5831E+16;4,1396E+16;2,11946E+16
﻿95109130139;Jardins del  Baix Guinardó;19.04.95 00:00;23.11.22 12:39;197302;C Marina;372;;33;el Baix Guinardó;7;Horta-Guinardó;8025;BARCELONA;4,30517E+16;4,58458E+15;4,14098E+16;2,16866E+16
﻿95109130139;Jardins del  Baix Guinardó;19.04.95 00:00;23.11.22 12:39;197302;C Marina;372;;33;el Baix Guinardó;7;Horta-Guinardó;8025;BARCELONA;4,30517E+16;4,58458E+15;4,14098E+16;2,16866E+16
﻿99400273743;Jardins de Miquel Martí i Pol;01.07.11 14:38;23.11.22 12:39;183603;C Llacuna;121;;66;el Parc i la Llacuna del Poblenou;10;Sant Martí;8018;BARCELONA;4,32706E+16;4,5839E+16;4,14039E+15;2,19491E+15
﻿99400260339;Jardins Constança d'Aragó;29.11.10 14:37;23.11.22 12:39;286504;Carrer de Roger de Flor;194;;7;la Dreta de l'Eixample;2;Eixample;8013;Barcelona;4,30847E+16;4,58337E+15;4,13989E+15;2,17275E+15
﻿99400260339;Jardins Constança d'Aragó;29.11.10 14:37;23.11.22 12:39;286504;Carrer de Roger de Flor;194;;7;la Dreta de l'Eixample;2;Eixample;8013;Barcelona;4,30847E+16;4,58337E+15;4,13989E+15;2,17275E+15
﻿99076101840;Jardins Mercè Plantada;17.03.99 00:00;23.11.22 12:39;4908;Àlaba;49;;67;la Vila Olímpica del Poblenou;10;Sant Martí;8005;BARCELONA;4,32664E+16;4,58294E+15;4,13951E+16;2,19453E+16
﻿99400345117;Jardins Emília Miret i Soler;17.06.14 14:32;23.11.22 12:39;134357;Ptge Rosa Leveroni;1;;21;Pedralbes;4;Les Corts;8034;BARCELONA;4,27005E+16;4,58249E+15;4,13906E+15;2,12689E+15
﻿1288121408;Jardins de Can Senillosa;15.10.01 00:00;23.11.22 12:39;130709;Fontcoberta;1;;23;Sarrià;5;Sarrià-Sant Gervasi;8034;BARCELONA;4,26778E+15;4,58295E+16;4,13948E+15;2,12412E+16
﻿99400248564;Jardins de Beatriu de Provença;09.06.10 13:02;23.11.22 12:39;225500;Carrer de Nàpols;242;242;6;la Sagrada Família;2;Eixample;8013;Barcelona;4,30761E+13;4,58369E+14;4,14018E+16;2,17167E+16
﻿99400248564;Jardins de Beatriu de Provença;09.06.10 13:02;23.11.22 12:39;225500;Carrer de Nàpols;242;242;6;la Sagrada Família;2;Eixample;8013;Barcelona;4,30761E+13;4,58369E+14;4,14018E+16;2,17167E+16
﻿99400248566;Jardins d'Enriqueta Sèculi;09.06.10 13:07;23.11.22 12:39;325800;Passatge de Simó;15;15;6;la Sagrada Família;2;Eixample;8025;Barcelona;4,30901E+13;4,584E+14;4,14046E+15;2,17332E+16
﻿99400248566;Jardins d'Enriqueta Sèculi;09.06.10 13:07;23.11.22 12:39;325800;Passatge de Simó;15;15;6;la Sagrada Família;2;Eixample;8025;Barcelona;4,30901E+13;4,584E+14;4,14046E+15;2,17332E+16
﻿99400172715;Jardins Andreu Nin;28.11.06 12:33;23.11.22 12:39;256401;C Pintor Alsamora;9;;45;Porta;8;Nou Barris;8016;BARCELONA;4,31553E+16;4,58729E+15;4,14343E+16;2,18074E+16
﻿99400222552;Jardins Interior d'Illa Laura Albéniz;05.03.09 13:00;23.11.22 12:39;247659;Carrer de Pau Claris;182;;7;la Dreta de l'Eixample;2;Eixample;8037;Barcelona;4,30008E+15;4,58308E+14;4,13962E+16;2,16274E+16
﻿99400222552;Jardins Interior d'Illa Laura Albéniz;05.03.09 13:00;23.11.22 12:39;247659;Carrer de Pau Claris;182;;7;la Dreta de l'Eixample;2;Eixample;8037;Barcelona;4,30008E+15;4,58308E+14;4,13962E+16;2,16274E+16
﻿99400259236;Jardins d'Esteve Terradas;12.11.10 13:59;23.11.22 12:39;116901;C Esteve Terradas;10;;28;Vallcarca i els Penitents;6;Gràcia;8023;BARCELONA;4,28279E+16;4,58501E+16;4,14134E+16;2,14183E+15
﻿95143083146;Jardins de la Maternitat;23.05.95 00:00;23.11.22 12:39;343903;Trav Corts;159;;20;la Maternitat i Sant Ramon;4;Les Corts;8028;BARCELONA;4,26941E+16;4,58146E+15;4,13813E+15;2,12625E+15
﻿99400248563;Jardins de Rosa Deulofeu;09.06.10 12:45;23.11.22 12:39;54509;Carrer de Calàbria;264;264;9;la Nova Esquerra de l'Eixample;2;Eixample;8029;Barcelona;4,28562E+16;4,58207E+14;4,1387E+16;2,14556E+15
﻿99400248563;Jardins de Rosa Deulofeu;09.06.10 12:45;23.11.22 12:39;54509;Carrer de Calàbria;264;264;9;la Nova Esquerra de l'Eixample;2;Eixample;8029;Barcelona;4,28562E+16;4,58207E+14;4,1387E+16;2,14556E+15
﻿99400201005;Parc del Centre del Poblenou;26.02.08 14:55;23.11.22 12:39;144601;Av Diagonal;130;;71;Provençals del Poblenou;10;Sant Martí;8018;BARCELONA;4,33114E+15;4,58423E+15;4,14068E+15;2,19976E+16
﻿99400201005;Parc del Centre del Poblenou;26.02.08 14:55;23.11.22 12:39;144601;Av Diagonal;130;;71;Provençals del Poblenou;10;Sant Martí;8018;BARCELONA;4,33114E+15;4,58423E+15;4,14068E+15;2,19976E+16
﻿99400201005;Parc del Centre del Poblenou;26.02.08 14:55;23.11.22 12:39;144601;Av Diagonal;130;;71;Provençals del Poblenou;10;Sant Martí;8018;BARCELONA;4,33114E+15;4,58423E+15;4,14068E+15;2,19976E+16
﻿99400234073;Jardins de Rosa Mª Arquimbau;19.10.09 13:45;23.11.22 12:39;94300;C Cristóbal de Moura;160;;71;Provençals del Poblenou;10;Sant Martí;8019;BARCELONA;4,33945E+15;4,58491E+15;4,14131E+15;2,20963E+15
﻿99400214923;Jardins de Mercè Rodoreda;08.10.08 17:22;23.11.22 12:39;279600;Av República Argentina;165;;27;el Putxet i el Farró;5;Sarrià-Sant Gervasi;8023;BARCELONA;4,28457E+16;4,58476E+15;4,14112E+15;2,14399E+15
﻿99400389887;Jardins de Mercè Rovira;23.06.15 11:24;23.11.22 12:39;156509;C Hondures;61;;61;la Sagrera;9;Sant Andreu;8027;BARCELONA;4,32167E+16;4,58579E+15;4,14208E+16;2,18825E+15
﻿96304101944;Jardins Marià Manent;30.10.96 00:00;23.11.22 12:39;115206;Espinoi;7;;27;el Putxet i el Farró;5;Sarrià-Sant Gervasi;8023;BARCELONA;4,28189E+16;4,58466E+12;4,14103E+15;2,14079E+16
﻿92086020872;Parc de la Creueta del Coll;05.05.87 00:00;23.11.22 12:39;230000;Pg Mare de Déu del Coll;77;;29;el Coll;6;Gràcia;8023;BARCELONA;4,28655E+16;4,58565E+15;4,14193E+16;2,14625E+16
﻿92086020872;Parc de la Creueta del Coll;05.05.87 00:00;23.11.22 12:39;230000;Pg Mare de Déu del Coll;77;;29;el Coll;6;Gràcia;8023;BARCELONA;4,28655E+16;4,58565E+15;4,14193E+16;2,14625E+16
﻿92086012496;Jardins Valent Petit;24.05.85 00:00;23.11.22 12:39;160903;Pl Ildefons Cerdà;1;;13;la Marina de Port;3;Sants-Montjuïc;8014;BARCELONA;4,27765E+16;4,57963E+15;4,13649E+15;2,13632E+15
﻿92086011958;Parc del Turó de la Peira;01.04.85 00:00;23.11.22 12:39;119003;Passeig de Fabra i Puig;396;406;46;el Turó de la Peira;8;Nou Barris;8031;Barcelona;430107247;4587214961;4,14335E+15;2,16345E+16
﻿99400322904;Jardí de Can Solé;25.07.13 10:20;23.11.22 12:39;60705;C Cànoves;10;;39;Sant Genís dels Agudells;7;Horta-Guinardó;8035;BARCELONA;4,27701E+16;4,58649E+15;4,14268E+16;2,13474E+16
﻿92086012247;Jardins de Moragas;15.04.85 00:00;23.11.22 12:39;332204;Tavern;1;;26;Sant Gervasi - Galvany;5;Sarrià-Sant Gervasi;8021;BARCELONA;4,28576E+16;4,58328E+15;4,13979E+15;2,14559E+15
﻿92086011976;Jardinets de l'Alguer;01.04.85 00:00;23.11.22 12:39;213908;Avinguda de Mistral;10;12;10;Sant Antoni;2;Eixample;8015;Barcelona;4,29656E+13;4,58101E+14;4,13775E+15;2,15877E+16
﻿92086011981;Jardins Voltes d'en Cirés;02.04.85 00:00;23.11.22 12:39;86902;C Nou de la Rambla;63;;1;el Raval;1;Ciutat Vella;8001;BARCELONA;4,30804E+15;4,58098E+15;4,13773E+15;2,1725E+15
﻿99400323039;Parc de les Rieres d'Horta;29.07.13 17:51;23.11.22 12:39;700651;Av Estatut de Catalunya;21;;42;la Clota;7;Horta-Guinardó;8035;BARCELONA;4,29337E+16;4,58696E+15;4,14311E+15;2,15426E+15
﻿99400261845;Jardí;21.12.10 00:00;23.11.22 12:39;700827;Av Cardenal Vidal Barraquer;30;;42;la Clota;7;Horta-Guinardó;8035;BARCELONA;4,29089E+15;4,58681E+15;4,14297E+15;2,15131E+14
﻿99400269208;Jardins Interior d'Illa Carretera Antiga d'Horta;18.04.11 14:32;23.11.22 12:39;17466;Carretera Antiga d'Horta;5;;5;el Fort Pienc;2;Eixample;8013;Barcelona;4,31467E+14;4,58281E+15;4,13939E+16;2,18023E+16
﻿99400269208;Jardins Interior d'Illa Carretera Antiga d'Horta;18.04.11 14:32;23.11.22 12:39;17466;Carretera Antiga d'Horta;5;;5;el Fort Pienc;2;Eixample;8013;Barcelona;4,31467E+14;4,58281E+15;4,13939E+16;2,18023E+16
﻿99400558972;Jardí sud de la Masia de Can Fargues;01.12.17 10:26;23.11.22 12:39;194406;Pg Maragall;383;;36;la Font d'en Fargues;7;Horta-Guinardó;8032;BARCELONA;4,30202E+14;4,58658E+15;4,14278E+14;2,16465E+15
﻿95072132256;Jardins Olga Sacharoff;13.03.95 00:00;23.11.22 12:39;63703;Caravel.la la Niña;1;;19;les Corts;4;Les Corts;8017;BARCELONA;4,27574E+15;4,58248E+14;4,13906E+15;2,13369E+15
﻿92146102048;Jardins Caterina Albert;25.05.92 00:00;23.11.22 12:39;289105;Rosselló;395;;32;el Camp d'en Grassot i Gràcia Nova;6;Gràcia;8025;BARCELONA;4,30671E+16;4,58387E+15;4,14034E+15;2,17057E+15
﻿99099131947;Jardins Josep Goday i Casals;09.04.99 00:00;23.11.22 12:39;108856;Emèrita Augusta;13;;20;la Maternitat i Sant Ramon;4;Les Corts;8028;BARCELONA;4,26915E+15;4,58121E+15;4,13791E+16;2,12597E+16
﻿99106140304;Jardí Botànic de Barcelona;16.04.99 00:00;23.11.22 12:39;700701;Carrer del Doctor Font i Quer;2;2;11;el Poble-sec;3;Sants-Montjuïc;8038;Barcelona;42963966;4579518613;4,13641E+15;2,15875E+16
﻿99106140304;Jardí Botànic de Barcelona;16.04.99 00:00;23.11.22 12:39;700701;Carrer del Doctor Font i Quer;2;2;11;el Poble-sec;3;Sants-Montjuïc;8038;Barcelona;42963966;4579518613;4,13641E+15;2,15875E+16
﻿99106140304;Jardí Botànic de Barcelona;16.04.99 00:00;23.11.22 12:39;700701;Carrer del Doctor Font i Quer;2;2;11;el Poble-sec;3;Sants-Montjuïc;8038;Barcelona;42963966;4579518613;4,13641E+15;2,15875E+16
﻿99400039577;Jardins del Rector Oliveras;13.05.03 13:56;23.11.22 12:39;246601;Passatge del Rector Oliveras;2;;7;la Dreta de l'Eixample;2;Eixample;8009;Barcelona;4,30433E+16;4,58292E+15;4,13948E+15;2,16784E+16
﻿99400039577;Jardins del Rector Oliveras;13.05.03 13:56;23.11.22 12:39;246601;Passatge del Rector Oliveras;2;;7;la Dreta de l'Eixample;2;Eixample;8009;Barcelona;4,30433E+16;4,58292E+15;4,13948E+15;2,16784E+16
﻿99400165137;Jardins del Viver de Can Borni;18.07.06 14:14;23.11.22 12:39;69517;Camí de Can Borni;61;65;39;Sant Genís dels Agudells;7;Horta-Guinardó;8035;Barcelona;4,2667E+15;4,58607E+16;4,14229E+16;2,12245E+16
﻿98294134447;Parc de Carles I;21.10.98 00:00;23.11.22 12:39;62609;Av Icària;121;;67;la Vila Olímpica del Poblenou;10;Sant Martí;8005;BARCELONA;4,32569E+15;4,58225E+15;4,1389E+14;2,19347E+15
﻿95019124337;Jardins Jaume Huguet;19.01.95 00:00;23.11.22 12:39;165612;Pl Jaume Huguet;1;;70;el Besòs i el Maresme;10;Sant Martí;8019;BARCELONA;4,34162E+16;4,58539E+15;4,14174E+15;2,21217E+16
﻿99400046382;Jardins Elisard Sala - Interior;19.06.03 14:25;23.11.22 12:39;285104;C Robrenyo;53;;18;Sants;3;Sants-Montjuïc;8014;BARCELONA;4,27988E+15;4,58153E+15;4,1382E+15;2,13876E+15
﻿92086000166;Jardí de les Escultures *Annex Edifici Fundació Joan Miró;13.12.90 00:00;23.11.22 12:39;213307;Av Miramar;1;;11;el Poble-sec;3;Sants-Montjuïc;8038;BARCELONA;4,29762E+16;4,57998E+15;4,13683E+15;2,16015E+16
﻿92086000166;Jardí de les Escultures *Annex Edifici Fundació Joan Miró;13.12.90 00:00;23.11.22 12:39;213307;Av Miramar;1;;11;el Poble-sec;3;Sants-Montjuïc;8038;BARCELONA;4,29762E+16;4,57998E+15;4,13683E+15;2,16015E+16
﻿99400214753;Jardins de Rodrigo Caro;07.10.08 12:31;23.11.22 12:39;26605;C Artesania;79;;50;les Roquetes;8;Nou Barris;8042;BARCELONA;4,30765E+16;4,58863E+16;4,14462E+15;2,17116E+15
﻿99400214912;Parc de Joan Reventós;08.10.08 16:52;23.11.22 12:39;273852;C Ràfols;10;;23;Sarrià;5;Sarrià-Sant Gervasi;8034;BARCELONA;4,26195E+16;4,58372E+15;4,14017E+15;2,11705E+15
﻿95178125204;Jardí Doctor Comas i Llaberia;27.06.95 00:00;23.11.22 12:39;158107;Av Vallcarca;218;;28;Vallcarca i els Penitents;6;Gràcia;8023;BARCELONA;4,28285E+16;4,5854E+15;4,14169E+16;2,14185E+15
﻿96117112640;Jardins d'Atlanta;26.04.96 00:00;23.11.22 12:39;197302;Marina;29;;67;la Vila Olímpica del Poblenou;10;Sant Martí;8005;BARCELONA;4,32674E+15;4,58214E+15;4,1388E+15;2,19473E+16
﻿99400211343;Parc dels Esculls;30.07.08 00:00;23.11.22 12:39;701612;Pl Fòrum;1;;70;el Besòs i el Maresme;10;Sant Martí;8019;BARCELONA;4,35435E+16;4,58443E+15;4,14088E+15;2,22751E+15
﻿99400226468;Jardins Interior d'Illa Càndida Pérez;29.05.09 14:19;23.11.22 12:39;87009;Carrer del Comte Borrell;44;46;10;Sant Antoni;2;Eixample;8015;Barcelona;4,29993E+12;4,58099E+14;4,13774E+16;2,1628E+15
﻿99400226468;Jardins Interior d'Illa Càndida Pérez;29.05.09 14:19;23.11.22 12:39;87009;Carrer del Comte Borrell;44;46;10;Sant Antoni;2;Eixample;8015;Barcelona;4,29993E+12;4,58099E+14;4,13774E+16;2,1628E+15
﻿92086010494;Jardins del Palau de Pedralbes;12.03.90 00:00;23.11.22 12:39;144601;Av Diagonal;686;;21;Pedralbes;4;Les Corts;8034;BARCELONA;4,26294E+16;4,58204E+15;4,13865E+15;2,11844E+16
﻿98224202041;Jardins Doctors Dolsa;12.08.98 00:00;23.11.22 12:39;125006;Fígols;6;;19;les Corts;4;Les Corts;8028;BARCELONA;4,27185E+15;4,5814E+15;4,13808E+15;2,12917E+15
﻿97279132537;Jardins Josep Amat;06.10.97 00:00;23.11.22 12:39;143904;Rda General Mitre;213;;27;el Putxet i el Farró;5;Sarrià-Sant Gervasi;8023;BARCELONA;4,28402E+15;4,58413E+15;4,14055E+15;2,14341E+16
﻿99188084150;Jardins Cal Sèbio;07.07.99 00:00;23.11.22 12:39;135203;Foc;97;;12;la Marina del Prat Vermell;3;Sants-Montjuïc;8038;BARCELONA;4,28243E+15;4,57887E+16;4,13581E+15;2,14213E+16
﻿98336165607;Jardins Teixonera;02.12.98 00:00;23.11.22 12:39;22400;Arenys;1;;38;la Teixonera;7;Horta-Guinardó;8035;BARCELONA;4,28253E+15;4,58598E+16;4,14222E+16;2,14141E+15
﻿97209132255;Parc Carmel;28.07.97 00:00;23.11.22 12:39;67001;Ctra Carmel;9999;;37;el Carmel;7;Horta-Guinardó;8024;BARCELONA;4,29404E+16;4,58519E+16;4,14152E+15;2,15527E+15
﻿98294121049;Parc del Pla de Fornells;21.10.98 00:00;23.11.22 12:39;267816;C Nou Barris;14;;50;les Roquetes;8;Nou Barris;8042;BARCELONA;4,31389E+15;4,58884E+15;4,14482E+15;2,1786E+16
﻿99127085955;Jardinets de Salvador Espriu;07.05.99 00:00;23.11.22 12:39;148307;Pg Gràcia;118;;31;la Vila de Gràcia;6;Gràcia;8008;BARCELONA;4,29697E+16;4,58321E+15;4,13974E+15;2,159E+15
﻿96269141552;Parc de la Barceloneta;25.09.96 00:00;23.11.22 12:39;197903;Passeig Marítim de la Barceloneta;15;21;3;la Barceloneta;1;Ciutat Vella;8003;Barcelona;4,32593E+12;4,58148E+14;4,13821E+14;2,19384E+15
﻿99298123646;Jardins Hiroshima;25.10.99 00:00;23.11.22 12:39;56504;Camèlies;80;;33;el Baix Guinardó;7;Horta-Guinardó;8024;BARCELONA;4,30348E+15;4,58501E+15;4,14136E+14;2,16659E+16
﻿96017105547;Jardins del Palau Robert;17.01.96 00:00;23.11.22 12:39;148307;Passeig de Gràcia;107;107;7;la Dreta de l'Eixample;2;Eixample;8008;Barcelona;4,29741E+16;4,58307E+14;4,13961E+15;2,15954E+15
﻿96017105547;Jardins del Palau Robert;17.01.96 00:00;23.11.22 12:39;148307;Passeig de Gràcia;107;107;7;la Dreta de l'Eixample;2;Eixample;8008;Barcelona;4,29741E+16;4,58307E+14;4,13961E+15;2,15954E+15
﻿99400487382;Interior d'Illa Sidó Lledoner;23.03.17 18:51;23.11.22 12:39;184005;Carrer del Lledoner;1;;39;Sant Genís dels Agudells;7;Horta-Guinardó;8035;Barcelona;4,28032E+16;4,58629E+13;4,1425E+15;2,13872E+15
﻿99400487382;Interior d'Illa Sidó Lledoner;23.03.17 18:51;23.11.22 12:39;184005;Carrer del Lledoner;1;;39;Sant Genís dels Agudells;7;Horta-Guinardó;8035;Barcelona;4,28032E+16;4,58629E+13;4,1425E+15;2,13872E+15
﻿96261095328;Jardins de Màlaga;17.09.96 00:00;23.11.22 12:39;285104;Robrenyo;126;;18;Sants;3;Sants-Montjuïc;8029;BARCELONA;4,28147E+14;4,58164E+15;4,13831E+15;2,14065E+14
﻿99400152910;Jardins Interior d'Illa d'Helena Maseras;03.02.06 17:44;23.11.22 12:39;289105;Carrer del Rosselló;163;;8;l'Antiga Esquerra de l'Eixample;2;Eixample;8036;Barcelona;4,29214E+15;4,58245E+15;4,13904E+15;2,15331E+15
﻿99400152910;Jardins Interior d'Illa d'Helena Maseras;03.02.06 17:44;23.11.22 12:39;289105;Carrer del Rosselló;163;;8;l'Antiga Esquerra de l'Eixample;2;Eixample;8036;Barcelona;4,29214E+15;4,58245E+15;4,13904E+15;2,15331E+15
﻿99335120509;Jardins de Rubió i Lluch;01.12.99 00:00;23.11.22 12:39;157909;Hospital;56;;1;el Raval;1;Ciutat Vella;8001;BARCELONA;4,30583E+15;4,5814E+16;4,13811E+15;2,16981E+16
﻿92086011955;Parc de les Aigües;01.04.85 00:00;23.11.22 12:39;8807;Pl Alfons el Savi;3;;33;el Baix Guinardó;7;Horta-Guinardó;8024;BARCELONA;4,30256E+15;4,58501E+15;4,14136E+16;2,16548E+16
﻿92086011957;Parc de la Guineueta;16.04.85 00:00;23.11.22 12:39;186601;Plaça de la República;9;;48;la Guineueta;8;Nou Barris;8016;Barcelona;4,31036E+16;4,58783E+15;4,1439E+15;2,17449E+16
﻿99400176467;Jardins de Victòria de los Ángeles;26.01.07 14:11;23.11.22 12:39;216906;C Montalegre;6;;1;el Raval;1;Ciutat Vella;8001;BARCELONA;4,30379E+15;4,58172E+15;4,1384E+15;2,16733E+15
﻿99400183881;Jardins de Fabià Puigserver;22.05.07 16:19;23.11.22 12:39;178400;C Lleida;57;;11;el Poble-sec;3;Sants-Montjuïc;8004;BARCELONA;4,29523E+16;4,58023E+15;4,13705E+15;2,15727E+16
﻿99400184041;Jardins de Carme Biada;24.05.07 13:24;23.11.22 12:39;176801;Carrer de Roger de Llúria;132;;7;la Dreta de l'Eixample;2;Eixample;8037;Barcelona;4,29975E+15;4,58331E+14;4,13982E+15;2,16231E+16
﻿99400184041;Jardins de Carme Biada;24.05.07 13:24;23.11.22 12:39;176801;Carrer de Roger de Llúria;132;;7;la Dreta de l'Eixample;2;Eixample;8037;Barcelona;4,29975E+15;4,58331E+14;4,13982E+15;2,16231E+16
﻿99400291555;Jardins de la Segona República;24.04.12 00:00;23.11.22 12:39;186601;Pl de la República;9;;48;la Guineueta;8;Nou Barris;8016;BARCELONA;4,31036E+16;4,58783E+15;4,1439E+15;2,17449E+16
﻿99400178764;Jardins d'Ernest Lluch;01.03.07 12:07;23.11.22 12:39;65200;C Cardenal Reig;21;;20;la Maternitat i Sant Ramon;4;Les Corts;8028;BARCELONA;4,25854E+15;4,58114E+15;4,13783E+16;2,11329E+16
﻿99400575472;Jardins Can Xiringoi;25.01.18 09:48;23.11.22 12:39;8603;C Costa i Cuxart;20;;44;Vilapicina i la Torre Llobeta;8;Nou Barris;8016;BARCELONA;4,31126E+15;4,58657E+15;4,14277E+15;2,17572E+15
﻿99400179040;Jardins Interior d'Illa Mercè Vilaret;06.03.07 14:49;23.11.22 12:39;127704;Carrer de Floridablanca;141;;10;Sant Antoni;2;Eixample;8011;Barcelona;4,29994E+16;4,58149E+15;4,13818E+16;2,16276E+15
﻿99400179040;Jardins Interior d'Illa Mercè Vilaret;06.03.07 14:49;23.11.22 12:39;127704;Carrer de Floridablanca;141;;10;Sant Antoni;2;Eixample;8011;Barcelona;4,29994E+16;4,58149E+15;4,13818E+16;2,16276E+15
﻿75990352709;L'Aquàrium de Barcelona - Aspro Parks;18.09.96 00:00;23.11.22 12:39;541576;Moll Espanya;5;;2;el Barri Gòtic;1;Ciutat Vella;8039;BARCELONA;4,31797E+16;4,58091E+15;4,13768E+16;2,18438E+16
﻿99400454253;Jardins Interior d'Illa de Montserrat Figueras;28.06.16 13:02;23.11.22 12:39;90502;Carrer de Còrsega;195;195;8;l'Antiga Esquerra de l'Eixample;2;Eixample;8036;Barcelona;4,29019E+16;4,58244E+14;4,13904E+15;2,15098E+16
﻿99400454253;Jardins Interior d'Illa de Montserrat Figueras;28.06.16 13:02;23.11.22 12:39;90502;Carrer de Còrsega;195;195;8;l'Antiga Esquerra de l'Eixample;2;Eixample;8036;Barcelona;4,29019E+16;4,58244E+14;4,13904E+15;2,15098E+16
﻿99400345123;Jardins del Doctor Samuel Hahnemann;17.06.14 14:50;23.11.22 12:39;320704;Av Sarrià;86;;26;Sant Gervasi - Galvany;5;Sarrià-Sant Gervasi;8017;BARCELONA;4,27868E+15;4,58263E+15;4,1392E+15;2,1372E+16
﻿99400451948;Jardí Històric;02.06.16 00:00;23.11.22 12:39;223606;C Muntaner;282;;26;Sant Gervasi - Galvany;5;Sarrià-Sant Gervasi;8021;BARCELONA;4,28683E+16;4,5831E+15;4,13963E+15;2,14689E+16
﻿99400354561;Parc de Montjuïc;01.10.14 16:02;23.11.22 12:39;700690;Pg Migdia;147;;11;el Poble-sec;3;Sants-Montjuïc;8038;BARCELONA;4,29719E+15;4,57922E+15;4,13614E+16;2,15973E+16
﻿93188125133;Parc de la Trinitat;07.07.93 00:00;23.11.22 12:39;314100;Pg Santa Coloma;60;;60;Sant Andreu;9;Sant Andreu;8030;BARCELONA;4,32814E+14;4,58894E+15;4,14493E+15;2,19565E+16
﻿99329085212;Jardins Laribal;25.11.99 00:00;23.11.22 12:39;316809;Pg Santa Madrona;2;;11;el Poble-sec;3;Sants-Montjuïc;8038;BARCELONA;4,29622E+16;4,57997E+15;4,13681E+15;2,15848E+15
﻿99278140944;Jardins Manuel J. Arnalot;05.10.99 00:00;23.11.22 12:39;226604;Natzaret;52;;39;Sant Genís dels Agudells;7;Horta-Guinardó;8035;BARCELONA;4,27853E+15;4,58639E+15;4,14258E+16;2,13657E+16
﻿99278141813;Jardins Montbau;05.10.99 00:00;23.11.22 12:39;260806;C Poesia;6;;40;Montbau;7;Horta-Guinardó;8035;BARCELONA;4,28368E+16;4,58713E+15;4,14325E+15;2,14265E+15
﻿98223130028;Parc de les Cascades;11.08.98 00:00;23.11.22 12:39;700654;Avinguda del Litoral;12;14;3;la Barceloneta;1;Ciutat Vella;8005;Barcelona;4,32703E+13;4,58196E+14;4,13863E+15;2,19509E+15
﻿98224202525;Jardins Can Feu;12.08.98 00:00;23.11.22 12:39;128059;Flos i Calcat;5;;19;les Corts;4;Les Corts;8034;BARCELONA;4,27172E+15;4,58245E+14;4,13903E+16;2,12889E+15
﻿98225175911;Jardins de Vil·la Cecília;13.08.98 00:00;23.11.22 12:39;312808;Santa Amèlia;1;;23;Sarrià;5;Sarrià-Sant Gervasi;8034;BARCELONA;4,26597E+16;4,58284E+15;4,13937E+15;2,12196E+15
﻿98225175911;Jardins de Vil·la Cecília;13.08.98 00:00;23.11.22 12:39;312808;Santa Amèlia;1;;23;Sarrià;5;Sarrià-Sant Gervasi;8034;BARCELONA;4,26597E+16;4,58284E+15;4,13937E+15;2,12196E+15
﻿99048090944;Jardins de l'Arboreda - Interior;17.02.99 00:00;23.11.22 12:39;206607;Carrer de la Mecànica;10;10;13;la Marina de Port;3;Sants-Montjuïc;8038;Barcelona;4,27904E+16;4,57893E+14;4,13587E+15;2,13806E+16
﻿99109141416;Parc Central de Nou Barris;19.04.99 00:00;23.11.22 12:39;701639;Pl Major de Nou Barris;1;;48;la Guineueta;8;Nou Barris;8042;BARCELONA;4,30761E+16;4,58758E+15;4,14368E+14;2,17123E+16
﻿99400333636;Jardins Plaça d'Henry Dunant;08.01.14 13:49;23.11.22 12:39;90502;Carrer de Còrsega;643;;6;la Sagrada Família;2;Eixample;8025;Barcelona;4,31216E+16;4,58459E+15;4,141E+15;2,17701E+16
﻿99400333636;Jardins Plaça d'Henry Dunant;08.01.14 13:49;23.11.22 12:39;90502;Carrer de Còrsega;643;;6;la Sagrada Família;2;Eixample;8025;Barcelona;4,31216E+16;4,58459E+15;4,141E+15;2,17701E+16
﻿95192110938;Jardins de Can Castelló;11.07.95 00:00;23.11.22 12:39;134404;Carrer de Freixa;56;;26;Sant Gervasi - Galvany;5;Sarrià-Sant Gervasi;8021;Barcelona;4,28125E+16;4,58341E+15;4,1399E+15;2,14018E+15
﻿95192110938;Jardins de Can Castelló;11.07.95 00:00;23.11.22 12:39;134404;Carrer de Freixa;56;;26;Sant Gervasi - Galvany;5;Sarrià-Sant Gervasi;8021;Barcelona;4,28125E+16;4,58341E+15;4,1399E+15;2,14018E+15
﻿99400152909;Jardins;03.02.06 17:37;23.11.22 12:39;100800;Carrer de la Diputació;231;;8;l'Antiga Esquerra de l'Eixample;2;Eixample;8007;Barcelona;4,30059E+14;4,58215E+15;4,13878E+16;2,16345E+15
﻿99400152909;Jardins;03.02.06 17:37;23.11.22 12:39;100800;Carrer de la Diputació;231;;8;l'Antiga Esquerra de l'Eixample;2;Eixample;8007;Barcelona;4,30059E+14;4,58215E+15;4,13878E+16;2,16345E+15
﻿99308125546;Jardins del Port Romà;04.11.99 00:00;23.11.22 12:39;135203;Foc;99;;13;la Marina de Port;3;Sants-Montjuïc;8038;BARCELONA;4,28469E+15;4,57901E+15;4,13594E+15;2,14481E+15
﻿98294133930;Parc de la Nova Icària;21.10.98 00:00;23.11.22 12:39;700667;Jaume Vicens i Vives;1;;67;la Vila Olímpica del Poblenou;10;Sant Martí;8005;BARCELONA;4,33254E+16;4,58253E+15;4,13915E+16;2,20162E+16
﻿99146140904;Jardins Jaume Planas i Alemany;26.05.99 00:00;23.11.22 12:39;185700;Llobregós;201;;37;el Carmel;7;Horta-Guinardó;8032;BARCELONA;4,29248E+16;4,58602E+15;4,14226E+16;2,15331E+15
﻿99400078450;Jardins de Joan Fuster i Ortells;30.03.04 16:56;23.11.22 12:39;30409;Carrer de Bac de Roda;11;11;69;Diagonal Mar i el Front Marítim del Poblenou;10;Sant Martí;8005;Barcelona;4,34017E+15;4,58372E+15;4,14023E+15;2,21062E+16
﻿95041113822;Jardins Hortes Sant Bertran;10.02.95 00:00;23.11.22 12:39;361009;Vila i Vilà;2;;11;el Poble-sec;3;Sants-Montjuïc;8004;BARCELONA;4,30978E+15;4,58045E+15;4,13726E+14;2,17464E+15
﻿99400054557;Parc dels Auditoris;22.07.03 17:39;23.11.22 12:39;701612;Pl Fòrum;1;;70;el Besòs i el Maresme;10;Sant Martí;8019;BARCELONA;4,35262E+16;4,58447E+15;4,14092E+15;2,22543E+16
﻿99400063150;Jardins Interior d'Illa de Flora Tristan;15.10.03 13:34;23.11.22 12:39;238400;Carrer de Padilla;210;;6;la Sagrada Família;2;Eixample;8013;Barcelona;4,31443E+15;4,58394E+15;4,14041E+16;2,1798E+16
﻿99400063150;Jardins Interior d'Illa de Flora Tristan;15.10.03 13:34;23.11.22 12:39;238400;Carrer de Padilla;210;;6;la Sagrada Família;2;Eixample;8013;Barcelona;4,31443E+15;4,58394E+15;4,14041E+16;2,1798E+16
﻿99335102401;Jardins Casa Bloc;01.12.99 00:00;23.11.22 12:39;350705;Valentí Iglésias;19;;60;Sant Andreu;9;Sant Andreu;8030;BARCELONA;4,3231E+15;4,58806E+16;4,14412E+15;2,18972E+15
﻿99335115236;Jardins Clara Campoamor;01.12.99 00:00;23.11.22 12:39;144601;Av Diagonal;615;;19;les Corts;4;Les Corts;8028;BARCELONA;4,27161E+15;4,58223E+15;4,13883E+15;2,12878E+16
﻿92154102452;Jardins de Joan Maragall - Palauet Albéniz;02.06.92 00:00;23.11.22 12:39;116402;Av Estadi;69;;11;el Poble-sec;3;Sants-Montjuïc;8038;BARCELONA;4,29456E+14;4,57986E+15;4,13671E+16;2,15651E+15
﻿1338143613;Jardins de Ca l'Aranyó;04.12.01 00:00;23.11.22 12:39;148704;C Ciutat de Granada;150;;66;el Parc i la Llacuna del Poblenou;10;Sant Martí;8018;BARCELONA;4,3248E+15;4,58381E+15;4,1403E+15;2,19222E+16
﻿92086011931;Jardins de Vil·la Amèlia;01.04.85 00:00;23.11.22 12:39;107300;Carrer d'Eduardo Conde;22;;23;Sarrià;5;Sarrià-Sant Gervasi;8034;Barcelona;4,26532E+15;4,58286E+14;4,13939E+16;2,12119E+16
﻿92086011949;Park Güell;28.10.87 00:00;23.11.22 12:39;234908;Carrer d'Olot;7;;30;la Salut;6;Gràcia;8024;Barcelona;4,29223E+15;4,58501E+16;4,14135E+15;2,15313E+16
﻿92086011949;Park Güell;28.10.87 00:00;23.11.22 12:39;234908;Carrer d'Olot;7;;30;la Salut;6;Gràcia;8024;Barcelona;4,29223E+15;4,58501E+16;4,14135E+15;2,15313E+16
﻿92086011952;Parc del Laberint d'Horta;01.04.85 00:00;25.11.22 14:31;72158;Passeig dels Castanyers;1;;40;Montbau;7;Horta-Guinardó;8035;Barcelona;4,28785E+15;4,58773E+15;4,1438E+16;2,14756E+16
﻿92086011952;Parc del Laberint d'Horta;01.04.85 00:00;25.11.22 14:31;72158;Passeig dels Castanyers;1;;40;Montbau;7;Horta-Guinardó;8035;Barcelona;4,28785E+15;4,58773E+15;4,1438E+16;2,14756E+16
﻿97197122612;Jardins de la Mediterrània;16.07.97 00:00;23.11.22 12:39;137300;Foneria;34;;13;la Marina de Port;3;Sants-Montjuïc;8038;BARCELONA;4,28035E+16;4,57911E+15;4,13602E+15;2,13962E+15
﻿92086011954;Parc del Guinardó;01.04.85 00:00;23.11.22 12:39;141206;Garriga i Roca;1;;35;el Guinardó;7;Horta-Guinardó;8041;BARCELONA;4,30608E+16;4,58566E+15;4,14195E+15;2,16961E+15
﻿92086012013;Parc de Joan Miró;07.05.85 00:00;23.11.22 12:39;18505;Carrer d'Aragó;2;2;9;la Nova Esquerra de l'Eixample;2;Eixample;8015;Barcelona;4,28701E+12;4,58116E+16;4,13788E+15;2,14733E+15
﻿92086012013;Parc de Joan Miró;07.05.85 00:00;23.11.22 12:39;18505;Carrer d'Aragó;2;2;9;la Nova Esquerra de l'Eixample;2;Eixample;8015;Barcelona;4,28701E+12;4,58116E+16;4,13788E+15;2,14733E+15
﻿92086012240;Jardins Can Mantega;15.04.85 00:00;23.11.22 12:39;172403;Joan Güell;53;;18;Sants;3;Sants-Montjuïc;8028;BARCELONA;4,27537E+16;4,58112E+15;4,13784E+16;2,13341E+16
﻿92086011921;Parc de la Ciutadella;13.07.88 00:00;23.11.22 12:39;201400;Passeig de Picasso;21;;4;Sant Pere, Santa Caterina i la Ribera;1;Ciutat Vella;8003;Barcelona;4,31891E+15;4,58197E+15;4,13863E+15;2,18538E+15
﻿92086011921;Parc de la Ciutadella;13.07.88 00:00;23.11.22 12:39;201400;Passeig de Picasso;21;;4;Sant Pere, Santa Caterina i la Ribera;1;Ciutat Vella;8003;Barcelona;4,31891E+15;4,58197E+15;4,13863E+15;2,18538E+15
﻿92086011925;Jardins d'Aclimatació de Montjuïc;01.04.85 00:00;23.11.22 12:39;116402;Av Estadi;42;;11;el Poble-sec;3;Sants-Montjuïc;8038;BARCELONA;4,29158E+15;4,57974E+15;4,13661E+16;2,15297E+16
﻿92086011925;Jardins d'Aclimatació de Montjuïc;01.04.85 00:00;23.11.22 12:39;116402;Av Estadi;42;;11;el Poble-sec;3;Sants-Montjuïc;8038;BARCELONA;4,29158E+15;4,57974E+15;4,13661E+16;2,15297E+16
﻿92086011933;Parc del Castell de l'Oreneta;01.04.85 00:00;23.11.22 12:39;218402;C Montevideo;45;;23;Sarrià;5;Sarrià-Sant Gervasi;8034;BARCELONA;4,25787E+16;4,58348E+15;4,13994E+15;2,1122E+15
﻿92086011942;Turó Park - Parc del Poeta Eduard Marquina;01.04.85 00:00;23.11.22 12:39;143507;Av Pau Casals;19;;26;Sant Gervasi - Galvany;5;Sarrià-Sant Gervasi;8021;BARCELONA;4,28265E+15;4,58286E+16;4,13941E+15;2,14192E+16
﻿92086012405;Jardins Joaquim Ruyra;22.04.85 00:00;23.11.22 12:39;110803;Entença;328;;19;les Corts;4;Les Corts;8029;BARCELONA;4,27965E+15;4,58245E+15;4,13904E+15;2,13838E+15
﻿92086012472;Jardins de Magalí;23.04.85 00:00;23.11.22 12:39;352904;C Vallespir;194;;19;les Corts;4;Les Corts;8014;BARCELONA;4,27554E+15;4,58185E+15;4,13849E+15;2,13353E+16
﻿92086012472;Jardins de Magalí;23.04.85 00:00;23.11.22 12:39;352904;C Vallespir;194;;19;les Corts;4;Les Corts;8014;BARCELONA;4,27554E+15;4,58185E+15;4,13849E+15;2,13353E+16
﻿75990123317;Parc d'Atraccions del Tibidabo;18.09.96 00:00;23.11.22 12:39;335701;Plaça del Tibidabo;3;3;22;Vallvidrera, el Tibidabo i les Planes;5;Sarrià-Sant Gervasi;8035;Barcelona;4,26359E+16;4,58594E+14;4,14216E+15;2,11874E+15
﻿75990123317;Parc d'Atraccions del Tibidabo;18.09.96 00:00;23.11.22 12:39;335701;Plaça del Tibidabo;3;3;22;Vallvidrera, el Tibidabo i les Planes;5;Sarrià-Sant Gervasi;8035;Barcelona;4,26359E+16;4,58594E+14;4,14216E+15;2,11874E+15
﻿99400141582;Jardins Áurea Cuadrado;12.09.05 14:47;23.11.22 12:39;700907;C General Batet;1;;20;la Maternitat i Sant Ramon;4;Les Corts;8028;BARCELONA;4,25476E+16;4,58116E+15;4,13785E+15;2,10877E+15
﻿92086038562;Parc Metropolità Collserola;03.03.92 00:00;23.11.22 12:39;160007;Ctra Església;92;;22;Vallvidrera, el Tibidabo i les Planes;5;Sarrià-Sant Gervasi;8017;BARCELONA;4,24757E+16;4,58588E+15;4,1421E+16;2,09959E+16
﻿99400679287;Interior d'Illa Motor Repris;11.11.21 15:23;23.11.22 12:39;169409;Gran Via de les Corts Catalanes;751;751;5;el Fort Pienc;2;Eixample;8013;Barcelona;4,31686E+13;4,58356E+14;4,14006E+15;2,18276E+15
﻿99400679287;Interior d'Illa Motor Repris;11.11.21 15:23;23.11.22 12:39;169409;Gran Via de les Corts Catalanes;751;751;5;el Fort Pienc;2;Eixample;8013;Barcelona;4,31686E+13;4,58356E+14;4,14006E+15;2,18276E+15
﻿92090124057;Jardins Mossèn Cinto Verdaguer;30.03.92 00:00;23.11.22 12:39;213307;Av Miramar;30;;11;el Poble-sec;3;Sants-Montjuïc;8038;BARCELONA;4,30005E+14;4,58004E+15;4,13689E+15;2,16305E+16
﻿99400023674;Jardins de Jaume Perich;21.10.02 09:10;23.11.22 12:39;169409;Gran Via de les Corts Catalanes;657;657;7;la Dreta de l'Eixample;2;Eixample;8010;Barcelona;4,30891E+16;4,58278E+14;4,13936E+16;2,17333E+15
﻿99400023674;Jardins de Jaume Perich;21.10.02 09:10;23.11.22 12:39;169409;Gran Via de les Corts Catalanes;657;657;7;la Dreta de l'Eixample;2;Eixample;8010;Barcelona;4,30891E+16;4,58278E+14;4,13936E+16;2,17333E+15
﻿92086032290;Jardins de la Indústria;20.02.90 00:00;23.11.22 12:39;161407;Carrer de la Indústria;109;;6;la Sagrada Família;2;Eixample;8025;Barcelona;4,30714E+16;4,58438E+15;4,1408E+15;2,17103E+16
﻿99400613340;Jardins de Dolors Canals i Farriols;19.11.18 09:16;23.11.22 12:39;250100;C Pere Moragues;13;;70;el Besòs i el Maresme;10;Sant Martí;8019;BARCELONA;4,34453E+15;4,58537E+15;4,14172E+15;2,21566E+16
﻿99400625003;Parc de les Glòries;04.04.19 14:26;23.11.22 12:39;146902;Plaça de les Glòries Catalanes;1;1;5;el Fort Pienc;2;Eixample;8013;Barcelona;4,319E+16;4,58389E+15;4,14037E+16;2,18528E+15
﻿94165135054;Jardins Interior d'Illa de Sebastià Gasch;14.06.94 00:00;23.11.22 12:39;285807;Carrer de Rocafort;87;87;9;la Nova Esquerra de l'Eixample;2;Eixample;8015;Barcelona;4,29207E+13;4,58119E+14;4,13791E+16;2,15337E+16
﻿94165135054;Jardins Interior d'Illa de Sebastià Gasch;14.06.94 00:00;23.11.22 12:39;285807;Carrer de Rocafort;87;87;9;la Nova Esquerra de l'Eixample;2;Eixample;8015;Barcelona;4,29207E+13;4,58119E+14;4,13791E+16;2,15337E+16
﻿99400226957;Jardins de Portolà;05.06.09 11:59;23.11.22 12:39;263804;C Portolà;5;;27;el Putxet i el Farró;5;Sarrià-Sant Gervasi;8023;BARCELONA;4,28337E+15;4,58472E+15;4,14108E+16;2,14256E+14
﻿99400320168;Parc de Can Rigal;14.06.13 13:08;23.11.22 12:39;700811;Av Albert Bastardas;23;;20;la Maternitat i Sant Ramon;4;Les Corts;8028;BARCELONA;4,25391E+15;4,58125E+15;4,13793E+15;2,10774E+16
﻿92086011938;Parc Turó del Putget;01.04.85 00:00;23.11.22 12:39;191408;C Manacor;9;;27;el Putxet i el Farró;5;Sarrià-Sant Gervasi;8023;BARCELONA;4,2833E+15;4,58438E+15;4,14077E+16;2,14252E+16
﻿92086011940;Parc de Monterols;01.04.85 00:00;23.11.22 12:39;223606;Carrer de Muntaner;450;;26;Sant Gervasi - Galvany;5;Sarrià-Sant Gervasi;8006;Barcelona;4,28094E+15;4,5837E+15;4,14016E+15;2,13977E+16
﻿99400228822;Jardins Interior d'Illa José Ignacio Urenda;03.07.09 11:09;23.11.22 12:39;250802;Pg Peira;20;;46;el Turó de la Peira;8;Nou Barris;8031;BARCELONA;4,30679E+14;4,58693E+14;4,1431E+16;2,17033E+16
﻿95125123610;Parc del Mirador del Poble-sec;05.05.95 00:00;23.11.22 12:39;218606;Passeig de Montjuïc;59;;11;el Poble-sec;3;Sants-Montjuïc;8038;Barcelona;4,30605E+16;4,58038E+14;4,13719E+15;2,17018E+16
﻿95125123707;Jardins de les Tres Xemeneies;05.05.95 00:00;23.11.22 12:39;198804;Av Paral.lel;49;;11;el Poble-sec;3;Sants-Montjuïc;8004;BARCELONA;4,30795E+15;4,58066E+15;4,13745E+16;2,17243E+15
﻿95125123707;Jardins de les Tres Xemeneies;05.05.95 00:00;23.11.22 12:39;198804;Av Paral.lel;49;;11;el Poble-sec;3;Sants-Montjuïc;8004;BARCELONA;4,30795E+15;4,58066E+15;4,13745E+16;2,17243E+15
﻿95125123838;Parc de la Font Florida;05.05.95 00:00;23.11.22 12:39;169409;G.V. Corts Catalanes;196;;14;la Font de la Guatlla;3;Sants-Montjuïc;8004;BARCELONA;4,28165E+16;4,58004E+15;4,13686E+16;2,14105E+14
﻿95125124016;Jardins de Baró de Viver;05.05.95 00:00;23.11.22 12:39;57609;Campins;1;;58;Baró de Viver;9;Sant Andreu;8030;BARCELONA;4,33068E+14;4,58872E+15;4,14473E+15;2,19871E+14
﻿95299121249;Jardins Walter Benjamin;26.10.95 00:00;23.11.22 12:39;700025;Pg Josep Carner;44;;11;el Poble-sec;3;Sants-Montjuïc;8038;BARCELONA;4,30997E+16;4,58048E+15;4,13729E+15;2,17486E+16
﻿1128115652;Jardins Interior d'Illa de Tres Tombs;08.05.01 00:00;23.11.22 12:39;192502;Carrer de Manso;24;28;10;Sant Antoni;2;Eixample;8015;Barcelona;4,29787E+13;4,58088E+14;4,13764E+15;2,16035E+15
﻿1128115652;Jardins Interior d'Illa de Tres Tombs;08.05.01 00:00;23.11.22 12:39;192502;Carrer de Manso;24;28;10;Sant Antoni;2;Eixample;8015;Barcelona;4,29787E+13;4,58088E+14;4,13764E+15;2,16035E+15
﻿1128115652;Jardins Interior d'Illa de Tres Tombs;08.05.01 00:00;23.11.22 12:39;192502;Carrer de Manso;24;28;10;Sant Antoni;2;Eixample;8015;Barcelona;4,29787E+13;4,58088E+14;4,13764E+15;2,16035E+15
﻿1183122853;Jardins Interior d'Illa de Safo;02.07.01 00:00;23.11.22 12:39;287201;Avinguda de Roma;22;;9;la Nova Esquerra de l'Eixample;2;Eixample;8015;Barcelona;4,28547E+16;4,58143E+16;4,13812E+15;2,14546E+16
﻿1183122853;Jardins Interior d'Illa de Safo;02.07.01 00:00;23.11.22 12:39;287201;Avinguda de Roma;22;;9;la Nova Esquerra de l'Eixample;2;Eixample;8015;Barcelona;4,28547E+16;4,58143E+16;4,13812E+15;2,14546E+16
﻿1003125537;Jardins de la Campana de La Maquinista;03.01.01 00:00;23.11.22 12:39;123306;Ferran Junoy;12;;59;el Bon Pastor;9;Sant Andreu;8030;BARCELONA;4,32826E+15;4,5877E+15;4,14381E+15;2,19594E+16
﻿1116122215;Parc del Mirador del Migdia;26.04.01 00:00;23.11.22 12:39;700690;Passeig del Migdia;156;174;11;el Poble-sec;3;Sants-Montjuïc;8038;Barcelona;4,29141E+13;4,57904E+14;4,13598E+16;2,15284E+15
﻿99400582806;Jardíns Interior d'Illa Assumpció Català;11.04.18 12:48;23.11.22 12:39;87009;Carrer del Comte Borrell;305;305;9;la Nova Esquerra de l'Eixample;2;Eixample;8029;Barcelona;4,28635E+13;4,58235E+14;4,13895E+15;2,1464E+16
﻿99400582806;Jardíns Interior d'Illa Assumpció Català;11.04.18 12:48;23.11.22 12:39;87009;Carrer del Comte Borrell;305;305;9;la Nova Esquerra de l'Eixample;2;Eixample;8029;Barcelona;4,28635E+13;4,58235E+14;4,13895E+15;2,1464E+16
﻿92321101155;Jardins de Sant Pau del Camp;16.11.92 00:00;23.11.22 12:39;308505;Sant Pau;99;;1;el Raval;1;Ciutat Vella;8001;BARCELONA;4,30537E+15;4,58089E+15;4,13765E+15;2,16931E+14
﻿99400575441;Jardins de Josep Trueta;24.01.18 16:32;23.11.22 12:39;186703;C Llull;251;;68;el Poblenou;10;Sant Martí;8005;BARCELONA;4,33601E+15;4,58389E+15;4,14038E+15;2,20563E+16
﻿95061113423;Jardins Vila Arrufat;02.03.95 00:00;23.11.22 12:39;139805;Ganduxer;91;;24;les Tres Torres;5;Sarrià-Sant Gervasi;8022;BARCELONA;4,27575E+15;4,58352E+15;4,14E+16;2,13358E+16
﻿99112132816;Jardins d'Antoni Puigvert;22.04.99 00:00;23.11.22 12:39;325005;C Sicília;287;;32;el Camp d'en Grassot i Gràcia Nova;6;Gràcia;8025;BARCELONA;4,30552E+16;4,58402E+15;4,14048E+15;2,16913E+16
﻿99400319598;Jardins d'Elvira Farreras Valentí;06.06.13 13:21;23.11.22 12:39;191408;C Manacor;17;;27;el Putxet i el Farró;5;Sarrià-Sant Gervasi;8023;BARCELONA;4,28373E+16;4,58435E+15;4,14075E+16;2,14303E+16
﻿99085102712;Parc de Diagonal Mar;26.03.99 00:00;23.11.22 12:39;186703;Carrer de Llull;356;360;69;Diagonal Mar i el Front Marítim del Poblenou;10;Sant Martí;8019;Barcelona;4,34158E+16;4,5844E+14;4,14085E+15;2,21223E+15
﻿99400209418;Jardins de Remedios Varo;02.07.08 10:16;23.11.22 12:39;95801;Carrer dels Pellaires;28;28;69;Diagonal Mar i el Front Marítim del Poblenou;10;Sant Martí;8019;Barcelona;4,33963E+15;4,58389E+15;4,14039E+15;2,20996E+15
﻿99400047563;Jardins de Lina Òdena;26.06.03 13:25;23.11.22 12:39;76807;Carrer de Sardenya;166;;5;el Fort Pienc;2;Eixample;8013;Barcelona;4,31717E+15;4,58305E+15;4,13961E+15;2,18318E+15
﻿99400047563;Jardins de Lina Òdena;26.06.03 13:25;23.11.22 12:39;76807;Carrer de Sardenya;166;;5;el Fort Pienc;2;Eixample;8013;Barcelona;4,31717E+15;4,58305E+15;4,13961E+15;2,18318E+15
﻿99400064283;Jardí Botànic Històric;27.10.03 14:34;23.11.22 12:39;217002;Avinguda dels Montanyans;30;;11;el Poble-sec;3;Sants-Montjuïc;8038;Barcelona;4,29105E+16;4,57985E+15;4,1367E+16;2,15231E+16
﻿99400388631;Jardins de Ramon Aramon i Serra;11.06.15 12:42;23.11.22 12:39;360301;C Vidriol;24;;15;Hostafrancs;3;Sants-Montjuïc;8014;BARCELONA;4,28638E+16;4,5807E+16;4,13747E+15;2,14663E+16
﻿99400064371;Jardins de Celestina Vigneaux;28.10.03 12:40;23.11.22 12:39;96000;C Cuyàs;21;;16;la Bordeta;3;Sants-Montjuïc;8014;BARCELONA;4,28179E+15;4,5802E+15;4,13701E+15;2,14121E+15
﻿99400062139;Jardins de Sofia Barat;03.10.03 13:58;23.11.22 12:39;145003;Carrer de Girona;64;;7;la Dreta de l'Eixample;2;Eixample;8009;Barcelona;4,30741E+16;4,58291E+15;4,13947E+16;2,17152E+16
﻿99400062139;Jardins de Sofia Barat;03.10.03 13:58;23.11.22 12:39;145003;Carrer de Girona;64;;7;la Dreta de l'Eixample;2;Eixample;8009;Barcelona;4,30741E+16;4,58291E+15;4,13947E+16;2,17152E+16
﻿99400062139;Jardins de Sofia Barat;03.10.03 13:58;23.11.22 12:39;145003;Carrer de Girona;64;;7;la Dreta de l'Eixample;2;Eixample;8009;Barcelona;4,30741E+16;4,58291E+15;4,13947E+16;2,17152E+16
﻿99361132137;Jardins de Gandhi;27.12.99 00:00;23.11.22 12:39;110009;Ramon Turró;267;;68;el Poblenou;10;Sant Martí;8005;BARCELONA;4,3375E+15;4,58394E+14;4,14043E+15;2,20741E+16
﻿99400076724;Jardins dels Drets Humans;15.03.04 12:30;23.11.22 12:39;137300;C Foneria;19;;13;la Marina de Port;3;Sants-Montjuïc;8038;BARCELONA;4,27793E+16;4,5792E+15;4,1361E+15;2,13671E+16
﻿99400078973;Jardí de les Escultures;05.04.04 11:03;23.11.22 12:39;198702;Av Francesc Ferrer Guàrdia;13;;11;el Poble-sec;3;Sants-Montjuïc;8038;BARCELONA;4,28641E+15;4,58009E+15;4,13691E+15;2,14674E+16
﻿99400072463;Jardins de Josep Munté;27.01.04 14:41;23.11.22 12:39;65200;C Cardenal Reig;35;;20;la Maternitat i Sant Ramon;4;Les Corts;8028;BARCELONA;4,2618E+15;4,58117E+15;4,13787E+15;2,11718E+15
﻿99188085228;Jardins de la Font dels Ocellets;07.07.99 00:00;23.11.22 12:39;29104;Jiménez i Iglesias;6;;21;Pedralbes;4;Les Corts;8034;BARCELONA;4,26641E+15;4,58233E+16;4,13891E+15;2,12255E+15
﻿99329085040;Jardins del Teatre Grec;25.11.99 00:00;23.11.22 12:39;316809;Pg Santa Madrona;38;;11;el Poble-sec;3;Sants-Montjuïc;8038;BARCELONA;4,29636E+16;4,58019E+14;4,13701E+15;2,15862E+16
﻿99335103526;Jardins Creu de Pedralbes;01.12.99 00:00;23.11.22 12:39;248108;Av Pearson;2;;21;Pedralbes;4;Les Corts;8034;BARCELONA;4,25729E+16;4,58291E+15;4,13943E+15;2,11158E+16
﻿99335120952;Jardins de la Reina Victòria Eugènia;01.12.99 00:00;23.11.22 12:39;169409;G.V. Corts Catalanes;632;;7;la Dreta de l'Eixample;2;Eixample;8007;BARCELONA;4,30438E+15;4,58226E+15;4,13889E+16;2,16798E+16
﻿97202125642;Jardins Pedro Muñoz Seca;21.07.97 00:00;23.11.22 12:39;25500;Arquitectura;1;;40;Montbau;7;Horta-Guinardó;8035;BARCELONA;4,28204E+15;4,5866E+15;4,14277E+15;2,14075E+15
﻿99400199129;Interior d'Illa Jardins de Maria Baldó;25.01.08 12:28;23.11.22 12:39;230805;Carrer de la Mare de Déu dels Reis;12;12;28;Vallcarca i els Penitents;6;Gràcia;8023;Barcelona;4,28623E+16;4,58499E+15;4,14133E+15;2,14594E+15
﻿99400199129;Interior d'Illa Jardins de Maria Baldó;25.01.08 12:28;23.11.22 12:39;230805;Carrer de la Mare de Déu dels Reis;12;12;28;Vallcarca i els Penitents;6;Gràcia;8023;Barcelona;4,28623E+16;4,58499E+15;4,14133E+15;2,14594E+15
﻿95151115237;Jardins de Marcos Redondo;31.05.95 00:00;23.11.22 12:39;51205;Buenos Aires;8;;8;l'Antiga Esquerra de l'Eixample;2;Eixample;8029;BARCELONA;4,28541E+15;4,58251E+15;4,1391E+15;2,14526E+16
﻿99112134143;Jardins Rosa Luxemburg;22.04.99 00:00;23.11.22 12:39;700827;Av Cardenal Vidal Barraquer;50;;41;la Vall d'Hebron;7;Horta-Guinardó;8032;BARCELONA;4,29215E+14;4,58709E+15;4,14323E+15;2,15278E+15
﻿96113124729;Parc del Port Olímpic;22.04.96 00:00;23.11.22 12:39;700654;Av Litoral;9994;;67;la Vila Olímpica del Poblenou;10;Sant Martí;8005;BARCELONA;4,33047E+16;4,58226E+15;4,1389E+16;2,19918E+16
﻿96113125023;Parc del Poblenou;22.04.96 00:00;23.11.22 12:39;700654;Av Litoral;59;;68;el Poblenou;10;Sant Martí;8005;BARCELONA;4,33749E+15;4,58316E+15;4,13973E+16;2,20747E+15
﻿99099133954;Jardins Vidriera;09.04.99 00:00;23.11.22 12:39;142504;Gaiarre;70;;16;la Bordeta;3;Sants-Montjuïc;8014;BARCELONA;4,28147E+16;4,58049E+14;4,13727E+15;2,14078E+16
﻿99106095835;Jardins de Massana;16.04.99 00:00;23.11.22 12:39;121402;Felip II;216;;62;el Congrés i els Indians;9;Sant Andreu;8027;BARCELONA;4,3136E+15;4,58649E+15;4,1427E+15;2,17853E+16
﻿99117134859;Jardins Interior d'Illa de Clotilde Cerdà;27.04.99 00:00;23.11.22 12:39;197302;Carrer de la Marina;197;;5;el Fort Pienc;2;Eixample;8013;Barcelona;4,3137E+15;4,58355E+15;4,14005E+14;2,17898E+15
﻿99117134859;Jardins Interior d'Illa de Clotilde Cerdà;27.04.99 00:00;23.11.22 12:39;197302;Carrer de la Marina;197;;5;el Fort Pienc;2;Eixample;8013;Barcelona;4,3137E+15;4,58355E+15;4,14005E+14;2,17898E+15
﻿99400063147;Jardins Interior d'Illa de Paula Montal;15.10.03 13:25;23.11.22 12:39;361406;Carrer de Viladomat;149;;9;la Nova Esquerra de l'Eixample;2;Eixample;8015;Barcelona;4,29302E+15;4,58148E+15;4,13817E+15;2,15448E+16
﻿99400063147;Jardins Interior d'Illa de Paula Montal;15.10.03 13:25;23.11.22 12:39;361406;Carrer de Viladomat;149;;9;la Nova Esquerra de l'Eixample;2;Eixample;8015;Barcelona;4,29302E+15;4,58148E+15;4,13817E+15;2,15448E+16
﻿99400063226;Interior d'Illa Placeta de Maria Luz Morales;16.10.03 09:58;23.11.22 12:39;51205;Carrer de Buenos Aires;35;;8;l'Antiga Esquerra de l'Eixample;2;Eixample;8036;Barcelona;4,28656E+16;4,58265E+15;4,13922E+15;2,14662E+16
﻿99400063226;Interior d'Illa Placeta de Maria Luz Morales;16.10.03 09:58;23.11.22 12:39;51205;Carrer de Buenos Aires;35;;8;l'Antiga Esquerra de l'Eixample;2;Eixample;8036;Barcelona;4,28656E+16;4,58265E+15;4,13922E+15;2,14662E+16
﻿99400214279;Jardins d'Interior d'Illa de Gaietà Renom;01.10.08 19:50;23.11.22 12:39;219100;C Montnegre;39;;19;les Corts;4;Les Corts;8029;BARCELONA;4,28049E+15;4,58221E+15;4,13882E+16;2,13941E+15
﻿99400214279;Jardins d'Interior d'Illa de Gaietà Renom;01.10.08 19:50;23.11.22 12:39;219100;C Montnegre;39;;19;les Corts;4;Les Corts;8029;BARCELONA;4,28049E+15;4,58221E+15;4,13882E+16;2,13941E+15
﻿97248100532;Parc de Josep Maria Serra Martí;05.09.97 00:00;23.11.22 12:39;700815;C Miguel Hernández;16;;49;Canyelles;8;Nou Barris;8042;BARCELONA;4,30327E+14;4,58827E+15;4,1443E+15;2,16595E+16
﻿1338142144;Jardins del Mirador de l'Alcalde;04.12.01 00:00;23.11.22 12:39;218504;Carretera de Montjuïc;41;51;11;el Poble-sec;3;Sants-Montjuïc;8038;Barcelona;4,30516E+15;4,57982E+15;4,13669E+16;2,16919E+15
﻿97210100620;Jardins del Doctor Roig i Raventós;29.07.97 00:00;23.11.22 12:39;139805;C Ganduxer;133;;24;les Tres Torres;5;Sarrià-Sant Gervasi;8022;BARCELONA;4,27359E+16;4,5839E+14;4,14034E+15;2,13096E+16
﻿98055091609;Jardins Manuel Blancafort;24.02.98 00:00;23.11.22 12:39;279600;Av República Argentina;150;;28;Vallcarca i els Penitents;6;Gràcia;8023;BARCELONA;4,28522E+15;4,58481E+15;4,14117E+14;2,14476E+15
﻿99298124307;Jardins Francesc Blanc;25.10.99 00:00;23.11.22 12:39;95608;Costa;70;;27;el Putxet i el Farró;5;Sarrià-Sant Gervasi;8023;BARCELONA;4,28508E+15;4,58468E+15;4,14105E+15;2,1446E+16
﻿98329120215;Jardí d'Elies Ortiz;25.11.98 00:00;23.11.22 12:39;369408;Pg Zona Franca;94;;13;la Marina de Port;3;Sants-Montjuïc;8038;BARCELONA;4,28328E+15;4,57869E+15;4,13565E+15;2,14316E+16
﻿92104081626;Jardins Rubió i Tuduri;13.04.92 00:00;23.11.22 12:39;328003;Sor Eulàlia d'Anzizu;67;;21;Pedralbes;4;Les Corts;8034;BARCELONA;4,2601E+15;4,58271E+15;4,13925E+16;2,11497E+16
﻿99299184508;Jardins Menendez y Pelayo;26.10.99 00:00;23.11.22 12:39;700658;Mossèn Batlle;1;;30;la Salut;6;Gràcia;8024;BARCELONA;4,29176E+15;4,58454E+16;4,14093E+14;2,15262E+16
﻿95114111740;Jardins Ca l'Alena;24.04.95 00:00;23.11.22 12:39;230601;C Mare de Déu de Port;172;;13;la Marina de Port;3;Sants-Montjuïc;8038;BARCELONA;4,28303E+16;4,57901E+15;4,13594E+15;2,14282E+16
﻿61171409;Zoo de Barcelona;01.03.00 00:00;23.11.22 12:39;246259;Parc Ciutadella;;;4;Sant Pere, Santa Caterina i la Ribera;1;Ciutat Vella;8003;BARCELONA;4,32041E+15;4,58194E+16;4,13862E+16;2,18719E+16
﻿61171409;Zoo de Barcelona;01.03.00 00:00;23.11.22 12:39;246259;Parc Ciutadella;;;4;Sant Pere, Santa Caterina i la Ribera;1;Ciutat Vella;8003;BARCELONA;4,32041E+15;4,58194E+16;4,13862E+16;2,18719E+16
﻿99400093976;Placeta Joan Brossa;06.08.04 14:20;23.11.22 12:39;289105;Carrer del Rosselló;191;;8;l'Antiga Esquerra de l'Eixample;2;Eixample;8036;Barcelona;4,29356E+16;4,58267E+15;4,13924E+16;2,15499E+15
﻿99400093976;Placeta Joan Brossa;06.08.04 14:20;23.11.22 12:39;289105;Carrer del Rosselló;191;;8;l'Antiga Esquerra de l'Eixample;2;Eixample;8036;Barcelona;4,29356E+16;4,58267E+15;4,13924E+16;2,15499E+15
﻿99400621049;Parc Bederrida - Zona d'Us Esportiu;27.02.19 00:00;23.11.22 12:39;247353;C Pascual i Vila;2;;20;la Maternitat i Sant Ramon;4;Les Corts;8028;BARCELONA;4,26269E+15;4,58169E+15;4,13834E+16;2,11819E+16
﻿99400621049;Parc Bederrida - Zona d'Us Esportiu;27.02.19 00:00;23.11.22 12:39;247353;C Pascual i Vila;2;;20;la Maternitat i Sant Ramon;4;Les Corts;8028;BARCELONA;4,26269E+15;4,58169E+15;4,13834E+16;2,11819E+16
﻿99400621049;Parc Bederrida - Zona d'Us Esportiu;27.02.19 00:00;23.11.22 12:39;247353;C Pascual i Vila;2;;20;la Maternitat i Sant Ramon;4;Les Corts;8028;BARCELONA;4,26269E+15;4,58169E+15;4,13834E+16;2,11819E+16
﻿99400621049;Parc Bederrida - Zona d'Us Esportiu;27.02.19 00:00;23.11.22 12:39;247353;C Pascual i Vila;2;;20;la Maternitat i Sant Ramon;4;Les Corts;8028;BARCELONA;4,26269E+15;4,58169E+15;4,13834E+16;2,11819E+16
﻿99400621049;Parc Bederrida - Zona d'Us Esportiu;27.02.19 00:00;23.11.22 12:39;247353;C Pascual i Vila;2;;20;la Maternitat i Sant Ramon;4;Les Corts;8028;BARCELONA;4,26269E+15;4,58169E+15;4,13834E+16;2,11819E+16
﻿99400621049;Parc Bederrida - Zona d'Us Esportiu;27.02.19 00:00;23.11.22 12:39;247353;C Pascual i Vila;2;;20;la Maternitat i Sant Ramon;4;Les Corts;8028;BARCELONA;4,26269E+15;4,58169E+15;4,13834E+16;2,11819E+16
﻿94165112247;Jardins de la Tamarita;14.06.94 00:00;23.11.22 12:39;302000;Pg Sant Gervasi;47;;25;Sant Gervasi - la Bonanova;5;Sarrià-Sant Gervasi;8022;BARCELONA;4,27733E+15;4,58473E+16;4,14109E+15;2,13533E+16
﻿157123029;Parc de La Maquinista de Sant Andreu;05.06.00 00:00;23.11.22 12:39;701292;Passeig de l'Havana;2;4;59;el Bon Pastor;9;Sant Andreu;8030;Barcelona;43283843;4587508957;4,14363E+16;2,1961E+15
﻿99400031860;Jardí dels Indians;13.01.03 11:49;23.11.22 12:39;168905;C Jordi de Sant Jordi;16;;62;el Congrés i els Indians;9;Sant Andreu;8027;BARCELONA;4,3174E+15;4,58594E+15;4,14221E+16;2,18313E+15
﻿96142123016;Jardins Interior d'Illa de Montserrat Roig;21.05.96 00:00;23.11.22 12:39;289105;Carrer del Rosselló;488;;6;la Sagrada Família;2;Eixample;8025;Barcelona;4,31334E+15;4,58447E+15;4,14088E+15;2,17844E+15
﻿96142123016;Jardins Interior d'Illa de Montserrat Roig;21.05.96 00:00;23.11.22 12:39;289105;Carrer del Rosselló;488;;6;la Sagrada Família;2;Eixample;8025;Barcelona;4,31334E+15;4,58447E+15;4,14088E+15;2,17844E+15
﻿92086029921;Parc de Can Sabaté;12.04.89 00:00;23.11.22 12:39;212406;C Mineria;16;;13;la Marina de Port;3;Sants-Montjuïc;8038;BARCELONA;4,27884E+15;4,57957E+15;4,13644E+15;2,13775E+15
﻿92086029921;Parc de Can Sabaté;12.04.89 00:00;23.11.22 12:39;212406;C Mineria;16;;13;la Marina de Port;3;Sants-Montjuïc;8038;BARCELONA;4,27884E+15;4,57957E+15;4,13644E+15;2,13775E+15
﻿92086030289;Parc de la Unitat;06.06.89 00:00;23.11.22 12:39;186204;C Lloret de Mar;81;;43;Horta;7;Horta-Guinardó;8031;BARCELONA;4,29641E+15;4,58753E+15;4,14363E+14;2,15782E+16
﻿92128095632;Jardins;07.05.92 00:00;23.11.22 12:39;352507;Pg Vall d'Hebron;171;;40;Montbau;7;Horta-Guinardó;8007;BARCELONA;4,28229E+16;4,58751E+15;4,14359E+15;2,14093E+15
﻿99400452842;Jardins de la Plaça Sagrada Família;13.06.16 12:39;23.11.22 12:39;292201;Pl Sagrada Família;1;;6;la Sagrada Família;2;Eixample;8013;BARCELONA;4,30858E+15;4,58371E+15;4,1402E+15;2,17283E+16
﻿99400452850;Jardins de la plaça de Sant Cristòfol;13.06.16 12:55;23.11.22 12:39;298810;Pl Sant Cristòfol;1;;13;la Marina de Port;3;Sants-Montjuïc;8038;BARCELONA;4,27779E+14;4,57895E+15;4,13588E+15;2,13657E+15
﻿99400457299;Jardins de la Rambla de Sants;22.08.16 13:55;23.11.22 12:39;17706;Carrer d'Antoni de Capmany;48;;18;Sants;3;Sants-Montjuïc;8014;Barcelona;4,27454E+16;4,58046E+15;4,13724E+16;2,1325E+16
﻿99400354178;Jardins d'Eduard Batiste Alentorn;29.09.14 10:10;23.11.22 12:39;97807;C Dante Alighieri;74;;37;el Carmel;7;Horta-Guinardó;8032;BARCELONA;4,296E+16;4,58658E+15;4,14277E+15;2,15745E+15
﻿99400354571;Jardins Plaça de Can Fabra;01.10.14 16:38;23.11.22 12:39;322007;Carrer del Segre;24;24;60;Sant Andreu;9;Sant Andreu;8030;Barcelona;4,32473E+16;4,58736E+14;4,14349E+15;2,19174E+15
﻿92086027651;La Font de la Budellera *Parc Metropolità;12.07.88 00:00;23.11.22 12:39;50304;Gabriel Ferrater;1;;22;Vallvidrera, el Tibidabo i les Planes;5;Sarrià-Sant Gervasi;8017;BARCELONA;4,25507E+16;4,58524E+15;4,14152E+16;2,10863E+16
﻿99400344486;Jardins de Salvador Escamilla;06.06.14 12:26;23.11.22 12:39;157002;C Hort de la Vila;40;;23;Sarrià;5;Sarrià-Sant Gervasi;8017;BARCELONA;4,26734E+16;4,58345E+15;4,13993E+15;2,12353E+16
﻿99400324023;Jardins d'Ada Byron;23.08.13 13:06;23.11.22 12:39;144601;Av Diagonal;175;;68;el Poblenou;10;Sant Martí;8018;BARCELONA;4,32656E+16;4,58402E+15;4,14049E+15;2,1943E+15
﻿92086030520;Jardins de la Torre de Les Aigües;07.08.89 00:00;23.11.22 12:39;176801;Carrer de Roger de Llúria;56;56;7;la Dreta de l'Eixample;2;Eixample;8009;Barcelona;4,30541E+13;4,58273E+14;4,13931E+15;2,16915E+15
﻿92086030520;Jardins de la Torre de Les Aigües;07.08.89 00:00;23.11.22 12:39;176801;Carrer de Roger de Llúria;56;56;7;la Dreta de l'Eixample;2;Eixample;8009;Barcelona;4,30541E+13;4,58273E+14;4,13931E+15;2,16915E+15
﻿99400228802;Jardins de William Shakespeare;03.07.09 09:30;23.11.22 12:39;106001;C Dulcet;22;;21;Pedralbes;4;Les Corts;8034;BARCELONA;4,26246E+15;4,58247E+15;4,13903E+15;2,11781E+16
﻿98294161742;Parc de Can Dragó;21.10.98 00:00;23.11.22 12:39;289852;C Rosselló i Porcel;7;;45;Porta;8;Nou Barris;8016;BARCELONA;4,31757E+14;4,58755E+15;4,14366E+15;2,18316E+15
﻿99036100235;Jardins del Baluard;05.02.99 00:00;23.11.22 12:39;140203;Avinguda de les Drassanes;1;;1;el Raval;1;Ciutat Vella;8001;Barcelona;4,311E+16;4,58082E+15;4,1376E+16;2,17606E+16
﻿99099132610;Jardins Sant Joan de Déu;09.04.99 00:00;23.11.22 12:39;89605;Carrer de Constança;18;18;19;les Corts;4;Les Corts;8029;Barcelona;427727416;4582261446;4,13886E+16;2,13556E+16
﻿99106121848;Jardins Can Farrero;16.04.99 00:00;23.11.22 12:39;369408;Pg Zona Franca;116;;13;la Marina de Port;3;Sants-Montjuïc;8038;BARCELONA;4,28182E+15;4,57881E+15;4,13576E+15;2,14141E+15
﻿99400063175;Jardins del Doctor Robert;15.10.03 14:25;23.11.22 12:39;335100;Pl Tetuan;9999;;7;la Dreta de l'Eixample;2;Eixample;8010;BARCELONA;4,31071E+16;4,58288E+15;4,13945E+16;2,17548E+16
﻿95062123700;Jardins Interiors d'Illa del Carlit;03.03.95 00:00;23.11.22 12:39;286504;Carrer de Roger de Flor;146;146;7;la Dreta de l'Eixample;2;Eixample;8013;Barcelona;4,3104E+13;4,58317E+15;4,13971E+14;2,17508E+15
﻿95062123700;Jardins Interiors d'Illa del Carlit;03.03.95 00:00;23.11.22 12:39;286504;Carrer de Roger de Flor;146;146;7;la Dreta de l'Eixample;2;Eixample;8013;Barcelona;4,3104E+13;4,58317E+15;4,13971E+14;2,17508E+15
﻿99400028465;Jardí Interior d'Illa del carrer Deià;29.11.02 12:29;23.11.22 12:39;100209;C Deià;42;;45;Porta;8;Nou Barris;8016;BARCELONA;4,30952E+16;4,58734E+15;4,14347E+15;2,17355E+15
﻿99400047543;Jardins de Juan Ponce;26.06.03 11:21;23.11.22 12:39;67001;Ctra Carmel;9999;;37;el Carmel;7;Horta-Guinardó;8024;BARCELONA;4,29517E+15;4,58552E+15;4,14181E+15;2,15658E+16
﻿99400047553;Jardins Interior d'Illa de Maria-Mercè Marçal;26.06.03 12:40;23.11.22 12:39;268003;Carrer de Provença;97;;9;la Nova Esquerra de l'Eixample;2;Eixample;8029;Barcelona;4,28898E+15;4,582E+15;4,13864E+16;2,14959E+16
﻿99400047553;Jardins Interior d'Illa de Maria-Mercè Marçal;26.06.03 12:40;23.11.22 12:39;268003;Carrer de Provença;97;;9;la Nova Esquerra de l'Eixample;2;Eixample;8029;Barcelona;4,28898E+15;4,582E+15;4,13864E+16;2,14959E+16
﻿99400035350;Jardins de Caba;07.03.03 14:21;23.11.22 12:39;52503;Pl Caba;1;;19;les Corts;4;Les Corts;8029;BARCELONA;4,28242E+15;4,58193E+15;4,13857E+16;2,14175E+15
﻿99085103903;Jardins Frederica Montseny;26.03.99 00:00;23.11.22 12:39;17557;Antic del Guinardó;12;;35;el Guinardó;7;Horta-Guinardó;8026;BARCELONA;4,31045E+16;4,5855E+15;4,14181E+16;2,17487E+15
﻿99400038912;Jardins Casa Sagnier;06.05.03 14:26;23.11.22 12:39;50202;Carrer de Brusi;51;;26;Sant Gervasi - Galvany;5;Sarrià-Sant Gervasi;8006;Barcelona;4,28492E+15;4,58373E+15;4,14019E+15;2,14453E+16
﻿96113133107;Jardins la Sedeta;22.04.96 00:00;23.11.22 12:39;325005;Sicília;321;;32;el Camp d'en Grassot i Gràcia Nova;6;Gràcia;8025;BARCELONA;4,30432E+16;4,58412E+15;4,14056E+15;2,16769E+15
﻿94129141313;Jardins Amargós;09.05.94 00:00;23.11.22 12:39;316809;Pg Santa Madrona;36;;11;el Poble-sec;3;Sants-Montjuïc;8038;BARCELONA;4,29622E+16;4,57997E+15;4,13681E+15;2,15848E+15
﻿93172145132;Jardí Petra Kelly;21.06.93 00:00;23.11.22 12:39;700701;C Doctor Font i Quer;10;;11;el Poble-sec;3;Sants-Montjuïc;8038;BARCELONA;4,29852E+15;4,57977E+15;4,13664E+16;2,16126E+16
﻿92086012239;Jardí Bacardí;15.04.85 00:00;23.11.22 12:39;343903;Trav Corts;122;;20;la Maternitat i Sant Ramon;4;Les Corts;8028;BARCELONA;4,26919E+16;4,58131E+15;4,138E+15;2,12601E+16
﻿92174135231;Parc La Font Castellana;22.06.92 00:00;23.11.22 12:39;135702;Pl Font Castellana;1;;34;Can Baró;7;Horta-Guinardó;8024;BARCELONA;4,3013E+16;4,58543E+15;4,14174E+16;2,16393E+16
﻿97248095629;Jardins de Joan Vinyoli;05.09.97 00:00;23.11.22 12:39;305201;Pg Sant Joan Bosco;39;;23;Sarrià;5;Sarrià-Sant Gervasi;8017;BARCELONA;4,27158E+15;4,5828E+15;4,13935E+16;2,12869E+15
﻿99400078392;Jardí del Reg;30.03.04 13:33;23.11.22 12:39;295709;C Sant Adrià;35;;60;Sant Andreu;9;Sant Andreu;8030;BARCELONA;4,32602E+16;4,58734E+15;4,14348E+15;2,19329E+16
﻿99400078454;Jardins de Josep Maria Sostres;30.03.04 17:07;23.11.22 12:39;322608;Carrer de la Selva de Mar;7;7;69;Diagonal Mar i el Front Marítim del Poblenou;10;Sant Martí;8019;Barcelona;4,3426E+15;4,58398E+15;4,14047E+14;2,2135E+15
﻿99400149674;Jardí d'Espargiment de Cendres;20.12.05 12:03;23.11.22 12:39;230601;C Mare de Déu de Port;56;;11;el Poble-sec;3;Sants-Montjuïc;8038;BARCELONA;4,28815E+15;4,57845E+14;4,13544E+15;2,14901E+15
﻿92086017160;Parc del Clot;10.11.86 00:00;23.11.22 12:39;113506;Escultors Claperós;55;;65;el Clot;10;Sant Martí;8018;BARCELONA;4,32301E+16;4,58442E+15;4,14085E+15;2,19002E+16
﻿99400240382;Jardins de Xavier Berenguel;01.02.10 13:56;23.11.22 12:39;196707;C Marià Aguiló;15;;68;el Poblenou;10;Sant Martí;8005;BARCELONA;4,33084E+15;4,58389E+15;4,14038E+15;2,19944E+15
﻿99400199863;Jardins de Teresa de Calcuta;08.02.08 10:56;23.11.22 12:39;17579;Camí Antic de València;63;;68;el Poblenou;10;Sant Martí;8005;BARCELONA;4,33272E+16;4,58417E+15;4,14063E+15;2,20166E+15
﻿92086029922;Parc de Sant Martí;12.04.89 00:00;23.11.22 12:39;208205;C Menorca;64;;72;Sant Martí de Provençals;10;Sant Martí;8020;BARCELONA;4,32984E+16;4,58568E+15;4,14199E+15;2,19805E+15
﻿99400646094;Pati Interior d'Illa d'Agustí Centelles;13.01.20 00:00;23.11.22 12:39;305100;Passeig de Sant Joan;108;;7;la Dreta de l'Eixample;2;Eixample;8037;Barcelona;4,30572E+16;4,58348E+13;4,13999E+15;2,16943E+16
﻿99400646094;Pati Interior d'Illa d'Agustí Centelles;13.01.20 00:00;23.11.22 12:39;305100;Passeig de Sant Joan;108;;7;la Dreta de l'Eixample;2;Eixample;8037;Barcelona;4,30572E+16;4,58348E+13;4,13999E+15;2,16943E+16
﻿92086028091;Parc de l'Estació del Nord;26.09.88 00:00;23.11.22 12:39;225500;Carrer de Nàpols;70;;5;el Fort Pienc;2;Eixample;8018;Barcelona;4,31779E+14;4,58278E+15;4,13937E+15;2,18396E+16
﻿92086028091;Parc de l'Estació del Nord;26.09.88 00:00;23.11.22 12:39;225500;Carrer de Nàpols;70;;5;el Fort Pienc;2;Eixample;8018;Barcelona;4,31779E+14;4,58278E+15;4,13937E+15;2,18396E+16
﻿98274131202;Jardins de Can Miralletes;01.10.98 00:00;23.11.22 12:39;297001;C Sant Antoni Maria Claret;310;;64;el Camp de l'Arpa del Clot;10;Sant Martí;8041;BARCELONA;4,31353E+15;4,58507E+15;4,14143E+15;2,1786E+16
﻿99400175567;Jardins de Tete Montoliu;15.01.07 13:25;23.11.22 12:39;323203;Carrer de Sepúlveda;90;90;10;Sant Antoni;2;Eixample;8015;Barcelona;4,29522E+13;4,58118E+16;4,1379E+15;2,15715E+16
﻿99400175567;Jardins de Tete Montoliu;15.01.07 13:25;23.11.22 12:39;323203;Carrer de Sepúlveda;90;90;10;Sant Antoni;2;Eixample;8015;Barcelona;4,29522E+13;4,58118E+16;4,1379E+15;2,15715E+16
﻿99400391938;Jardí dels Tarongers;21.07.15 11:01;23.11.22 12:39;273353;C Rábida;5;;21;Pedralbes;4;Les Corts;8034;BARCELONA;4,2537E+16;4,58314E+15;4,13963E+16;2,10726E+16
﻿99133092609;Jardins del Clot de la Mel;13.05.99 00:00;23.11.22 12:39;180401;C Lope de Vega;280;;65;el Clot;10;Sant Martí;8018;BARCELONA;4,32661E+15;4,58477E+15;4,14116E+15;2,19428E+16
﻿99400689064;Jardins de l'Alzina;31.03.22 10:10;23.11.22 12:38;109203;Carrer de l'Encarnació;13;15;31;la Vila de Gràcia;6;Gràcia;8012;Barcelona;429674209;4584122423;4,14056E+15;2,15862E+16
﻿1080145330;Jardí de Joan Llarch;21.03.01 00:00;23.11.22 12:39;207701;C Mendel;4;;23;Sarrià;5;Sarrià-Sant Gervasi;8034;BARCELONA;4,26432E+15;4,58327E+15;4,13976E+13;2,11994E+16
﻿99400609279;Jardins Sotstinent Navarro;25.09.18 14:41;23.11.22 12:39;328706;C Sots-tinent Navarro;12;;2;el Barri Gòtic;1;Ciutat Vella;8002;BARCELONA;4,31392E+15;4,5816E+15;4,1383E+15;2,17946E+15
﻿99400328900;Parc Torrent Maduixer;25.10.13 12:21;23.11.22 12:39;170000;C Josep Garí;7;;25;Sant Gervasi - la Bonanova;5;Sarrià-Sant Gervasi;8035;BARCELONA;4,27744E+16;4,58527E+15;4,14158E+16;2,13539E+16
﻿99400643473;Jardins del Doctor Pla i Armengol;09.12.19 12:03;23.11.22 12:39;365702;Av Mare de Déu de Montserrat;132;;35;el Guinardó;7;Horta-Guinardó;8041;BARCELONA;4,30629E+15;4,58527E+15;4,1416E+15;2,16992E+16
﻿99400178859;Àrea Panoràmica (Camí del Cel);02.03.07 00:00;23.11.22 12:39;335701;Pl Tibidabo;3;;22;Vallvidrera, el Tibidabo i les Planes;5;Sarrià-Sant Gervasi;8035;BARCELONA;4,26447E+15;4,58596E+15;4,14218E+15;2,1198E+16
﻿99400646020;Espai Lúdic-Esportiu de la Campa;10.01.20 12:42;23.11.22 12:39;700825;C Granja Vella;7;;41;la Vall d'Hebron;7;Horta-Guinardó;8035;BARCELONA;4,28774E+16;4,58647E+14;4,14266E+15;2,14758E+15
﻿99400646020;Espai Lúdic-Esportiu de la Campa;10.01.20 12:42;23.11.22 12:39;700825;C Granja Vella;7;;41;la Vall d'Hebron;7;Horta-Guinardó;8035;BARCELONA;4,28774E+16;4,58647E+14;4,14266E+15;2,14758E+15
﻿99400646020;Espai Lúdic-Esportiu de la Campa;10.01.20 12:42;23.11.22 12:39;700825;C Granja Vella;7;;41;la Vall d'Hebron;7;Horta-Guinardó;8035;BARCELONA;4,28774E+16;4,58647E+14;4,14266E+15;2,14758E+15
﻿99400646020;Espai Lúdic-Esportiu de la Campa;10.01.20 12:42;23.11.22 12:39;700825;C Granja Vella;7;;41;la Vall d'Hebron;7;Horta-Guinardó;8035;BARCELONA;4,28774E+16;4,58647E+14;4,14266E+15;2,14758E+15
﻿99400297201;Jardins Interior d'Illa de Beatriu Pinós-Milany;11.07.12 10:24;23.11.22 12:39;289105;Carrer del Rosselló;149;153;8;l'Antiga Esquerra de l'Eixample;2;Eixample;8036;Barcelona;4,29021E+13;4,58226E+15;4,13887E+15;2,15102E+15
﻿99400297201;Jardins Interior d'Illa de Beatriu Pinós-Milany;11.07.12 10:24;23.11.22 12:39;289105;Carrer del Rosselló;149;153;8;l'Antiga Esquerra de l'Eixample;2;Eixample;8036;Barcelona;4,29021E+13;4,58226E+15;4,13887E+15;2,15102E+15
﻿99400240383;Jardins de Simone de Beauvoir;01.02.10 14:06;23.11.22 12:39;42306;C Bilbao;30;;68;el Poblenou;10;Sant Martí;8005;BARCELONA;4,33539E+15;4,58373E+15;4,14024E+15;2,2049E+15
﻿99400452657;Jardins del Camp de Sarrià;09.06.16 14:02;23.11.22 12:39;701443;Ptge Ricard Zamora;5;;24;les Tres Torres;5;Sarrià-Sant Gervasi;8017;BARCELONA;4,27552E+16;4,58278E+15;4,13933E+15;2,13339E+16
﻿99400452847;Jardins de la Plaça Gaudi;13.06.16 12:50;23.11.22 12:39;142355;Pl Gaudí;1;;6;la Sagrada Família;2;Eixample;8013;BARCELONA;4,31087E+16;4,58405E+15;4,14051E+14;2,17553E+16
﻿99400594260;Jardins d'Elisava;08.06.18 14:26;23.11.22 12:39;29206;C Àvila;171;;66;el Parc i la Llacuna del Poblenou;10;Sant Martí;8018;BARCELONA;4,32187E+15;4,58369E+15;4,14019E+16;2,18874E+16
﻿99400385111;Jardí de Maria Teresa Vernet i Real;30.04.15 12:49;23.11.22 12:39;257200;C Pintor Tapiró;14;;20;la Maternitat i Sant Ramon;4;Les Corts;8028;BARCELONA;4,26331E+16;4,58106E+15;4,13777E+14;2,119E+15
﻿99400092552;Viver Municipal de Plantes Tres Pins;19.07.04 14:12;23.11.22 12:39;213307;Av Miramar;2;;11;el Poble-sec;3;Sants-Montjuïc;8038;BARCELONA;4,29831E+15;4,57998E+15;4,13683E+16;2,16098E+15
﻿99400036180;Jardins de Joan Brossa;21.03.03 11:14;23.11.22 12:39;97705;Plaça de Dante;9999;9999;11;el Poble-sec;3;Sants-Montjuïc;8038;Barcelona;430168733;4580020648;4,13687E+15;2,16501E+16
﻿99400514880;Jardí Interior de la Casa de la Misericòrdia;28.06.17 10:04;23.11.22 12:39;274006;Carrer de les Ramelleres;17;;1;el Raval;1;Ciutat Vella;8001;Barcelona;4,30489E+16;4,58175E+15;4,13843E+15;2,16864E+16
﻿99400514880;Jardí Interior de la Casa de la Misericòrdia;28.06.17 10:04;23.11.22 12:39;274006;Carrer de les Ramelleres;17;;1;el Raval;1;Ciutat Vella;8001;Barcelona;4,30489E+16;4,58175E+15;4,13843E+15;2,16864E+16
﻿99400265873;Jardins dels Setze Jutges;09.03.11 13:57;23.11.22 12:39;28000;Via Augusta;356;;23;Sarrià;5;Sarrià-Sant Gervasi;8017;BARCELONA;4,26661E+15;4,58369E+15;4,14014E+15;2,12263E+15
﻿99400194129;Interior d'Illa Jardins de Maria Matilde Almendros;30.10.07 12:54;23.11.22 12:39;54509;Carrer de Calàbria;90;92;10;Sant Antoni;2;Eixample;8015;Barcelona;4,29432E+13;4,58119E+14;4,13791E+15;2,15607E+16
﻿99400194129;Interior d'Illa Jardins de Maria Matilde Almendros;30.10.07 12:54;23.11.22 12:39;54509;Carrer de Calàbria;90;92;10;Sant Antoni;2;Eixample;8015;Barcelona;4,29432E+13;4,58119E+14;4,13791E+15;2,15607E+16
﻿99400605788;Parc Antoni Santiburcio;09.08.18 14:10;23.11.22 12:39;296202;C Gran de Sant Andreu;484;;60;Sant Andreu;9;Sant Andreu;8030;BARCELONA;4,32223E+15;4,58841E+15;4,14444E+16;2,18864E+15
﻿99400191003;Parc de la Primavera;26.09.07 11:08;23.11.22 12:39;86902;C Nou de la Rambla;203;;11;el Poble-sec;3;Sants-Montjuïc;8004;BARCELONA;4,30239E+15;4,58022E+15;4,13705E+16;2,16583E+16
﻿99400660920;Interior d'Illa Àntics Cinema Niza;09.12.20 11:16;23.11.22 12:39;292201;Plaça de la Sagrada Família;12;;6;la Sagrada Família;2;Eixample;8025;Barcelona;4,30844E+16;4,58386E+14;4,14033E+15;2,17265E+14
﻿99400660920;Interior d'Illa Àntics Cinema Niza;09.12.20 11:16;23.11.22 12:39;292201;Plaça de la Sagrada Família;12;;6;la Sagrada Família;2;Eixample;8025;Barcelona;4,30844E+16;4,58386E+14;4,14033E+15;2,17265E+14
﻿99400661060;Interior d'Illa Àntic Cinema Novedades;10.12.20 16:42;23.11.22 12:39;71600;Carrer de Casp;1;1;7;la Dreta de l'Eixample;2;Eixample;8010;Barcelona;4,30607E+13;4,58227E+15;4,1389E+15;2,17E+16
﻿99400661060;Interior d'Illa Àntic Cinema Novedades;10.12.20 16:42;23.11.22 12:39;71600;Carrer de Casp;1;1;7;la Dreta de l'Eixample;2;Eixample;8010;Barcelona;4,30607E+13;4,58227E+15;4,1389E+15;2,17E+16
﻿99400679280;Jardins Interior d'Illa de l’antic Cinema Urgell;11.11.21 14:37;23.11.22 12:39;349706;Carrer del Comte d'Urgell;31;31;10;Sant Antoni;2;Eixample;8011;Barcelona;4,29792E+13;4,58135E+14;4,13806E+15;2,16036E+15
﻿99400679280;Jardins Interior d'Illa de l’antic Cinema Urgell;11.11.21 14:37;23.11.22 12:39;349706;Carrer del Comte d'Urgell;31;31;10;Sant Antoni;2;Eixample;8011;Barcelona;4,29792E+13;4,58135E+14;4,13806E+15;2,16036E+15
﻿99400365326;Jardins Interiors d'Illa Anaïs Napoleon;10.12.14 11:24;23.11.22 12:39;197302;Carrer de la Marina;155;;5;el Fort Pienc;2;Eixample;8013;Barcelona;4,31605E+15;4,58331E+15;4,13984E+16;2,18181E+16
﻿99400365326;Jardins Interiors d'Illa Anaïs Napoleon;10.12.14 11:24;23.11.22 12:39;197302;Carrer de la Marina;155;;5;el Fort Pienc;2;Eixample;8013;Barcelona;4,31605E+15;4,58331E+15;4,13984E+16;2,18181E+16
﻿99400354567;Jardins de Jaume Vicens Vives;01.10.14 16:24;23.11.22 12:39;144601;Av Diagonal;635;;20;la Maternitat i Sant Ramon;4;Les Corts;8028;BARCELONA;4,26756E+16;4,5821E+15;4,13871E+16;2,12396E+15
﻿99400686182;Parc de l'Aqüeducte de Ciutat Meridiana;17.02.22 11:29;23.11.22 12:39;275600;Avinguda dels Rasos de Peguera;51;55;55;Ciutat Meridiana;8;Nou Barris;8033;Barcelona;431104474;459009774;4,14595E+15;2,17505E+16
﻿99400263163;Jardins Interior d'Illa de Maria Manonelles;18.01.11 14:12;23.11.22 12:39;54509;Carrer de Calàbria;38;;10;Sant Antoni;2;Eixample;8015;Barcelona;4,29697E+16;4,58091E+15;4,13767E+15;2,15927E+16
﻿99400263163;Jardins Interior d'Illa de Maria Manonelles;18.01.11 14:12;23.11.22 12:39;54509;Carrer de Calàbria;38;;10;Sant Antoni;2;Eixample;8015;Barcelona;4,29697E+16;4,58091E+15;4,13767E+15;2,15927E+16
﻿99400344074;Jardins del Doctor Duran i Reynals;02.06.14 14:35;23.11.22 12:39;70607;C Casanova;145;;8;l'Antiga Esquerra de l'Eixample;2;Eixample;8036;BARCELONA;4,29185E+15;4,58241E+15;4,13901E+15;2,15297E+16