play_area_id;address;district_name;district_code;neighbourhood_name;neighbourhood_code;X_ETRS89;Y_ETRS89;longitude;latitude
48422;Ptge Pintor Tapiró, 7;Les Corts;4;la Maternitat i Sant Ramon;20;426318245;4581112102;21188442;413781579
49782;Jard Can Senillosa, 0;Sarria-Sant Gervasi;5;Sarrià;23;426758862;4582958822;21238896;413948308
54275;C\ Gòlgota, 84003;Gracia;6;Vallcarca i els Penitents;28;428175850;4585721672;21405099;414198424
61431;C\ Fastenrath, 89;Horta-Guinardó;7;la Teixonera;38;428688004;4586015992;21466033;414225389
85638;Via Júlia, 154;Nou Barris;8;Verdun;51;431417930;4588454456;21789926;414447389
26337;Pg Fabra i Puig, 9411;Nou Barris;8;la Guineueta;48;430345754;4587775455;21662369;414385311
836481;Pl Hilari Salvadó, 1;Ciutat Vella;1;la Barceloneta;3;432402538;4581174786;21915916;413792566
42784;C\ València, 685;Sant Martí;10;el Clot;65;432425632;4585051443;21914352;414141745
662687;G.V. Corts Catalanes, 923;Sant Martí;10;el Clot;65;432714497;4584566720;21949452;414098330
44049;G.V. Corts Catalanes, 923;Sant Martí;10;el Clot;65;432593825;4584457160;21935137;414088361
57405;Pl Zurbarán, 4;Horta-Guinardó;7;Montbau;40;428356496;4586852652;21425374;414300448
54799;Jard Mestre Balcells, 0;Gracia;6;la Vila de Gràcia;31;429303913;4584380850;21541642;414078662
54482;C\ Mare de Déu dels Àngels, 32;Gracia;6;el Coll;29;428752726;4585866222;21473954;414211957
54359;Pl John Lennon, 0;Gracia;6;la Vila de Gràcia;31;429905274;4583807306;21614248;414027532
54286;C\ Alzina, 6;Gracia;6;la Vila de Gràcia;31;429541194;4584201862;21570237;414062750
54265;C\ Jaume Cascalls, 20;Gracia;6;el Coll;29;429008815;4585514922;21505009;414180543
573605;C\ Perea, 2;Horta-Guinardó;7;Sant Genís dels Agudells;39;428268516;4586207412;21415611;414242256
86623;C\ Garigliano, 25;Nou Barris;8;les Roquetes;50;430982842;4588616713;21737660;414461630
931703;Pg Bosc de Roquetes, 25;Nou Barris;8;les Roquetes;50;431433524;4588843347;21791351;414482428
584431;Pg Bosc de Roquetes, 25;Nou Barris;8;les Roquetes;50;431214235;4588833305;21765112;414481336
587433;Jard Elena Maseras, 0;Eixample;2;l'Antiga Esquerra de l'Eixample;8;429183388;4582463739;21529466;413905889
49474;Via Augusta, 304;Sarria-Sant Gervasi;5;les Tres Torres;24;427078115;4583302563;21276667;413979557
51402;C\ Can Caralleu, 6;Sarria-Sant Gervasi;5;Sarrià;23;425969179;4583784475;21143436;414021948
49389;Jard Els Setze Jutges, 0;Sarria-Sant Gervasi;5;Sarrià;23;426697836;4583647829;21230763;414010308
48649;Av Esplugues, 2;Les Corts;4;Pedralbes;21;425150361;4581731414;21048027;413836280
48650;Av Esplugues, 2;Les Corts;4;Pedralbes;21;425119075;4581787924;21044215;413841341
48648;Av Esplugues, 2;Les Corts;4;Pedralbes;21;425089157;4581684478;21040766;413831996
692151;Av Vallvidrera, 76;Sarria-Sant Gervasi;5;Sarrià;23;425635224;4584545052;21102554;414090141
48468;Pl Comas, 9999;Les Corts;4;les Corts;19;427248785;4581903620;21298762;413853715
48444;C\ Fígols, 5;Les Corts;4;les Corts;19;427227061;4581512728;21296634;413818489
48458;C\ Nicaragua, 101;Les Corts;4;les Corts;19;427961712;4581906883;21384017;413854650
48333;C\ Gelabert, 8;Les Corts;4;les Corts;19;428270297;4582160235;21420620;413877745
48298;C\ Ventura Rodríguez, 3632;Horta-Guinardó;7;la Vall d'Hebron;41;428974596;4587086538;21499068;414322062
48297;C\ Ventura Rodríguez, 3632;Horta-Guinardó;7;la Vall d'Hebron;41;428976022;4587097713;21499226;414323070
763115;C\ Rubió i Balaguer, 69;Horta-Guinardó;7;la Vall d'Hebron;41;428777434;4587099911;21475457;414323092
48313;C\ Rubió i Balaguer, 69;Horta-Guinardó;7;la Vall d'Hebron;41;428889882;4587063419;21488957;414319905
48254;Pl Clota, 5;Horta-Guinardó;7;la Clota;42;429049619;4586442335;21508803;414264108
47604;Jard Arboreda, 0;Sants-Montjuïc;3;la Marina de Port;13;427854431;4578907525;21374756;413584413
47472;C\ Arnes, 37;Sants-Montjuïc;3;la Marina del Prat Vermell;12;428144902;4578177696;21410343;413518940
47485;Pg Exposició, 611;Sants-Montjuïc;3;el Poble-sec;11;429933712;4580098059;21621940;413693477
46913;Jard Cal Sèbio, 0;Sants-Montjuïc;3;la Marina de Port;13;428309906;4578832662;21429292;413578077
46914;Jard Cal Sèbio, 0;Sants-Montjuïc;3;la Marina de Port;13;428317105;4578807825;21430182;413575847
46200;Pl Tetuan, 9999;Eixample;2;la Dreta de l'Eixample;7;431045959;4582925797;21751704;413949124
46163;Pl Gaudí, 70210;Eixample;2;la Sagrada Família;6;431121846;4583992453;21759567;414045259
45920;Jard Can Bruixa, 0;Les Corts;4;les Corts;19;427313970;4581714181;21306785;413836712
45869;C\ Breda, 10;Les Corts;4;les Corts;19;428239157;4581945478;21417151;413858374
45868;C\ Breda, 10;Les Corts;4;les Corts;19;428265957;4581942723;21420359;413858150
45808;Pl Centre, 9998;Les Corts;4;les Corts;19;427724960;4581523311;21356161;413819891
45494;C\ Mare de Déu dels Reis, 12;Gracia;6;Vallcarca i els Penitents;28;428617246;4584970192;21458800;414131135
45467;C\ Juan de Mena, 15;Horta-Guinardó;7;la Vall d'Hebron;41;428704407;4586955915;21466887;414310058
45466;C\ Juan de Mena, 15;Horta-Guinardó;7;la Vall d'Hebron;41;428692031;4586915412;21465454;414306399
45408;Pl Josep Pallach, 9999;Horta-Guinardó;7;la Vall d'Hebron;41;428997233;4587223864;21501616;414334451
45407;Pl Josep Pallach, 9999;Horta-Guinardó;7;la Vall d'Hebron;41;429053191;4587250800;21508281;414336926
672646;Pl Joaquim Folguera, 9999;Sarria-Sant Gervasi;5;Sant Gervasi - la Bonanova;25;428035745;4584135211;21390222;414055413
673602;Jard Ca l'Alena, 0;Sants-Montjuïc;3;la Marina de Port;13;428356956;4579013325;21434703;413594391
86301;C\ Port de la Selva, 0;Nou Barris;8;les Roquetes;50;431499476;4588709949;21799397;414470470
672606;Pl Havaneres, 0;Sant Andreu;9;el Congrés i els Indians;62;431714022;4585853783;21828306;414213408
44856;C\ Felip II, 9999;Sant Andreu;9;el Congrés i els Indians;62;431785955;4586046325;21836696;414230811
44829;Pl Palmeres, 26;Sant Andreu;9;Sant Andreu;60;432007856;4587123611;21862037;414328026
44616;C\ Sant Adrià, 196;Sant Andreu;9;el Bon Pastor;59;433862551;4587485182;22083609;414362141
44477;Pl Doctor Modrego, 5;Sant Andreu;9;el Congrés i els Indians;62;431485020;4586283293;21800418;414251898
661499;Pl Josep Andreu i Abelló, 8;Sant Andreu;9;la Trinitat Vella;57;432351850;4588850388;21901273;414483841
44515;Pl Josep Andreu i Abelló, 8;Sant Andreu;9;la Trinitat Vella;57;432354430;4588838886;21901594;414482808
668269;Pl Maragall, 9999;Horta-Guinardó;7;el Guinardó;35;431509932;4585717966;21804039;414201002
44314;Parc La Maquinista de St Andreu, 0;Sant Andreu;9;el Bon Pastor;59;432804441;4587607219;21956834;414372254
43791;Jard Remedios Varó, 0;Sant Martí;10;Diagonal Mar i el Front Marítim del Poblenou;69;433935032;4583862834;22096241;414035946
43307;C\ Messina, 20;Sant Martí;10;el Besòs i el Maresme;70;434389921;4585533437;22148845;414186785
43533;Jard Gandhi, 0;Sant Martí;10;el Poblenou;68;433748824;4583889363;22073936;414038182
43489;Pl Germans Serra, 1;Sant Martí;10;el Besòs i el Maresme;70;434211575;4585338574;22127718;414169088
43385;Pl Victòria Kent, 1;Sant Martí;10;Sant Martí de Provençals;72;432736871;4584991625;21951656;414136619
56164;Pl Lesseps, 40922;Gracia;6;Vallcarca i els Penitents;28;428917552;4584350081;21495458;414075550
741430;Pl Lesseps, 40922;Gracia;6;la Vila de Gràcia;31;429022645;4584313912;21508072;414072386
790524;Rbla Prim, 195;Sant Martí;10;la Verneda i la Pau;73;433337336;4586152693;22022218;414241693
790525;Rbla Prim, 195;Sant Martí;10;la Verneda i la Pau;73;433317421;4586183615;22019801;414244462
43114;C\ Llull, 404;Sant Martí;10;el Besòs i el Maresme;70;434587727;4584809316;22173297;414121727
43051;Jard Joana Tomàs, 0;Sant Martí;10;el Clot;65;432158045;4584826663;21882589;414121275
43064;Rbla Prim, 124;Sant Martí;10;el Besòs i el Maresme;70;434039902;4585436660;22107070;414177782
43063;Rbla Prim, 124;Sant Martí;10;el Besòs i el Maresme;70;434069362;4585405289;22110629;414174981
661482;Ctra B-10 (Llobregat), 74;Sant Martí;10;el Poblenou;68;433700689;4583173424;22068962;413973659
43080;Ctra B-10 (Llobregat), 74;Sant Martí;10;el Poblenou;68;433668007;4583122433;22065109;413969040
42888;Pl Porxos, 9999;Sant Martí;10;Sant Martí de Provençals;72;433043455;4585095859;21988221;414146263
42832;C\ Felip de Malla, 17;Sant Martí;10;el Besòs i el Maresme;70;434560688;4585327654;22169501;414168390
696080;Jard Josep Trueta, 0;Sant Martí;10;el Poblenou;68;433547635;4583907982;22049849;414039693
661222;Pl Sagrada Família, 9999;Eixample;2;la Sagrada Família;6;430873132;4583835580;21729994;414030916
661224;Pl Sagrada Família, 9999;Eixample;2;la Sagrada Família;6;430893102;4583833235;21732385;414030722
42687;Rbla Prim, 210;Sant Martí;10;la Verneda i la Pau;73;433513475;4585973419;22043493;414225693
42690;Rbla Prim, 210;Sant Martí;10;la Verneda i la Pau;73;433407696;4586081856;22030716;414235372
42688;Rbla Prim, 210;Sant Martí;10;la Verneda i la Pau;73;433496577;4586004574;22041436;414228485
42689;Rbla Prim, 210;Sant Martí;10;la Verneda i la Pau;73;433439820;4586062550;22034581;414233659
42470;C\ Llacuna, 176;Sant Martí;10;el Clot;65;432291105;4584295988;21899102;414073591
661323;C\ Llacuna, 176;Sant Martí;10;el Clot;65;432388939;4584481081;21910599;414090344
42469;C\ Llacuna, 176;Sant Martí;10;el Clot;65;432320930;4584283840;21902683;414072522
661324;C\ Llacuna, 176;Sant Martí;10;el Clot;65;432289099;4584334347;21898819;414077044
42472;C\ Llacuna, 176;Sant Martí;10;el Clot;65;432374653;4584494066;21908875;414091501
660193;Pl Mig de Can Clos, 6;Sants-Montjuïc;3;la Marina de Port;13;428633265;4579164631;21467556;413608264
42400;C\ Paraguai, 44;Sant Martí;10;Provençals del Poblenou;71;433899788;4585447915;22090293;414178681
43122;Pl Diagonal Mar, 5;Sant Martí;10;el Besòs i el Maresme;70;434306965;4584696739;22139828;414111358
44573;Pl Modernitat, 3;Sant Andreu;9;Sant Andreu;60;432544074;4588639543;21924519;414465013
69462;Pl Farga, 6;Sants-Montjuïc;3;la Bordeta;16;428002532;4580474715;21390600;413725697
69463;Pl Farga, 6;Sants-Montjuïc;3;la Bordeta;16;428005112;4580463243;21390922;413724666
47509;C\ Gernika, 11;Sants-Montjuïc;3;la Marina de Port;13;427707340;4579100154;21356943;413601631
44257;C\ Cinca, 100;Sant Andreu;9;Sant Andreu;60;432545463;4588075152;21925315;414414182
53590;Parc Poeta Eduard Marquina, 42230;Sarria-Sant Gervasi;5;Sant Gervasi - Galvany;26;428178848;4582858476;21408856;413940551
53589;Parc Poeta Eduard Marquina, 42230;Sarria-Sant Gervasi;5;Sant Gervasi - Galvany;26;428164218;4582874932;21407086;413942020
42288;C\ Còrsega, 674;Sant Martí;10;el Camp de l'Arpa del Clot;64;431490648;4584821256;21802747;414120222
42287;C\ Còrsega, 674;Sant Martí;10;el Camp de l'Arpa del Clot;64;431473444;4584817954;21800693;414119910
42087;C\ Allada-Vermell, 12;Ciutat Vella;1;Sant Pere, Santa Caterina i la Ribera;4;431493719;4582049599;21806251;413870590
42051;Parc Barceloneta, 0;Ciutat Vella;1;la Barceloneta;3;432557916;4581559128;21934069;413827314
42052;Parc Barceloneta, 0;Ciutat Vella;1;la Barceloneta;3;432568749;4581545838;21935379;413826126
655354;C\ Josep Pla, 51;Sant Martí;10;Diagonal Mar i el Front Marítim del Poblenou;69;434108055;4584665075;22116065;414108343
932654;Av Drassanes, 170;Ciutat Vella;1;el Raval;1;430857752;4580961749;21731434;413772066
932653;Av Drassanes, 170;Ciutat Vella;1;el Raval;1;430850176;4580951804;21730540;413771164
41894;Pla Palau, 9999;Ciutat Vella;1;Sant Pere, Santa Caterina i la Ribera;4;431689792;4581582880;21830226;413828720
41893;Pla Palau, 9999;Ciutat Vella;1;Sant Pere, Santa Caterina i la Ribera;4;431706059;4581613133;21832137;413831459
823443;Pl Llagut, 1;Ciutat Vella;1;la Barceloneta;3;432253502;4581417283;21897824;413814282
41849;Pl Llagut, 1;Ciutat Vella;1;la Barceloneta;3;432255629;4581396607;21898101;413812422
41850;Pl Llagut, 1;Ciutat Vella;1;la Barceloneta;3;432239401;4581447889;21896103;413817027
827392;Jard Camp de Sarrià, 0;Sarria-Sant Gervasi;5;les Tres Torres;24;427543115;4582780513;21332912;413932959
161095;C\ Mercaders, 25;Ciutat Vella;1;Sant Pere, Santa Caterina i la Ribera;4;431240768;4581860837;21776214;413853373
161145;Pl Cardenal Cicognani, 41534;Sant Andreu;9;el Congrés i els Indians;62;431739233;4586254564;21830870;414249526
161284;Pl Espronceda, 0;Sant Martí;10;Provençals del Poblenou;71;432936229;4584592954;21975950;414100878
161290;Rbla Prim, 121;Sant Martí;10;el Besòs i el Maresme;70;433931432;4585566554;22093950;414189392
162840;C\ Cantàbria, 28;Sant Martí;10;la Verneda i la Pau;73;433261138;4585716875;22013581;414202377
162861;Gru Vivendes la Pau, 48;Sant Martí;10;la Verneda i la Pau;73;433767426;4585854648;22074010;414215205
162860;Gru Vivendes la Pau, 48;Sant Martí;10;la Verneda i la Pau;73;433742448;4585834395;22071044;414213360
27178;Pg Valldaura, 158;Nou Barris;8;la Guineueta;48;430433312;4587768632;21672857;414384772
660965;Av Estadi, 40;Sants-Montjuïc;3;el Poble-sec;11;428948806;4579776189;21504561;413663624
74373;Jard Elisard Sala, 0;Sants-Montjuïc;3;Sants;18;427969556;4581562404;21385364;413823632
95686;Pl Juliana Morell, 6;Sant Martí;10;el Besòs i el Maresme;70;434255742;4585565497;22132756;414189563
95687;Pl Juliana Morell, 6;Sant Martí;10;el Besòs i el Maresme;70;434280950;4585549782;22135789;414188168
42018;C\ Metges, 5;Ciutat Vella;1;Sant Pere, Santa Caterina i la Ribera;4;431361002;4582159769;21790254;413880399
42017;C\ Metges, 5;Ciutat Vella;1;Sant Pere, Santa Caterina i la Ribera;4;431375399;4582138683;21792000;413878512
204394;C\ Capellans, 18;Ciutat Vella;1;el Barri Gòtic;2;430982103;4581870089;21745269;413853985
206620;Jard Enriqueta Sèculi, 0;Eixample;2;la Sagrada Família;6;430869951;4583990234;21729437;414044843
208085;Pl Can Rosés, 9999;Les Corts;4;les Corts;19;427679226;4582165776;21349925;413877714
208100;Pl Cirici Pellicer, 0;Sarria-Sant Gervasi;5;Sarrià;23;426500923;4582817376;21208217;413935333
208126;C\ Elisa, 2;Sarria-Sant Gervasi;5;el Putxet i el Farró;27;428353387;4584112423;21428248;414053645
208143;Pl Ventura Gassol, 1512;Sarria-Sant Gervasi;5;el Putxet i el Farró;27;428775642;4584275530;21478569;414068710
209071;C\ Farigola, 67;Gracia;6;Vallcarca i els Penitents;28;428788177;4585145706;21479044;414147095
210540;Jard Amistat, 0;Horta-Guinardó;7;Horta;43;429324520;4587198024;21540815;414332412
225674;Pl Joan Cornudella, 9999;Horta-Guinardó;7;la Vall d'Hebron;41;428880581;4587301524;21487564;414341342
44497;C\ Espiga, 3;Sant Andreu;9;el Congrés i els Indians;62;431525782;4586392307;21805172;414261751
965456;C\ Pedraforca, 8;Nou Barris;8;Ciutat Meridiana;55;431153329;4590271199;21756181;414610789
45620;Jard Moragas, 41770;Sarria-Sant Gervasi;5;Sant Gervasi - Galvany;26;428548711;4583373440;21452486;413987261
45946;Jard Josep Munté, 0;Les Corts;4;la Maternitat i Sant Ramon;20;426159297;4581172365;21169362;413786861
46568;E.M. Tetuan, 50210;Eixample;2;el Fort Pienc;5;431473337;4583595589;21802064;414009815
47191;C\ Noguera Pallaresa, 2523;Sants-Montjuïc;3;la Bordeta;16;428167291;4580494853;21410276;413727658
254090;C\ Fenals, 18;Nou Barris;8;la Trinitat Nova;53;431608188;4588780264;21812331;414476896
51366;Rda General Mitre, 265;Sarria-Sant Gervasi;5;el Putxet i el Farró;27;428866839;4584228131;21489534;414064522
337209;Pl Baró de Viver, 7;Sant Andreu;9;Baró de Viver;58;433144312;4588770791;21996224;414477336
337208;Pl Baró de Viver, 7;Sant Andreu;9;Baró de Viver;58;433174745;4588784324;21999852;414478581
337238;C\ Can Ros, 13;Sant Andreu;9;el Congrés i els Indians;62;431630770;4586518771;21817592;414273230
635146;C\ Font del Remei, 2;Gracia;6;el Coll;29;428951037;4585485005;21498131;414177798
691824;Jard Clara Campoamor, 0;Les Corts;4;les Corts;19;427231541;4582147949;21296406;413875705
956389;Pl Sardana, 343;Sants-Montjuïc;3;el Poble-sec;11;430344326;4580017373;21671126;413686566
45947;Pl Sardana, 343;Sants-Montjuïc;3;el Poble-sec;11;430568515;4580083518;21697854;413692718
45953;Pl Sardana, 343;Sants-Montjuïc;3;el Poble-sec;11;430256082;4579973824;21660626;413682568
45950;Pl Sardana, 343;Sants-Montjuïc;3;el Poble-sec;11;430373315;4580087074;21674512;413692869
337224;Pl Primavera, 13;Sant Andreu;9;Sant Andreu;60;432185525;4588547339;21881702;414456407
777217;T Perales, 41180;Sants-Montjuïc;3;Sants;18;427465289;4581233135;21325456;413793523
828891;C\ Filipines, 1664;Sant Andreu;9;la Sagrera;61;432117090;4586082925;21876279;414234388
95951;C\ Selva de Mar, 9;Sant Martí;10;Diagonal Mar i el Front Marítim del Poblenou;69;434115483;4584094465;22117575;414056956
48532;Jard Infantes, 0;Les Corts;4;les Corts;19;427597200;4581863401;21340477;413850407
51434;Parc Monterols, 0;Sarria-Sant Gervasi;5;Sant Gervasi - Galvany;26;428166130;4583728992;21406302;414018943
51433;Parc Monterols, 0;Sarria-Sant Gervasi;5;Sant Gervasi - Galvany;26;428205304;4583726402;21410991;414018745
907837;C\ Olot, 1;Gracia;6;la Salut;30;429326221;4585052890;21543526;414139210
54773;C\ Olot, 1;Gracia;6;la Salut;30;428985540;4584970814;21502863;414131517
665510;C\ Olot, 1;Gracia;6;la Salut;30;429354525;4585096296;21546862;414143144
54774;C\ Olot, 1;Gracia;6;la Salut;30;429328383;4585018515;21543825;414136116
61214;Pla Montbau, 4060;Horta-Guinardó;7;Montbau;40;428468478;4586896237;21438723;414304473
85552;C\ Guineueta, 20;Nou Barris;8;la Guineueta;48;430397303;4587925459;21668366;414398866
85553;C\ Guineueta, 20;Nou Barris;8;la Guineueta;48;430533098;4587938512;21684605;414400159
30655;C\ Calàbria, 12;Eixample;2;Sant Antoni;10;429805798;4580846186;21605780;413760747
30656;C\ Calàbria, 12;Eixample;2;Sant Antoni;10;429817036;4580838217;21607133;413760039
41911;Pl Caramelles, 9999;Ciutat Vella;1;el Raval;1;430418760;4581521753;21678299;413822126
42439;C\ Camp Arriassa, 86;Sant Martí;10;la Verneda i la Pau;73;433355303;4586297208;22024209;414254724
42440;C\ Camp Arriassa, 86;Sant Martí;10;la Verneda i la Pau;73;433404798;4586207649;22030230;414246699
42441;C\ Camp Arriassa, 86;Sant Martí;10;la Verneda i la Pau;73;433411416;4586199452;22031031;414245966
42721;C\ Alcalá de Guadaira, 8;Sant Martí;10;Sant Martí de Provençals;72;432886902;4585382308;21969173;414171932
747821;C\ Ribes, 15;Eixample;2;el Fort Pienc;5;431560879;4582685205;21813565;413927894
747820;C\ Ribes, 15;Eixample;2;el Fort Pienc;5;431593765;4582690451;21817492;413928395
740688;Pl Pedreres de Can Baró, 0;Horta-Guinardó;7;Can Baró;34;430156877;4585375785;21642535;414169018
737874;Gru Vivendes la Pau, 13;Sant Martí;10;la Verneda i la Pau;73;433685546;4585916269;22064145;414220687
737756;Pl Sanllehy, 9999;Gracia;6;la Salut;30;429895270;4585037899;21611626;414138358
700039;C\ Beat Domènec Savio, 2;Sant Andreu;9;Baró de Viver;58;433254447;4588603511;22009593;414462362
700040;C\ Beat Domènec Savio, 2;Sant Andreu;9;Baró de Viver;58;433252980;4588631279;22009386;414464862
732315;C\ Castella, 13;Sant Martí;10;el Poblenou;68;432969878;4584028990;21980600;414050112
61503;C\ Arquitectura, 6;Horta-Guinardó;7;Montbau;40;428370110;4586782975;21427086;414294185
580957;Ctra Prat, 16;Sants-Montjuïc;3;la Marina de Port;13;427685372;4579274978;21354109;413617357
585959;C\ Londres, 1;Eixample;2;la Nova Esquerra de l'Eixample;9;428392372;4582215914;21435154;413882868
586584;Av Roma, 92;Eixample;2;la Nova Esquerra de l'Eixample;9;428988872;4581668669;21507134;413834109
877898;Jard Paula Montal, 0;Eixample;2;la Nova Esquerra de l'Eixample;9;429244653;4581445422;21537983;413814227
587723;Jard Paula Montal, 0;Eixample;2;la Nova Esquerra de l'Eixample;9;429265234;4581445556;21540444;413814257
588449;C\ Bacardí, 24;Sants-Montjuïc;3;Sants - Badal;17;427140775;4580486596;21287549;413725992
588648;C\ Comte d'Urgell, 145;Eixample;2;la Nova Esquerra de l'Eixample;9;429069830;4582002358;21516425;413864234
588647;C\ Comte d'Urgell, 145;Eixample;2;la Nova Esquerra de l'Eixample;9;429057823;4582009628;21514980;413864878
588646;C\ Comte d'Urgell, 145;Eixample;2;la Nova Esquerra de l'Eixample;9;429050602;4582016711;21514109;413865510
928941;C\ Rocafort, 210;Eixample;2;la Nova Esquerra de l'Eixample;9;428570105;4581900415;21456782;413854610
61389;C\ Idumea, 14;Horta-Guinardó;7;Sant Genís dels Agudells;39;427954912;4586626453;21377585;414279716
708740;Jard Simone de Beauvoir, 0;Sant Martí;10;el Poblenou;68;433568423;4583680247;22052585;414019198
693782;Pg Zona Franca, 155;Sants-Montjuïc;3;la Marina de Port;13;427970942;4579004466;21388569;413593249
660630;Pl Vila de Madrid, 19;Ciutat Vella;1;el Barri Gòtic;2;430786683;4581785046;21721996;413846157
931364;C\ Fluvià, 2715;Sant Martí;10;Sant Martí de Provençals;72;432879494;4585001133;21968709;414137595
931363;C\ Fluvià, 2715;Sant Martí;10;Sant Martí de Provençals;72;432909959;4584968736;21972390;414134702
931362;C\ Fluvià, 2715;Sant Martí;10;Sant Martí de Provençals;72;432893683;4584957225;21970456;414133652
57195;Pl Joanic, 9999;Gracia;6;la Vila de Gràcia;31;429982262;4584109735;21623108;414054838
847193;C\ Pierola, 14;Nou Barris;8;Vallbona;56;431739642;4590477919;21826147;414629909
823434;Pl Dones del 36, 6;Gracia;6;la Vila de Gràcia;31;429258877;4583984207;21536718;414042899
823433;Pl Dones del 36, 6;Gracia;6;la Vila de Gràcia;31;429269556;4583996013;21537982;414043971
680709;Pl Dones del 36, 6;Gracia;6;la Vila de Gràcia;31;429249860;4584007782;21535612;414045014
678988;C\ Penyal, 22;Horta-Guinardó;7;la Font d'en Fargues;36;430099558;4585967836;21634993;414222292
678212;Pl Eucaliptus, 1;Nou Barris;8;Torre Baró;54;431596218;4590140274;21809357;414599376
44648;C\ Sant Adrià, 194;Sant Andreu;9;el Bon Pastor;59;433780869;4587469973;22073850;414360703
44434;C\ Fàbrica, 11;Sant Andreu;9;Sant Andreu;60;432389304;4587336583;21907450;414347530
664684;C\ Sants, 112;Sants-Montjuïc;3;Sants;18;427701329;4580812551;21354183;413755855
672591;C\ Garcilaso, 77;Sant Andreu;9;la Sagrera;61;431985413;4586047453;21860562;414231081
661117;Pl Fra Juníper Serra, 1;Sant Andreu;9;el Bon Pastor;59;433484825;4587740363;22038120;414384812
47519;Rbla Badal, 62;Sants-Montjuïc;3;la Bordeta;16;427506700;4580041697;21331833;413686252
203960;C\ Rodes, 7;Sant Martí;10;el Besòs i el Maresme;70;434724479;4585122481;22189320;414150044
204330;C\ Rodes, 7;Sant Martí;10;el Besòs i el Maresme;70;434710918;4585224859;22187587;414159254
45217;C\ Federico García Lorca, 11;Nou Barris;8;Canyelles;49;430218428;4588381608;21646430;414439794
206964;Pl Herenni, 9999;Sants-Montjuïc;3;Hostafrancs;15;428367275;4580890393;21433719;413763461
57364;Av Vallcarca, 119;Gracia;6;Vallcarca i els Penitents;28;428383341;4584861906;21430944;414121174
57365;Av Vallcarca, 119;Gracia;6;Vallcarca i els Penitents;28;428381954;4584836603;21430808;414118894
61506;C\ Àngel Marquès, 12;Horta-Guinardó;7;Montbau;40;428397888;4586904082;21430266;414305117
661340;C\ Josep Sunyol i Garriga, 14;Les Corts;4;la Maternitat i Sant Ramon;20;425686797;4580931565;21113157;413764739
43377;Gru Vivendes la Pau, 80;Sant Martí;10;la Verneda i la Pau;73;433941200;4585838000;22094822;414213849
45586;C\ Sicília, 287;Gracia;6;el Camp d'en Grassot i Gràcia Nova;32;430523047;4583998626;21687928;414045300
45375;Pl Nen de la Rutlla, 0;Horta-Guinardó;7;el Guinardó;35;430764956;4585558393;21715082;414185991
44462;Pg Santa Coloma, 12;Sant Andreu;9;Sant Andreu;60;432129795;4588356609;21875246;414439181
44410;Jard Casa Bloc, 0;Sant Andreu;9;Sant Andreu;60;432313537;4588077093;21897553;414414161
44409;Jard Casa Bloc, 0;Sant Andreu;9;Sant Andreu;60;432313929;4588018648;21897665;414408898
42620;C\ Treball, 285;Sant Martí;10;Sant Martí de Provençals;72;432654120;4585464243;21941229;414179117
42621;C\ Treball, 285;Sant Martí;10;Sant Martí de Provençals;72;432978371;4585622731;21979851;414193663
662578;C\ Treball, 285;Sant Martí;10;Sant Martí de Provençals;72;432880216;4585855198;21967848;414214518
42619;C\ Treball, 285;Sant Martí;10;Sant Martí de Provençals;72;432881511;4585708078;21968166;414201269
54537;C\ Castellterçol, 37;Gracia;6;el Coll;29;428694865;4585545874;21467408;414183053
54538;C\ Castellterçol, 37;Gracia;6;el Coll;29;428675880;4585545981;21465136;414183046
50990;Jard Piscines i Esports, 0;Sarria-Sant Gervasi;5;Sant Gervasi - Galvany;26;427903769;4582772660;21376057;413932576
49035;C\ Torrent de les Roses, 4;Les Corts;4;Pedralbes;21;425223666;4582370146;21056004;413893876
61151;Av Estatut de Catalunya, 31;Horta-Guinardó;7;la Vall d'Hebron;41;429179941;4587092267;21523636;414322759
75388;Pl Fènix, 13;Sants-Montjuïc;3;la Bordeta;16;427622275;4580229700;21345426;413703288
86630;C\ Oristà, 14;Nou Barris;8;Vallbona;56;432027543;4590805220;21860250;414659632
89242;Pl General Moragues, 0;Sant Andreu;9;la Sagrera;61;432400953;4585461090;21910941;414178620
980714;C\ Siracusa, 39;Gracia;6;la Vila de Gràcia;31;429805061;4583699669;21602385;414017750
47088;Jard Hortes de Sant Bertran, 0;Sants-Montjuïc;3;el Poble-sec;11;430880834;4580434858;21734795;413724631
751395;C\ Pare Pérez del Pulgar, 90;Sant Andreu;9;la Trinitat Vella;57;432582268;4589445504;21928191;414537635
210187;C\ Abd el Kader, 8;Horta-Guinardó;7;el Baix Guinardó;33;430205706;4584999628;21648812;414135181
684509;C\ Abd el Kader, 8;Horta-Guinardó;7;el Baix Guinardó;33;430226445;4585008928;21651282;414136037
210198;C\ Abd el Kader, 8;Horta-Guinardó;7;el Baix Guinardó;33;430190065;4584991378;21646950;414134425
210209;C\ Abd el Kader, 8;Horta-Guinardó;7;el Baix Guinardó;33;430250801;4584991783;21654216;414134514
210220;C\ Abd el Kader, 8;Horta-Guinardó;7;el Baix Guinardó;33;430199929;4584921934;21648210;414128179
210510;C\ Tenerife, 6;Horta-Guinardó;7;Can Baró;34;430274610;4585299095;21656710;414162213
225639;Jard Frederica Montseny, 0;Horta-Guinardó;7;el Guinardó;35;431011261;4585559101;21744552;414186267
118454;Pg Vall d'Hebron, 96;Horta-Guinardó;7;la Teixonera;38;428242639;4585930227;21412843;414217268
118453;Pg Vall d'Hebron, 96;Horta-Guinardó;7;la Teixonera;38;428251630;4585965855;21413877;414220485
816221;C\ Casanova, 149;Eixample;2;l'Antiga Esquerra de l'Eixample;8;429219410;4582350869;21533906;413895755
816220;C\ Casanova, 149;Eixample;2;l'Antiga Esquerra de l'Eixample;8;429153587;4582417345;21525956;413901684
764706;C\ Marina, 155;Eixample;2;el Fort Pienc;5;431553338;4583259969;21812013;413979655
764705;C\ Marina, 155;Eixample;2;el Fort Pienc;5;431565587;4583265882;21813472;413980198
764704;C\ Marina, 155;Eixample;2;el Fort Pienc;5;431555622;4583294531;21812247;413982770
61119;Pg Vall d'Hebron, 85;Horta-Guinardó;7;Sant Genís dels Agudells;39;428120097;4585832878;21398296;414208390
254022;C\ Castillejos, 408;Horta-Guinardó;7;el Baix Guinardó;33;430558520;4584958799;21691070;414131810
254021;C\ Castillejos, 408;Horta-Guinardó;7;el Baix Guinardó;33;430569945;4584963690;21692431;414132260
48346;Jard Joaquim Ruyra, 0;Les Corts;4;les Corts;19;428056719;4582395371;21394799;413898732
48345;Jard Joaquim Ruyra, 0;Les Corts;4;les Corts;19;428048602;4582385468;21393839;413897832
48489;Jard Bacardí, 41565;Les Corts;4;la Maternitat i Sant Ramon;20;426822060;4581294326;21248466;413798451
48609;Jard Jaume Vicens i Vives, 0;Les Corts;4;la Maternitat i Sant Ramon;20;426856914;4582036602;21251738;413865337
49228;Av Sarrià, 107;Les Corts;4;les Corts;19;427658782;4582586781;21346977;413915614
48819;Parc Pedralbes, 0;Les Corts;4;Pedralbes;21;426103759;4582146857;21161533;413874579
118418;C\ Cartellà, 179;Horta-Guinardó;7;Horta;43;430164264;4586890397;21641670;414305440
777457;C\ Pallars, 210;Sant Martí;10;el Poblenou;68;433065146;4583678151;21992385;414018592
777456;C\ Pallars, 210;Sant Martí;10;el Poblenou;68;433093759;4583647366;21995842;414015843
777455;C\ Pallars, 210;Sant Martí;10;el Poblenou;68;433066291;4583654196;21992548;414016436
225724;C\ Lledoner, 4;Horta-Guinardó;7;Sant Genís dels Agudells;39;427992129;4586304255;21382423;414250731
225666;C\ Lledoner, 4;Horta-Guinardó;7;Sant Genís dels Agudells;39;428111319;4586321818;21396664;414252419
85907;Pl Salvador Puig i Antich, 1;Nou Barris;8;les Roquetes;50;431314314;4589066637;21776827;414502437
907722;C\ Conveni, 5562;Nou Barris;8;la Prosperitat;52;431691075;4588356038;21822732;414438758
85620;C\ Valldemossa, 41;Nou Barris;8;Porta;45;431048624;4587338841;21746993;414346593
86273;Pl Harry Walker, 0;Nou Barris;8;la Prosperitat;52;431600426;4587924927;21812370;414399852
86087;Pl Gabriel Alomar, 1;Nou Barris;8;Porta;45;431688198;4587651614;21823184;414375310
783643;Pl Herta Frankel, 0;Horta-Guinardó;7;la Teixonera;38;428569265;4586038984;21451798;414227354
790503;C\ Comte Borrell, 159;Eixample;2;la Nova Esquerra de l'Eixample;9;429369897;4581557676;21552829;413824447
790504;C\ Comte Borrell, 159;Eixample;2;la Nova Esquerra de l'Eixample;9;429347552;4581527851;21550192;413821741
254031;C\ Pedrosa, 6858;Nou Barris;8;la Trinitat Nova;53;431913995;4588950406;21848746;414492480
254030;C\ Pedrosa, 6858;Nou Barris;8;la Trinitat Nova;53;431898770;4588978877;21846891;414495031
86456;C\ Horitzontal, 7;Nou Barris;8;Porta;45;431354096;4587688725;21783155;414378368
86387;Pas Antonio Cuadrillero, 1;Nou Barris;8;la Trinitat Nova;53;431863811;4589095668;21842574;414505520
907746;E.M. Trinitat Vella, 57810;Sant Andreu;9;la Trinitat Vella;57;432685510;4588978230;21941071;414495636
907745;E.M. Trinitat Vella, 57810;Sant Andreu;9;la Trinitat Vella;57;432694426;4588986795;21942129;414496415
161137;C\ Torrent de Perera, 12;Sant Andreu;9;la Trinitat Vella;57;432291529;4589460516;21893367;414538743
815286;C\ Teodor Llorente, 14;Horta-Guinardó;7;el Guinardó;35;431364675;4585664037;21786720;414196021
660670;C\ Escudellers, 61;Ciutat Vella;1;el Barri Gòtic;2;431209818;4581328518;21773117;413805402
812904;Pl Calvó, 9999;Sarria-Sant Gervasi;5;Sant Gervasi - la Bonanova;25;427410030;4584734194;21314652;414108798
826666;Pl Doctor Pere Franquesa, 0;Sants-Montjuïc;3;el Poble-sec;11;429615938;4580428859;21583563;413722994
826685;Pg Colom, 31;Ciutat Vella;1;el Barri Gòtic;2;431439758;4581053301;21800925;413780810
44881;C\ Josep Estivill, 24;Sant Andreu;9;Navas;63;432089973;4585474122;21873718;414179532
827431;Pl Dolors Piera, 7;Sant Martí;10;el Parc i la Llacuna del Poblenou;66;432718357;4583756967;21950814;414025401
827414;Pl Dolors Piera, 7;Sant Martí;10;el Parc i la Llacuna del Poblenou;66;432615351;4583656371;21938604;414016255
827936;C\ Bonaventura Gispert, 38;Sant Andreu;9;Sant Andreu;60;432706038;4586545489;21946238;414276545
828061;Pl Joan Pelegrí, 0;Sants-Montjuïc;3;Hostafrancs;15;428281078;4580853060;21423457;413760022
828573;C\ Castellví, 19;Nou Barris;8;Torre Baró;54;430846206;4589492341;21720302;414540377
45146;C\ Agudes, 9;Nou Barris;8;Ciutat Meridiana;55;431292928;4590478058;21772660;414629540
25382;C\ Lorena, 109;Nou Barris;8;la Guineueta;48;430957203;4587725818;21735609;414381368
829201;C\ Almogàvers, 214;Sant Martí;10;el Parc i la Llacuna del Poblenou;66;432877357;4583719726;21969875;414022180
43777;C\ Lope de Vega, 140;Sant Martí;10;el Poblenou;68;433240336;4584064475;22012915;414053533
43778;C\ Lope de Vega, 140;Sant Martí;10;el Poblenou;68;433328228;4584150197;22023335;414061327
956824;C\ Dos de Maig, 184;Sant Martí;10;el Parc i la Llacuna del Poblenou;66;431874140;4583891104;21849675;414036772
931010;C\ Dos de Maig, 184;Sant Martí;10;el Parc i la Llacuna del Poblenou;66;431888994;4583871366;21851474;414035007
42939;Rda Litoral (Besòs), 85;Sant Martí;10;la Vila Olímpica del Poblenou;67;433020967;4582356843;21988562;413899549
42940;Rda Litoral (Besòs), 85;Sant Martí;10;la Vila Olímpica del Poblenou;67;433050872;4582385809;21992106;413902182
42938;Rda Litoral (Besòs), 85;Sant Martí;10;la Vila Olímpica del Poblenou;67;432932305;4582266460;21978058;413891334
46178;C\ Marina, 212;Eixample;2;la Sagrada Família;6;431261710;4583645468;21776693;414014127
43327;Rbla Guipúscoa, 58;Sant Martí;10;Sant Martí de Provençals;72;432862072;4585156381;21966453;414151563
43423;C\ Rosa Sensat, 38;Sant Martí;10;la Vila Olímpica del Poblenou;67;432935753;4582681561;21978010;413928724
43424;C\ Rosa Sensat, 38;Sant Martí;10;la Vila Olímpica del Poblenou;67;432694348;4582680018;21949139;413928384
43362;Pl Artur Martorell, 2;Sant Martí;10;la Verneda i la Pau;73;433853815;4585780773;22084428;414208622
43361;Pl Artur Martorell, 2;Sant Martí;10;la Verneda i la Pau;73;433842837;4585762741;22083134;414206989
43498;C\ Alfons el Magnànim, 3;Sant Martí;10;el Besòs i el Maresme;70;434593148;4584990074;22173750;414138011
929494;C\ Anaïs Nin, 7;Sant Martí;10;el Besòs i el Maresme;70;434778699;4584899439;22196048;414129999
929481;C\ Anaïs Nin, 7;Sant Martí;10;el Besòs i el Maresme;70;434812155;4584906839;22200042;414130693
161201;C\ Maresme, 286;Sant Martí;10;la Verneda i la Pau;73;433442525;4585891614;22035093;414218266
43594;C\ Puigcerdà, 272;Sant Martí;10;la Verneda i la Pau;73;433310279;4585864193;22019299;414215686
696736;C\ Puigcerdà, 272;Sant Martí;10;la Verneda i la Pau;73;433224907;4585858464;22009089;414215100
696738;C\ Puigcerdà, 272;Sant Martí;10;la Verneda i la Pau;73;433189978;4585870954;22004896;414216195
161410;C\ Agricultura, 310;Sant Martí;10;Sant Martí de Provençals;72;432992396;4585833973;21981295;414212700
161411;C\ Agricultura, 310;Sant Martí;10;Sant Martí de Provençals;72;432963460;4585859266;21977804;414214954
43204;C\ Maresme, 283;Sant Martí;10;la Verneda i la Pau;73;433198818;4586090752;22005711;414235999
43205;C\ Maresme, 283;Sant Martí;10;la Verneda i la Pau;73;433253178;4586081476;22012226;414235209
827974;C\ Cristóbal de Moura, 4030;Sant Martí;10;el Besòs i el Maresme;70;434491613;4585422128;22161134;414176843
46903;C\ Mare de Déu de Port, 322;Sants-Montjuïc;3;la Marina de Port;13;428051867;4579379510;21397798;413627100
48202;Jard Mediterrània, 0;Sants-Montjuïc;3;la Marina de Port;13;428145169;4579040208;21409354;413596623
696238;C\ Espronceda, 161;Sant Martí;10;Provençals del Poblenou;71;433108674;4584275742;21996931;414072452
696232;C\ Espronceda, 161;Sant Martí;10;Provençals del Poblenou;71;433167273;4584254643;22003965;414070600
693736;C\ Espronceda, 161;Sant Martí;10;Provençals del Poblenou;71;433392509;4584323530;22030834;414076992
182832;C\ Espronceda, 161;Sant Martí;10;Provençals del Poblenou;71;433312180;4584382076;22021160;414082198
182831;C\ Espronceda, 161;Sant Martí;10;Provençals del Poblenou;71;433234761;4584333900;22011951;414077795
42304;C\ Enamorats, 154;Sant Martí;10;el Camp de l'Arpa del Clot;64;431887695;4584462649;21850654;414088261
42391;C\ Cantàbria, 63;Sant Martí;10;la Verneda i la Pau;73;432978779;4585988247;21979495;414226584
934731;C\ Trinxant, 112;Sant Martí;10;el Camp de l'Arpa del Clot;64;431722928;4585293784;21830004;414162978
48212;Merc Marina, 0;Sants-Montjuïc;3;la Marina de Port;13;428034298;4579143030;21395978;413605785
859039;Jard Carme Biada, 0;Eixample;2;la Dreta de l'Eixample;7;430009432;4583320620;21627271;413983789
46335;Pg Sant Joan, 138;Gracia;6;el Camp d'en Grassot i Gràcia Nova;32;430368961;4583658967;21669886;414014574
46357;Pg Sant Joan, 121;Eixample;2;la Dreta de l'Eixample;7;430468530;4583552811;21681919;414005099
46543;E.M. Monumental, 50480;Eixample;2;el Fort Pienc;5;431344122;4583499046;21786717;414001009
929549;C\ Sardenya, 91;Eixample;2;el Fort Pienc;5;431839283;4582801144;21846733;413938573
826758;C\ Sardenya, 91;Eixample;2;el Fort Pienc;5;431824101;4582789750;21844930;413937534
46872;C\ Roger de Flor, 194;Eixample;2;la Dreta de l'Eixample;7;430881532;4583401621;21731494;413991838
47570;Rier Blanca, 205;Sants-Montjuïc;3;la Bordeta;16;427481670;4579896765;21329013;413673176
48242;Pl Buenaventura Durruti, 1;Sants-Montjuïc;3;la Marina de Port;13;428089579;4579482023;21402185;413636367
47078;C\ Alts Forns, 19;Sants-Montjuïc;3;la Marina de Port;13;427681016;4578828576;21354120;413577147
47077;C\ Alts Forns, 19;Sants-Montjuïc;3;la Marina de Port;13;427641326;4578700667;21349528;413565591
47076;C\ Alts Forns, 19;Sants-Montjuïc;3;la Marina de Port;13;427742008;4578753260;21361501;413570418
206954;C\ Jocs del 92, 2;Sants-Montjuïc;3;la Marina de Port;13;428584360;4579211800;21461654;413612469
206939;C\ Jocs del 92, 2;Sants-Montjuïc;3;la Marina de Port;13;428602059;4579251555;21463723;413616065
871101;Ctra Antiga d'Horta, 7;Eixample;2;el Fort Pienc;5;431484426;4582833598;21804253;413941194
871100;Ctra Antiga d'Horta, 7;Eixample;2;el Fort Pienc;5;431488086;4582809227;21804718;413939002
47002;C\ Polvorí, 6;Sants-Montjuïc;3;la Font de la Guatlla;14;428419173;4580035797;21440934;413686537
827290;C\ Antoni de Capmany, 30;Sants-Montjuïc;3;la Bordeta;16;427348794;4580278418;21312670;413707430
827289;C\ Antoni de Capmany, 30;Sants-Montjuïc;3;la Bordeta;16;427343648;4580271028;21312064;413706760
828556;Pl Les Dones de Nou Barris, 0;Nou Barris;8;les Roquetes;50;431439028;4588773619;21792089;414476153
877911;Pl Anna Lizaran, 0;Eixample;2;el Fort Pienc;5;431615507;4582904624;21819851;413947703
660962;Mdor Poble Sec, 0;Sants-Montjuïc;3;el Poble-sec;11;430833282;4580387752;21729163;413720347
47325;Camí Font-trobada, 2;Sants-Montjuïc;3;el Poble-sec;11;430470701;4580314081;21685895;413713399
49412;Jard Ca n'Altimira, 0;Sarria-Sant Gervasi;5;Sant Gervasi - la Bonanova;25;427465104;4583969245;21322157;414039953
930468;Pl Ferran Casablancas, 1;Sarria-Sant Gervasi;5;Sant Gervasi - la Bonanova;25;427566778;4583699685;21334642;414015766
208076;C\ Tarongers, 16;Sants-Montjuïc;3;el Poble-sec;11;430326709;4579695856;21669389;413657593
207793;C\ Tarongers, 16;Sants-Montjuïc;3;el Poble-sec;11;430329735;4579747570;21669692;413662253
903046;C\ Residència, 14;Sant Andreu;9;Sant Andreu;60;432305131;4587920305;21896722;414400033
903032;C\ Residència, 14;Sant Andreu;9;Sant Andreu;60;432362490;4587874397;21903639;414395946
903031;C\ Residència, 14;Sant Andreu;9;Sant Andreu;60;432235885;4587970874;21888377;414404529
588079;Jard Elvira Farreras Valentí, 0;Sarria-Sant Gervasi;5;el Putxet i el Farró;27;428340969;4584335707;21426498;414073744
908600;C\ Orduña, 4160;Nou Barris;8;el Turó de la Peira;46;430887164;4587131454;21727906;414327776
934297;C\ Priorat, 11;Sants-Montjuïc;3;Sants;18;428060235;4580679800;21397256;413744220
76898;C\ Marquès de Mulhacén, 12;Sarria-Sant Gervasi;5;Sarrià;23;426445585;4582570945;21201898;413913088
51414;Jard Turó del Putxet, 0;Sarria-Sant Gervasi;5;el Putxet i el Farró;27;428430054;4584539302;21436914;414092160
51413;Jard Turó del Putxet, 0;Sarria-Sant Gervasi;5;el Putxet i el Farró;27;428433848;4584522489;21437388;414090649
935640;Jard La Tamarita, 0;Sarria-Sant Gervasi;5;Sant Gervasi - la Bonanova;25;427737259;4584755161;21353775;414110982
935639;Jard La Tamarita, 0;Sarria-Sant Gervasi;5;Sant Gervasi - la Bonanova;25;427708103;4584782833;21350254;414113448
208491;C\ Esteve Terradas, 16;Gracia;6;Vallcarca i els Penitents;28;428305211;4584974936;21421463;414131285
208481;C\ Esteve Terradas, 16;Gracia;6;Vallcarca i els Penitents;28;428250117;4585012415;21414827;414134611
665436;C\ Baró de la Barre, 63;Gracia;6;Vallcarca i els Penitents;28;428250285;4585483328;21414288;414177024
924642;C\ Mossèn Batlle, 10;Gracia;6;la Salut;30;429212764;4584599054;21530483;414098235
924641;C\ Mossèn Batlle, 10;Gracia;6;la Salut;30;429238596;4584540994;21533641;414093028
827876;Via Favència, 5324;Sant Andreu;9;la Trinitat Vella;57;432276228;4589024708;21892025;414499478
958398;C\ Palomar, 7790;Sant Andreu;9;Sant Andreu;60;432233373;4588217096;21887800;414426703
958397;C\ Palomar, 7790;Sant Andreu;9;Sant Andreu;60;432253391;4588220502;21890193;414427027
933968;Pl Abat Escarré, 9999;Sant Andreu;9;Sant Andreu;60;432393754;4586839720;21908538;414302783
73676;Pl Joan Peiró, 1;Sants-Montjuïc;3;Sants;18;428186791;4580926326;21412096;413766537
955587;C\ Roc Boronat, 135;Sant Martí;10;el Parc i la Llacuna del Poblenou;66;432482201;4583847374;21922463;414033346
943251;Jard Doctor Pla i Armengol, 0;Horta-Guinardó;7;el Guinardó;35;430683028;4585088517;21705818;414143600
954863;C\ Comte Borrell, 82;Eixample;2;Sant Antoni;10;429751349;4581322588;21598717;413803608
41762;E.A. Parlament Catalunya, 0;Ciutat Vella;1;Sant Pere, Santa Caterina i la Ribera;4;432301530;4582059743;21902849;413872187
41763;E.A. Parlament Catalunya, 0;Ciutat Vella;1;Sant Pere, Santa Caterina i la Ribera;4;432091685;4582245467;21877545;413888738
;Ptge Xavier Llorens, 0;Sant Martí;10;la Verneda i la Pau;73;433882682;4586111319;22087521;414238417
670931;C\ Doctor Trueta, 81;Sant Martí;10;la Vila Olímpica del Poblenou;67;432832173;4582834258;21965452;413942391
51382;Pg Solé i Pla, 18;Sarria-Sant Gervasi;5;Vallvidrera, el Tibidabo i les Planes;22;423886927;4586572554;20890851;414271110
956031;Av Meridiana, 90;Sant Martí;10;el Clot;65;432040833;4584353067;21869097;414078520
956010;Av Meridiana, 90;Sant Martí;10;el Clot;65;432040155;4584178407;21869212;414062789
960365;C\ Teresa Boronat i Fabra, 0;Sant Andreu;9;Sant Andreu;60;432482036;4588342239;21917425;414438184
976002;C\ Veneçuela, 25;Sant Martí;10;Provençals del Poblenou;71;433583115;4584497448;22053446;414092814
48794;C\ Jiménez i Iglesias, 6;Les Corts;4;Pedralbes;21;426602539;4582384472;21220895;413896436
933485;C\ Cristóbal de Moura, 52;Sant Martí;10;Provençals del Poblenou;71;433463975;4584479002;22039213;414091054
42323;Pl Valentí Almirall, 7;Sant Martí;10;el Clot;65;432493895;4584446032;21923194;414087275
42322;Pl Valentí Almirall, 7;Sant Martí;10;el Clot;65;432484069;4584438004;21922028;414086544
965212;C\ Rosselló, 370;Eixample;2;la Sagrada Família;6;430763718;4583872332;21716863;414034132
44041;G.V. Corts Catalanes, 1024;Sant Martí;10;Provençals del Poblenou;71;433103612;4584845470;21995696;414123761
44042;G.V. Corts Catalanes, 1024;Sant Martí;10;Provençals del Poblenou;71;433211993;4584957642;22008539;414133954
44040;G.V. Corts Catalanes, 954;Sant Martí;10;Provençals del Poblenou;71;432755004;4584514475;21954356;414093659
724515;C\ Jerez, 24;Horta-Guinardó;7;Horta;43;429359936;4587001749;21545283;414314765
974458;C\ Francesc Pedra, 6;Les Corts;4;les Corts;19;427464870;4582239036;21324202;413884120
86122;C\ Agudes, 91;Nou Barris;8;Ciutat Meridiana;55;430978453;4590210057;21735313;414605132
978915;C\ Agudes, 91;Nou Barris;8;Ciutat Meridiana;55;431056556;4590267260;21744599;414610351
970283;C\ Beret, 81;Nou Barris;8;el Turó de la Peira;46;430239635;4587061406;21650492;414320907
85966;C\ Beret, 81;Nou Barris;8;el Turó de la Peira;46;430116840;4587178698;21635661;414331365
85968;C\ Beret, 81;Nou Barris;8;el Turó de la Peira;46;430136560;4587216756;21637977;414334809
85967;C\ Beret, 81;Nou Barris;8;el Turó de la Peira;46;430459270;4587120448;21676710;414326416
28380;Av Mistral, 22;Eixample;2;Sant Antoni;10;429567996;4580954992;21577219;413770339
42730;C\ Doctor Zamenhof, 21;Sant Martí;10;Sant Martí de Provençals;72;432698144;4585383559;21946587;414171887
43977;C\ Pujades, 447;Sant Martí;10;el Besòs i el Maresme;70;434460112;4584937613;22157890;414133178
692313;Polg Guineueta Grup, 108;Nou Barris;8;la Guineueta;48;430498296;4588108602;21680244;414415448
85888;Polg Guineueta Grup, 108;Nou Barris;8;la Guineueta;48;430450135;4588092869;21674497;414413990
85889;Polg Guineueta Grup, 108;Nou Barris;8;la Guineueta;48;430616773;4588166600;21694358;414420774
113371;Parc Ciutadella, 0;Ciutat Vella;1;Sant Pere, Santa Caterina i la Ribera;4;432078267;4582029754;21876182;413869298
113370;Parc Ciutadella, 0;Ciutat Vella;1;Sant Pere, Santa Caterina i la Ribera;4;432002306;4582123219;21866992;413877652
113369;Parc Ciutadella, 0;Ciutat Vella;1;Sant Pere, Santa Caterina i la Ribera;4;431829048;4582235072;21846146;413887580
85566;Via Favència, 37;Nou Barris;8;Canyelles;49;430323807;4588095090;21659374;414414080
85539;Rbla Caçador, 38;Nou Barris;8;la Guineueta;48;430829131;4587868934;21720117;414394148
919938;Pg Taulat, 281;Sant Martí;10;Diagonal Mar i el Front Marítim del Poblenou;69;434512175;4584239188;22164874;414070315
919937;Pg Taulat, 281;Sant Martí;10;Diagonal Mar i el Front Marítim del Poblenou;69;434551507;4584239007;22169580;414070331
171026;Pg Taulat, 281;Sant Martí;10;Diagonal Mar i el Front Marítim del Poblenou;69;434589443;4584215420;22174144;414068237
661495;Pg Taulat, 281;Sant Martí;10;Diagonal Mar i el Front Marítim del Poblenou;69;434556317;4584216872;22170179;414068341
75174;C\ Tortosa, 39;Sants-Montjuïc;3;la Marina del Prat Vermell;12;428213250;4578245897;21418432;413525143
61704;C\ Garriga i Roca, 70;Horta-Guinardó;7;el Guinardó;35;430704509;4585622297;21707776;414191695
61705;C\ Garriga i Roca, 70;Horta-Guinardó;7;el Guinardó;35;430694176;4585662285;21706494;414195287
61703;C\ Garriga i Roca, 70;Horta-Guinardó;7;el Guinardó;35;430740357;4585608673;21712081;414190498
61484;Pl Bacardí, 9999;Horta-Guinardó;7;Horta;43;430136936;4586809633;21638493;414298142
61405;Rbla Carmel, 1;Horta-Guinardó;7;el Carmel;37;429586991;4586640014;21572877;414282385
61406;Rbla Carmel, 1;Horta-Guinardó;7;el Carmel;37;429584929;4586598346;21572679;414278630
61407;Rbla Carmel, 1;Horta-Guinardó;7;el Carmel;37;429606604;4586654951;21575207;414283747
61325;Rbla Carmel, 9999;Horta-Guinardó;7;el Carmel;37;429661431;4586122916;21582387;414235877
61279;C\ Cortada, 49;Horta-Guinardó;7;la Teixonera;38;428981404;4586290083;21500819;414250335
61270;Pl Haya de la Torre, 0;Horta-Guinardó;7;el Carmel;37;429631865;4585974905;21579022;414222520
61200;Pl Boyeros, 0;Horta-Guinardó;7;el Carmel;37;429113095;4586052899;21516855;414229089
61093;Pl Masies d'Horta, 0;Horta-Guinardó;7;Horta;43;429735459;4586904784;21590337;414306362
60112;Parc Xavier Montsalvatge, 0;Horta-Guinardó;7;Horta;43;429283932;4587978083;21535045;414402633
85604;C\ Cartellà, 3800;Nou Barris;8;Vilapicina i la Torre Llobeta;44;430586995;4586638986;21692548;414283163
86467;C\ Pintor Alsamora, 9;Nou Barris;8;Porta;45;431567968;4587294107;21809199;414343009
75187;Jard Celestina Vigneaux, 0;Sants-Montjuïc;3;la Bordeta;16;428196914;4580348359;21413991;413714490
75188;Jard Celestina Vigneaux, 0;Sants-Montjuïc;3;la Bordeta;16;428184419;4580313784;21412538;413711365
661138;C\ Sèquia Madriguera, 17;Sant Andreu;9;el Bon Pastor;59;433472408;4587646084;22036738;414376310
661137;C\ Sèquia Madriguera, 17;Sant Andreu;9;el Bon Pastor;59;433464801;4587670300;22035800;414378485
44808;C\ Santa Coloma, 4;Sant Andreu;9;Sant Andreu;60;432599899;4586958284;21933076;414313635
45708;Pl Cardona, 3;Sarria-Sant Gervasi;5;Sant Gervasi - Galvany;26;428804012;4583297956;21483112;413980689
46479;C\ Enamorats, 70;Eixample;2;la Sagrada Família;6;431585799;4583976823;21815086;414044247
46824;Jard Jaume Perich, 0;Eixample;2;la Dreta de l'Eixample;7;430861392;4582843537;21729722;413941556
47766;Jard Tres Xemeneies, 0;Sants-Montjuïc;3;el Poble-sec;11;430807892;4580663249;21725813;413745138
87304;C\ Costa Rica, 26;Sant Andreu;9;la Sagrera;61;432254545;4585953251;21892872;414222824
86521;C\ Darnius, 15;Nou Barris;8;Can Peguera;47;430336165;4587364404;21661696;414348281
86522;C\ Darnius, 15;Nou Barris;8;Can Peguera;47;430341339;4587380166;21662297;414349705
51276;Jard Marià Manent, 0;Sarria-Sant Gervasi;5;el Putxet i el Farró;27;428192193;4584675695;21408296;414104232
50329;C\ Escull, 2;Sarria-Sant Gervasi;5;Sarrià;23;426415686;4583291717;21197446;413977977
86262;C\ Torrent de Can Piquer, 2;Nou Barris;8;Porta;45;431330076;4587048996;21781007;414320729
49551;C\ Reis Catòlics, 24;Sarria-Sant Gervasi;5;Vallvidrera, el Tibidabo i les Planes;22;425062816;4585252430;21033199;414153319
49592;C\ Mare de Déu de Núria, 37;Sarria-Sant Gervasi;5;Sarrià;23;426697918;4583526694;21230920;413999398
86237;C\ Alonso Cano, 18;Nou Barris;8;Verdun;51;430976037;4588128998;21737403;414417697
49237;C\ Danubi, 4;Les Corts;4;la Maternitat i Sant Ramon;20;426306190;4580936525;21187214;413765755
47745;C\ Sant Eloi, 1;Sants-Montjuïc;3;la Marina de Port;13;428317883;4578673481;21430434;413563748
46780;Jard Rector Oliveras, 0;Eixample;2;la Dreta de l'Eixample;7;430404233;4582952173;21674918;413950946
964202;Pl Joaquim Xirau i Palau, 3;Ciutat Vella;1;el Barri Gòtic;2;431136791;4581098201;21764646;413784595
877792;Jard Cèsar Martinell, 0;Eixample;2;l'Antiga Esquerra de l'Eixample;8;429733065;4581735117;21596053;413840747
826384;C\ Felip II, 246;Nou Barris;8;Vilapicina i la Torre Llobeta;44;431151888;4586736651;21760038;414292445
85856;C\ Felip II, 246;Nou Barris;8;Vilapicina i la Torre Llobeta;44;431140006;4586706505;21758650;414289720
85855;C\ Felip II, 246;Nou Barris;8;Vilapicina i la Torre Llobeta;44;431124220;4586738513;21756724;414292589
150833;C\ Germans Desvalls, 21;Horta-Guinardó;7;Horta;43;428815347;4587827720;21479137;414388676
150832;C\ Germans Desvalls, 21;Horta-Guinardó;7;Horta;43;428796760;4587815854;21476926;414387591
161256;C\ València, 702;Sant Martí;10;el Clot;65;432467274;4585011066;21919379;414138144
49178;C\ Torrent de les Roses, 41;Les Corts;4;Pedralbes;21;425046422;4582252069;21034953;413883076
51292;C\ Castellnou, 12;Sarria-Sant Gervasi;5;les Tres Torres;24;427368124;4582927903;21311805;413946076
61381;C\ Cànoves, 116;Horta-Guinardó;7;Sant Genís dels Agudells;39;427251592;4586720136;21293308;414287520
659889;C\ Sinaí, 4280;Horta-Guinardó;7;Sant Genís dels Agudells;39;428092150;4586268126;21394434;414247566
54492;Jard Caterina Albert, 0;Gracia;6;el Camp d'en Grassot i Gràcia Nova;32;430645143;4583865846;21702686;414033446
42155;C\ Aragó, 661;Sant Martí;10;el Clot;65;432484121;4584923643;21921492;414130284
57407;C\ Samaniego, 4230;Horta-Guinardó;7;la Teixonera;38;428488418;4586073058;21442083;414230351
57100;Pg Sant Joan, 160;Gracia;6;el Camp d'en Grassot i Gràcia Nova;32;430263028;4583760308;21657098;414023610
55108;Pl Nord, 9999;Gracia;6;la Vila de Gràcia;31;429417389;4584277292;21555338;414069435
54504;C\ Vallpar, 9;Gracia;6;Vallcarca i els Penitents;28;427774721;4585656732;21357180;414192216
54505;C\ Vallpar, 9;Gracia;6;Vallcarca i els Penitents;28;427766246;4585669645;21356151;414193371
903621;Jard Ada Byron, 0;Sant Martí;10;el Poblenou;68;432731324;4584025907;21952066;414049635
86659;C\ Manuel Sanchis i Guarner, 14;Nou Barris;8;Porta;45;431707794;4587798710;21825364;414388575
86594;C\ Miguel Hernández, 8;Nou Barris;8;Canyelles;49;430099720;4588156778;21632481;414419441
86444;C\ Pedrosa, 5;Nou Barris;8;la Trinitat Nova;53;432005573;4588754297;21859929;414474894
680399;C\ Bisbe Sivilla, 2;Sarria-Sant Gervasi;5;Sant Gervasi - la Bonanova;25;427739778;4584164574;21354782;414057792
680398;C\ Bisbe Sivilla, 2;Sarria-Sant Gervasi;5;Sant Gervasi - la Bonanova;25;427774042;4584137248;21358913;414055362
49424;Pl Rosa Sabater, 2;Sarria-Sant Gervasi;5;Sant Gervasi - la Bonanova;25;427908336;4584352325;21374722;414074854
975310;Pl Joan Llongueras, 1;Sarria-Sant Gervasi;5;Sant Gervasi - Galvany;26;428101784;4582680576;21399850;413924459
744727;Pl Joan Llongueras, 1;Sarria-Sant Gervasi;5;Sant Gervasi - Galvany;26;428097628;4582694541;21399336;413925713
49347;Pl Manuel Corachan, 3803;Sarria-Sant Gervasi;5;les Tres Torres;24;427212812;4582876725;21293291;413941326
48681;Jard Can Feu, 0;Les Corts;4;les Corts;19;427243073;4582477692;21297389;413905414
48608;C\ Trias i Giró, 17;Les Corts;4;Pedralbes;21;425856907;4582034499;21132148;413864232
48587;C\ Trias i Giró, 17;Les Corts;4;Pedralbes;21;425907964;4582051807;21138233;413865838
832414;Pl Doctor Ignasi Barraquer, 40772;Les Corts;4;les Corts;19;428262061;4582462986;21419277;413905005
48391;Pl Doctor Ignasi Barraquer, 40772;Les Corts;4;les Corts;19;428246688;4582442989;21417462;413903190
804422;C\ Lepant, 840;Horta-Guinardó;7;el Baix Guinardó;33;430610032;4584514972;21697742;414091880
804421;C\ Lepant, 840;Horta-Guinardó;7;el Baix Guinardó;33;430603469;4584503155;21696970;414090810
804420;C\ Lepant, 840;Horta-Guinardó;7;el Baix Guinardó;33;430622755;4584521663;21699256;414092494
654179;C\ Lepant, 840;Horta-Guinardó;7;el Baix Guinardó;33;430552020;4584523934;21690791;414092637
654197;C\ Lepant, 840;Horta-Guinardó;7;el Baix Guinardó;33;430572407;4584545306;21693206;414094580
692840;C\ Robrenyo, 130;Sants-Montjuïc;3;Sants;18;428176008;4581581640;21410030;413825549
692844;C\ Robrenyo, 130;Sants-Montjuïc;3;Sants;18;428193499;4581598851;21412101;413827114
47816;C\ Constitució, 33;Sants-Montjuïc;3;la Bordeta;16;427852015;4580163781;21372973;413697558
47615;C\ Badalona, 431;Sants-Montjuïc;3;Sants;18;427932971;4581138972;21381493;413785462
47496;Pl Sant Cristòfol, 2290;Sants-Montjuïc;3;la Marina de Port;13;427813983;4578979738;21369835;413590881
46892;C\ Segura, 12;Sants-Montjuïc;3;la Marina de Port;13;428120444;4579612833;21405720;413648176
46881;Jard Laura Albéniz, 0;Eixample;2;la Dreta de l'Eixample;7;430025933;4583137287;21629456;413967291
46689;C\ Alí Bei, 115;Eixample;2;el Fort Pienc;5;431732795;4583092707;21833667;413964743
46690;C\ Alí Bei, 115;Eixample;2;el Fort Pienc;5;431745850;4583077881;21835245;413963418
46493;Jard Montserrat Roig, 0;Eixample;2;la Sagrada Família;6;431354771;4584423801;21786942;414084308
958520;Jard Indústria, 0;Eixample;2;la Sagrada Família;6;430684394;4584349978;21706827;414077084
956383;Jard Indústria, 0;Eixample;2;la Sagrada Família;6;430690936;4584356333;21707602;414077662
46375;Pg Sant Joan, 108;Eixample;2;la Dreta de l'Eixample;7;430559503;4583460017;21692907;413996820
46245;C\ Aragó, 215;Eixample;2;l'Antiga Esquerra de l'Eixample;8;429816867;4582313418;21605404;413892905
46246;C\ Aragó, 215;Eixample;2;l'Antiga Esquerra de l'Eixample;8;429859802;4582276646;21610582;413889631
46244;C\ Aragó, 215;Eixample;2;l'Antiga Esquerra de l'Eixample;8;429803411;4582292902;21603819;413891046
44359;C\ Clarà, 1;Sant Andreu;9;Baró de Viver;58;433119104;4588638942;21993352;414465440
46132;C\ Dos de Maig, 210;Eixample;2;la Sagrada Família;6;431698586;4584137426;21828397;414058808
46095;Camí Foixarda, 23;Sants-Montjuïc;3;el Poble-sec;11;428525944;4579832176;21453940;413668292
45493;C\ Samaniego, 1;Horta-Guinardó;7;la Teixonera;38;428320632;4586021296;21422068;414225539
45218;E.A. Residència Pau Casals, 0;Nou Barris;8;Canyelles;49;430566792;4588296758;21688226;414432454
45165;C\ Artesania, 15;Nou Barris;8;la Guineueta;48;430822603;4588145453;21719019;414419047
45164;C\ Artesania, 15;Nou Barris;8;la Guineueta;48;430867480;4588008376;21724547;414406740
45079;Av Alzinar, 42;Nou Barris;8;Vallbona;56;431847377;4590467132;21839059;414629029
44971;C\ Cretes, 1;Sant Andreu;9;el Bon Pastor;59;433723195;4587484222;22066931;414361939
44902;C\ Garcilaso, 236;Sant Andreu;9;el Congrés i els Indians;62;431320184;4586109132;21780891;414236071
44847;Pl Marià Brossa, 9999;Sant Andreu;9;Sant Andreu;60;432166576;4587618578;21880477;414372740
44785;C\ Cinca, 9;Sant Andreu;9;Sant Andreu;60;432517794;4587546132;21922594;414366511
44684;Pl Félix Rodríguez de la Fuent, 0;Sant Andreu;9;el Bon Pastor;59;433498206;4587357448;22040143;414350335
44683;Pl Félix Rodríguez de la Fuent, 0;Sant Andreu;9;el Bon Pastor;59;433499550;4587369721;22040290;414351442
44671;Jard Gatcpac, 0;Sant Andreu;9;Sant Andreu;60;432354863;4587965270;21902624;414404125
44532;Pl Sot dels Paletes, 9999;Sant Andreu;9;Sant Andreu;60;432447136;4587635089;21914038;414374464
44452;C\ Guinardó, 4;Sant Andreu;9;Navas;63;431535715;4585324790;21807569;414165612
44380;C\ Arquímedes, 30;Sant Andreu;9;Sant Andreu;60;432114050;4587997072;21873765;414406786
44379;C\ Arquímedes, 30;Sant Andreu;9;Sant Andreu;60;432126245;4587978042;21875246;414405082
44378;C\ Arquímedes, 30;Sant Andreu;9;Sant Andreu;60;432134380;4587999524;21876196;414407024
44338;Jard Massana, 0;Sant Andreu;9;el Congrés i els Indians;62;431434667;4586487537;21794161;414270250
44339;Jard Massana, 0;Sant Andreu;9;el Congrés i els Indians;62;431454027;4586478653;21796487;414269466
43954;C\ Nació, 47;Sant Martí;10;el Camp de l'Arpa del Clot;64;431874849;4584934544;21848585;414130752
43710;C\ Pere IV, 8;Sant Martí;10;el Parc i la Llacuna del Poblenou;66;432315658;4582725406;21903795;413932154
826379;Av Diagonal, 106;Sant Martí;10;Provençals del Poblenou;71;433544888;4584379150;22049003;414082127
43507;Av Diagonal, 106;Sant Martí;10;Provençals del Poblenou;71;433532932;4584367634;22047585;414081080
43472;Pl Jaume Huguet, 2;Sant Martí;10;el Besòs i el Maresme;70;434114408;4585463073;22115956;414180222
43471;Pl Jaume Huguet, 2;Sant Martí;10;el Besòs i el Maresme;70;434126684;4585451280;22117438;414179170
43396;C\ Joan Miró, 35;Sant Martí;10;la Vila Olímpica del Poblenou;67;432491900;4582561778;21925057;413917564
43397;C\ Joan Miró, 35;Sant Martí;10;la Vila Olímpica del Poblenou;67;432495372;4582546878;21925489;413916225
664526;Av Francesc Cambó, 13;Ciutat Vella;1;Sant Pere, Santa Caterina i la Ribera;4;431222729;4581926858;21773981;413859304
706276;C\ Bilbao, 12;Sant Martí;10;el Poblenou;68;433712508;4583579869;22069931;414010276
43264;Av Diagonal, 54;Sant Martí;10;Diagonal Mar i el Front Marítim del Poblenou;69;433939749;4584500261;22096109;414093361
43262;Av Diagonal, 54;Sant Martí;10;Diagonal Mar i el Front Marítim del Poblenou;69;434193724;4584580674;22126406;414100812
43263;Av Diagonal, 54;Sant Martí;10;Diagonal Mar i el Front Marítim del Poblenou;69;434074497;4584546010;22112180;414097592
43172;Gru Vivendes la Pau, 2597;Sant Martí;10;la Verneda i la Pau;73;433852027;4586014138;22083959;414229639
42795;Pl Puigcerdà, 0;Sant Martí;10;Provençals del Poblenou;71;433741883;4585404128;22071448;414174607
737098;Pl Heroïnes de Girona, 9999;Sant Martí;10;el Camp de l'Arpa del Clot;64;431437891;4584620872;21796662;414102129
42751;Jrdi Xavier Benguerel, 0;Sant Martí;10;el Poblenou;68;433109381;4583891298;21997441;414037827
44046;C\ Cantàbria, 1;Sant Martí;10;Sant Martí de Provençals;72;433363825;4585209888;22026427;414156800
690410;C\ Cantàbria, 1;Sant Martí;10;Sant Martí de Provençals;72;432994792;4584861840;21982658;414125145
44047;C\ Cantàbria, 1;Sant Martí;10;Sant Martí de Provençals;72;433125890;4584978843;21998214;414135792
161157;C\ Cantàbria, 1;Sant Martí;10;la Verneda i la Pau;73;434025052;4585854200;22104838;414215377
44048;C\ Cantàbria, 1;Sant Martí;10;la Verneda i la Pau;73;433565262;4585407474;22050311;414174762
42738;Jard Ana Figuera, 0;Sant Martí;10;Sant Martí de Provençals;72;433344583;4585281317;22024046;414163217
42676;C\ Treball, 271;Sant Martí;10;Sant Martí de Provençals;72;432882194;4585556055;21968417;414187577
42650;Rbla Prim, 160;Sant Martí;10;la Verneda i la Pau;73;433773076;4585708389;22074847;414202036
660300;C\ Cortada, 1;Horta-Guinardó;7;la Teixonera;38;428627972;4586149276;21458692;414237340
42364;C\ Santander, 6;Sant Martí;10;la Verneda i la Pau;73;432921285;4585946343;21972661;414222762
42363;C\ Santander, 6;Sant Martí;10;la Verneda i la Pau;73;432927455;4585939081;21973408;414222113
42361;C\ Santander, 6;Sant Martí;10;la Verneda i la Pau;73;432963206;4585964812;21977657;414224460
42362;C\ Santander, 6;Sant Martí;10;la Verneda i la Pau;73;432957491;4585938846;21977002;414222117
42350;Av Meridiana, 164;Sant Martí;10;el Camp de l'Arpa del Clot;64;432006109;4584759536;21864486;414115100
827277;Pl Doctor Cararach Mauri, 9;Sant Andreu;9;la Sagrera;61;432414836;4586526882;21911411;414274624
696500;Pl Can Robacols, 0;Sant Martí;10;el Camp de l'Arpa del Clot;64;431725772;4584816503;21830883;414119994
42264;Pl Can Robacols, 0;Sant Martí;10;el Camp de l'Arpa del Clot;64;431741349;4584823778;21832738;414120662
42188;Via Trajana, 27;Sant Martí;10;la Verneda i la Pau;73;433658764;4586508731;22060291;414274027
42172;C\ Pallars, 8361;Sant Martí;10;el Poblenou;68;433195051;4583890641;22007690;414037839
41998;C\ Sant Josep Oriol, 5;Ciutat Vella;1;el Raval;1;430667561;4581162888;21708462;413790019
41925;C\ Floristes de la Rambla, 5;Ciutat Vella;1;el Raval;1;430570634;4581467440;21696523;413817365
41951;Pl Vicenç Martorell, 9999;Ciutat Vella;1;el Raval;1;430518892;4581760599;21689999;413843724
828265;Pl Josep M. Folch i Torres, 1;Ciutat Vella;1;el Raval;1;430328184;4580911914;21668168;413767121
828264;Pl Josep M. Folch i Torres, 1;Ciutat Vella;1;el Raval;1;430329148;4580923353;21668270;413768152
654566;Pl Navas, 9999;Sants-Montjuïc;3;el Poble-sec;11;429660979;4580602598;21588746;413738681
694137;Pl Fra Juníper Serra, 5;Sant Andreu;9;el Bon Pastor;59;433454841;4587832684;22034430;414393102
694138;Pl Fra Juníper Serra, 5;Sant Andreu;9;el Bon Pastor;59;433441486;4587829987;22032834;414392848
161275;Pl Maresme, 0;Sant Martí;10;el Besòs i el Maresme;70;434465570;4584835357;22158653;414123973
162691;Pl Fernando de los Ríos, 2;Sant Martí;10;la Verneda i la Pau;73;433817613;4586114443;22079731;414238645
162692;Pl Fernando de los Ríos, 2;Sant Martí;10;la Verneda i la Pau;73;433851207;4586145634;22083717;414241482
828417;Pl Palmera de Sant Martí, 0;Sant Martí;10;la Verneda i la Pau;73;433521160;4585636441;22044783;414195348
162814;Pl Palmera de Sant Martí, 0;Sant Martí;10;la Verneda i la Pau;73;433585944;4585638422;22052532;414195580
162813;Pl Palmera de Sant Martí, 0;Sant Martí;10;la Verneda i la Pau;73;433501322;4585655872;22042387;414197082
696700;Pl Palmera de Sant Martí, 0;Sant Martí;10;la Verneda i la Pau;73;433533011;4585624021;22046214;414194239
171637;Av Meridiana, 409;Nou Barris;8;Porta;45;431579793;4586999976;21810948;414316527
171638;Av Meridiana, 409;Nou Barris;8;Porta;45;431651818;4586969855;21819601;414313876
171639;Av Meridiana, 409;Nou Barris;8;Porta;45;431657382;4587007411;21820225;414317263
43929;Jard Tecla Sala, 0;Sant Martí;10;Provençals del Poblenou;71;432884185;4584231780;21970124;414068305
51478;Jard Vil·la Amèlia, 0;Sarria-Sant Gervasi;5;Sarrià;23;426669064;4582620500;21228566;413917755
51477;Jard Vil·la Amèlia, 0;Sarria-Sant Gervasi;5;Sarrià;23;426690870;4582632659;21231159;413918870
51476;Jard Vil·la Amèlia, 0;Sarria-Sant Gervasi;5;Sarrià;23;426717950;4582651643;21234375;413920604
51479;Jard Vil·la Amèlia, 0;Sarria-Sant Gervasi;5;Sarrià;23;426703859;4582647843;21232694;413920249
97192;Jard Joan Fuster i Ortells, 0;Sant Martí;10;Diagonal Mar i el Front Marítim del Poblenou;69;433972794;4583662858;22100976;414017965
839012;Rda Litoral (Besòs), 55;Sant Martí;10;el Besòs i el Maresme;70;434978507;4584583264;22220293;414101684
836505;Rda Litoral (Besòs), 55;Sant Martí;10;el Besòs i el Maresme;70;434920172;4584508395;22213394;414094893
204370;Rda Litoral (Besòs), 55;Sant Martí;10;el Besòs i el Maresme;70;434953330;4584453406;22217420;414089967
210529;Pl Pastrana, 9999;Horta-Guinardó;7;el Carmel;37;429487607;4586304766;21561375;414252103
210521;Pl Pastrana, 9999;Horta-Guinardó;7;el Carmel;37;429473583;4586329314;21559669;414254302
17927;C\ Marie Curie, 4;Nou Barris;8;la Guineueta;48;430475294;4587562563;21678119;414366249
949777;C\ Marie Curie, 4;Nou Barris;8;la Guineueta;48;430460783;4587559650;21676385;414365974
870964;C\ Marie Curie, 4;Nou Barris;8;la Guineueta;48;430276821;4587590580;21654332;414368600
870963;C\ Marie Curie, 4;Nou Barris;8;la Guineueta;48;430282601;4587576147;21655041;414367305
17933;C\ Marie Curie, 4;Nou Barris;8;la Guineueta;48;430343695;4587581243;21662347;414367817
17928;C\ Marie Curie, 4;Nou Barris;8;la Guineueta;48;430448396;4587535447;21674931;414363783
17930;C\ Marie Curie, 4;Nou Barris;8;la Guineueta;48;430435362;4587618223;21673275;414371227
17932;C\ Marie Curie, 4;Nou Barris;8;la Guineueta;48;430394960;4587631534;21668425;414372391
17931;C\ Marie Curie, 4;Nou Barris;8;la Guineueta;48;430421368;4587631352;21671585;414372398
17934;C\ Marie Curie, 4;Nou Barris;8;la Guineueta;48;430077430;4587786454;21630242;414386068
17935;C\ Marie Curie, 4;Nou Barris;8;la Guineueta;48;430558810;4587454146;21688239;414356556
46604;Plta Joan Brossa, 0;Eixample;2;l'Antiga Esquerra de l'Eixample;8;429360480;4582665784;21550411;413924242
44224;Pl Rom Cremat, 0;Sant Andreu;9;el Congrés i els Indians;62;431743491;4585933098;21831743;414220577
894531;Pl Trinitat, 9999;Sant Andreu;9;la Trinitat Vella;57;432382256;4589032283;21904709;414500250
44866;Av Meridiana, 313;Sant Andreu;9;la Sagrera;61;431990474;4586245042;21860945;414248882
45145;C\ Costabona, 16;Nou Barris;8;Ciutat Meridiana;55;431388122;4590448804;21784091;414626986
694230;Av Vallcarca, 4010;Gracia;6;Vallcarca i els Penitents;28;428292880;4585360701;21419530;414166018
694231;Av Vallcarca, 4010;Gracia;6;Vallcarca i els Penitents;28;428310806;4585348768;21421689;414164959
729318;Av Diagonal, 288;Eixample;2;la Sagrada Família;6;431764466;4583812068;21836645;414029560
206566;Pg Sant Joan, 23;Eixample;2;el Fort Pienc;5;431244171;4582768096;21775591;413935090
206544;Pg Sant Joan, 23;Eixample;2;la Dreta de l'Eixample;7;431389695;4582579056;21793211;413918188
691160;Jard Ramon Aramon i Serra, 0;Sants-Montjuïc;3;Hostafrancs;15;428637538;4580697513;21466263;413746329
85874;Pl Garrigó, 9999;Nou Barris;8;Vilapicina i la Torre Llobeta;44;431578698;4586711787;21811143;414290570
86524;C\ Borràs, 2;Nou Barris;8;la Prosperitat;52;431385839;4587923545;21786687;414399544
86584;Pl Roquetes, 0;Nou Barris;8;les Roquetes;50;431189037;4588850131;21762076;414482830
89587;C\ Palència, 693;Sant Andreu;9;la Sagrera;61;432338387;4585585792;21903316;414189799
90286;Pl Can Portabella, 12;Sant Andreu;9;Sant Andreu;60;432741553;4586703145;21950313;414290774
90285;Pl Can Portabella, 12;Sant Andreu;9;Sant Andreu;60;432703122;4586697148;21945720;414290202
97550;Jard Jaime Gil de Biedma, 0;Sant Martí;10;Diagonal Mar i el Front Marítim del Poblenou;69;433889237;4583563275;22091090;414008927
162772;C\ Aragó, 638;Sant Martí;10;el Clot;65;432116216;4584517170;21877931;414093364
162771;C\ Aragó, 638;Sant Martí;10;el Clot;65;432347044;4584744379;21905292;414114023
49402;Pl Artós, 9999;Sarria-Sant Gervasi;5;Sarrià;23;426921857;4583025241;21258312;413954438
49534;Pg Santa Eulàlia, 18;Sarria-Sant Gervasi;5;Sarrià;23;426036318;4583975746;21151233;414039236
736729;Pl Diamant, 9999;Gracia;6;la Vila de Gràcia;31;429445558;4583971564;21559065;414041924
61082;Rda Guinardó, 16;Horta-Guinardó;7;el Baix Guinardó;33;429997138;4584878576;21623998;414124097
659892;C\ Feliu i Codina, 28;Horta-Guinardó;7;Horta;43;429917770;4587170346;21611847;414330439
29715;C\ Floridablanca, 141;Eixample;2;Sant Antoni;10;429966603;4581523460;21624226;413821887
956380;C\ Pas de l'Ensenyança, 2;Ciutat Vella;1;el Barri Gòtic;2;431223454;4581484554;21774570;413819467
956080;C\ Pas de l'Ensenyança, 2;Ciutat Vella;1;el Barri Gòtic;2;431194103;4581469028;21771078;413818044
42237;C\ Cantàbria, 12;Sant Martí;10;la Verneda i la Pau;73;433472172;4585531796;22039036;414185883
42238;C\ Cantàbria, 12;Sant Martí;10;la Verneda i la Pau;73;433441975;4585568124;22035383;414189130
679677;C\ Perú, 251;Sant Martí;10;Provençals del Poblenou;71;433409366;4585103821;22031992;414147284
43352;Pl Clementina Arderiu, 10;Sant Martí;10;la Verneda i la Pau;73;434043324;4585951306;22106918;414224138
43457;Av Diagonal, 26;Sant Martí;10;el Besòs i el Maresme;70;434524636;4584689911;22165878;414110921
43456;Av Diagonal, 26;Sant Martí;10;el Besòs i el Maresme;70;434648758;4584732596;22180681;414114866
43964;Jard Margarida Comas, 0;Sant Martí;10;la Vila Olímpica del Poblenou;67;432423011;4582636892;21916734;413924272
61314;C\ Porto, 1;Horta-Guinardó;7;Horta;43;429598513;4586758387;21574118;414293056
883881;Av Can Marcet, 5;Horta-Guinardó;7;la Vall d'Hebron;41;428954378;4587361920;21496325;414346847
883880;Av Can Marcet, 5;Horta-Guinardó;7;la Vall d'Hebron;41;428882647;4587396142;21487700;414349865
683530;Av Can Marcet, 5;Horta-Guinardó;7;la Vall d'Hebron;41;429068090;4587357863;21509939;414346582
736892;C\ Bernat Bransi, 22;Horta-Guinardó;7;el Carmel;37;429295206;4586263124;21538401;414248184
736893;C\ Bernat Bransi, 22;Horta-Guinardó;7;el Carmel;37;429293687;4586269606;21538211;414248766
586518;Av Roma, 55;Eixample;2;la Nova Esquerra de l'Eixample;9;428845666;4581655726;21490024;413832816
887888;Jard Maria Mercè Marçal, 0;Eixample;2;la Nova Esquerra de l'Eixample;9;428879584;4582019472;21493653;413865608
587551;Av Roma, 99;Eixample;2;la Nova Esquerra de l'Eixample;9;429242441;4581859441;21537235;413851514
590312;C\ París, 76;Eixample;2;la Nova Esquerra de l'Eixample;9;428612070;4582123832;21461537;413874770
709342;C\ Cal Cisó, 59;Sants-Montjuïc;3;la Marina del Prat Vermell;12;428343130;4578167607;21434049;413518208
708617;C\ Llull, 297;Sant Martí;10;Diagonal Mar i el Front Marítim del Poblenou;69;433863260;4584188957;22087299;414065260
823457;Ctra B-10 (Llobregat), 65;Sant Martí;10;Diagonal Mar i el Front Marítim del Poblenou;69;433876634;4583398880;22089762;413994110
665387;Ctra B-10 (Llobregat), 65;Sant Martí;10;Diagonal Mar i el Front Marítim del Poblenou;69;434350777;4583889873;22145945;414038721
98743;Ctra B-10 (Llobregat), 65;Sant Martí;10;Diagonal Mar i el Front Marítim del Poblenou;69;434572928;4584097603;22172296;414057612
665383;Ctra B-10 (Llobregat), 65;Sant Martí;10;Diagonal Mar i el Front Marítim del Poblenou;69;434328888;4583861385;22143357;414036138
61545;Av Elies Pagès, 1;Horta-Guinardó;7;Sant Genís dels Agudells;39;427744562;4586555017;21352498;414273093
44043;G.V. Corts Catalanes, 1148;Sant Martí;10;Provençals del Poblenou;71;433375984;4585116939;22027984;414148438
44044;G.V. Corts Catalanes, 1148;Sant Martí;10;Provençals del Poblenou;71;433729362;4585459376;22069889;414179572
44045;G.V. Corts Catalanes, 1148;Sant Martí;10;el Besòs i el Maresme;70;434100057;4585823737;22113846;414212694
826402;Av Vallcarca, 35;Gracia;6;Vallcarca i els Penitents;28;428843306;4584447264;21486461;414084238
691733;Av Vallcarca, 35;Gracia;6;Vallcarca i els Penitents;28;428831949;4584460191;21485087;414085392
687960;C\ Rosselló, 415;Gracia;6;el Camp d'en Grassot i Gràcia Nova;32;430733707;4583966763;21713165;414042612
943264;C\ Estadella, 83;Sant Andreu;9;el Bon Pastor;59;433719766;4587428293;22066582;414356899
683694;Pl Gal·la Placídia, 34;Gracia;6;la Vila de Gràcia;31;429214740;4583384491;21532140;413988846
45557;C\ Secretari Coloma, 133;Gracia;6;la Salut;30;429658639;4584800487;21583591;414116769
682666;C\ Biscaia, 401;Sant Andreu;9;Navas;63;431784780;4585652341;21837000;414195325
680550;C\ Padilla, 393;Horta-Guinardó;7;el Baix Guinardó;33;430501162;4584836462;21684348;414120742
86185;C\ Pintor Alsamora, 63;Nou Barris;8;Porta;45;431230506;4587436592;21768650;414355553
678598;C\ Escornalbou, 45;Horta-Guinardó;7;el Guinardó;35;431167797;4585468350;21763385;414178227
664510;Via Bàrcino, 96;Sant Andreu;9;la Trinitat Vella;57;432573051;4588763654;21927849;414476216
978910;Av Rasos de Peguera, 51;Nou Barris;8;Ciutat Meridiana;55;431099818;4590049979;21750027;414590819
978909;Av Rasos de Peguera, 51;Nou Barris;8;Ciutat Meridiana;55;431074108;4590053247;21746945;414591091
978908;Av Rasos de Peguera, 51;Nou Barris;8;Ciutat Meridiana;55;431089070;4590061158;21748728;414591816
670563;Av Rasos de Peguera, 51;Nou Barris;8;Ciutat Meridiana;55;431074252;4590072544;21746940;414592829
670512;C\ Comte de Sert, 492;Sarria-Sant Gervasi;5;Sant Gervasi - la Bonanova;25;427736574;4585271897;21353076;414157521
61657;Pl Maragall, 9998;Sant Andreu;9;el Congrés i els Indians;62;431563866;4585703644;21810509;414199758
43576;C\ Alfons el Magnànim, 107;Sant Martí;10;el Besòs i el Maresme;70;434268221;4585347507;22134486;414169939
43550;C\ Alfons el Magnànim, 107;Sant Martí;10;el Besòs i el Maresme;70;434203180;4585413097;22126632;414175794
41717;Pl Poeta Boscà, 0;Ciutat Vella;1;la Barceloneta;3;432210362;4581206977;21892900;413795304
44199;C\ Clariana, 42;Sant Andreu;9;Baró de Viver;58;433337215;4588689505;22019405;414470176
931957;C\ Petrarca, 41;Nou Barris;8;Vilapicina i la Torre Llobeta;44;430267800;4586694723;21654286;414287906
662898;C\ Petrarca, 41;Nou Barris;8;Vilapicina i la Torre Llobeta;44;430275579;4586682809;21655231;414286840
662828;C\ Petrarca, 44;Horta-Guinardó;7;Horta;43;430195520;4586701125;21645629;414288420
661792;C\ Castells, 14;Les Corts;4;les Corts;19;428062814;4582119811;21395855;413873918
660372;Pl Vista Park, 0;Horta-Guinardó;7;Can Baró;34;429569755;4585416694;21572240;414172190
908669;C\ Llinars del Vallès, 8310;Sant Andreu;9;el Bon Pastor;59;433691063;4587245103;22063348;414340376
908668;C\ Llinars del Vallès, 8310;Sant Andreu;9;el Bon Pastor;59;433745541;4587235795;22069878;414339583
44625;Pg Mollerussa, 55;Sant Andreu;9;el Bon Pastor;59;433568782;4587810167;22048092;414391169
44624;Pg Mollerussa, 55;Sant Andreu;9;el Bon Pastor;59;433544171;4587805463;22045151;414390725
47594;Ctra Prat, 42;Sants-Montjuïc;3;la Marina de Port;13;427506719;4579032132;21333042;413595324
816675;Jard Fabià Puigserver, 0;Sants-Montjuïc;3;el Poble-sec;11;429417977;4580243255;21560109;413706104
816674;Jard Fabià Puigserver, 0;Sants-Montjuïc;3;el Poble-sec;11;429436057;4580236161;21562279;413705481
44818;Pl Mossèn Clapés, 9999;Sant Andreu;9;Sant Andreu;60;432149023;4588119705;21877814;414417860
29274;Jard Sebastià Gasch, 0;Eixample;2;la Nova Esquerra de l'Eixample;9;429147106;4581167177;21526643;413789080
42110;Pl Pedró, 9999;Ciutat Vella;1;el Raval;1;430331812;4581249000;21668215;413797484
42252;C\ Bac de Roda, 171;Sant Martí;10;Sant Martí de Provençals;72;432840857;4584900622;21964198;414128510
46739;Jard Flora Tristán, 0;Eixample;2;la Sagrada Família;6;431488673;4583970107;21803474;414043560
61397;C\ Joan Cortada, 8;Horta-Guinardó;7;Can Baró;34;429781850;4585247331;21597813;414157122
47339;C\ Rossend Arús, 57;Sants-Montjuïc;3;la Bordeta;16;427985043;4580287164;21388731;413708789
49806;C\ Costa, 71;Sarria-Sant Gervasi;5;el Putxet i el Farró;27;428439307;4584757030;21437764;414111778
61045;Camí Cal Notari, 30;Horta-Guinardó;7;Horta;43;428956352;4588174961;21495605;414420075
87953;Jard Mercè Rovira, 0;Sant Andreu;9;la Sagrera;61;432163320;4585799428;21882129;414208893
86215;Pg Ciutat de Mallorca, 31;Nou Barris;8;Porta;45;431281613;4587181487;21775056;414332621
653967;Camí Antic de València, 3321;Sant Martí;10;Diagonal Mar i el Front Marítim del Poblenou;69;433595675;4584287259;22055179;414073893
61174;C\ Hortal, 74;Horta-Guinardó;7;el Carmel;37;429284899;4586005122;21537469;414224937
43693;Jard Can Miralletes, 0;Sant Martí;10;el Camp de l'Arpa del Clot;64;431406246;4585017030;21792427;414137782
43694;Jard Can Miralletes, 0;Sant Martí;10;el Camp de l'Arpa del Clot;64;431412374;4585029012;21793147;414138867
161362;C\ Ramon Trias Fargas, 24;Sant Martí;10;la Vila Olímpica del Poblenou;67;432556598;4582058720;21933355;413872309
161361;C\ Ramon Trias Fargas, 24;Sant Martí;10;la Vila Olímpica del Poblenou;67;432568915;4582020833;21934870;413868907
750537;Pg Sant Joan, 57;Eixample;2;la Dreta de l'Eixample;7;430983328;4582998774;21744130;413955643
750536;Pg Sant Joan, 57;Eixample;2;la Dreta de l'Eixample;7;430751174;4583282926;21716037;413981036
750990;Av Mare de Déu de Montserrat, 89;Horta-Guinardó;7;el Guinardó;35;430447763;4585262178;21677470;414159038
755861;Av Meridiana, 123;Sant Martí;10;el Camp de l'Arpa del Clot;64;431995055;4585012139;21862880;414137842
755860;Av Meridiana, 123;Sant Martí;10;el Camp de l'Arpa del Clot;64;432010410;4584998442;21864732;414136622
930180;Rbla Raval, 12;Ciutat Vella;1;el Raval;1;430498083;4581166897;21688191;413790233
42126;C\ Tàpies, 24;Ciutat Vella;1;el Raval;1;430570852;4580903419;21697195;413766566
61505;C\ Lírica, 7;Horta-Guinardó;7;Montbau;40;428491277;4587256979;21441025;414336984
209085;Pl Font de la Mulassa, 7;Horta-Guinardó;7;el Carmel;37;430049225;4585899029;21629050;414216051
61343;Parc Unitat, 0;Horta-Guinardó;7;Horta;43;429570462;4587581960;21569802;414367207
61341;Parc Unitat, 0;Horta-Guinardó;7;Horta;43;429563615;4587609496;21568950;414369681
61342;Parc Unitat, 0;Horta-Guinardó;7;Horta;43;429549979;4587598472;21567331;414368677
61258;C\ Can Travi, 35;Horta-Guinardó;7;la Vall d'Hebron;41;428982040;4587024719;21500032;414316501
694656;Pl Raimon Casellas, 7;Horta-Guinardó;7;Can Baró;34;429743968;4585285982;21593236;414160570
225686;C\ Juan de Mena, 2;Horta-Guinardó;7;la Vall d'Hebron;41;428838359;4586939869;21482937;414308732
225685;C\ Juan de Mena, 2;Horta-Guinardó;7;la Vall d'Hebron;41;428837445;4587001246;21482755;414314259
785307;C\ Còrsega, 195;Eixample;2;l'Antiga Esquerra de l'Eixample;8;428992027;4582471494;21506570;413906419
777670;C\ Còrsega, 195;Eixample;2;l'Antiga Esquerra de l'Eixample;8;428966478;4582486062;21503498;413907708
48828;Jard Rubió i Tudurí, 0;Les Corts;4;Pedralbes;21;425963940;4582630398;21144220;413918000
48829;Jard Rubió i Tudurí, 0;Les Corts;4;Pedralbes;21;425996416;4582649908;21148081;413919787
48745;Pl Mirall de Pedralbes, 1;Les Corts;4;Pedralbes;21;426876481;4582462322;21253564;413903697
48742;Pl Mirall de Pedralbes, 1;Les Corts;4;Pedralbes;21;426845097;4582507977;21249755;413907781
48743;Pl Mirall de Pedralbes, 1;Les Corts;4;Pedralbes;21;426862177;4582509974;21251796;413907976
48744;Pl Mirall de Pedralbes, 1;Les Corts;4;Pedralbes;21;426866917;4582493200;21252383;413906470
774056;Ctra Antiga de Mataró, 1;Sant Martí;10;el Parc i la Llacuna del Poblenou;66;432196891;4582660796;21889662;413926234
162729;Ctra Antiga de Mataró, 1;Sant Martí;10;el Parc i la Llacuna del Poblenou;66;432164533;4582645549;21885809;413924834
975323;Jard Sant Joan de Déu, 0;Les Corts;4;les Corts;19;427705230;4582314819;21352857;413891161
660433;C\ Fastenrath, 2730;Horta-Guinardó;7;el Carmel;37;429107657;4585822111;21516475;414208298
61183;Pl Meguidó, 0;Horta-Guinardó;7;Sant Genís dels Agudells;39;427946894;4586468386;21376814;414265473
61133;Pl Meguidó, 1;Horta-Guinardó;7;Sant Genís dels Agudells;39;427843346;4586429410;21364470;414261869
777827;Pas Valls, 0;Sants-Montjuïc;3;la Font de la Guatlla;14;428653567;4580203686;21468761;413701866
780973;C\ Marquès de Sentmenat, 37;Les Corts;4;les Corts;19;427739203;4581862199;21357460;413850426
938447;C\ Montsant, 18;Nou Barris;8;el Turó de la Peira;46;430743389;4587216819;21710602;414335341
85782;C\ Felanitx, 15;Nou Barris;8;Porta;45;430969341;4587441851;21737387;414355803
85738;C\ Alella, 65;Nou Barris;8;Porta;45;431103450;4587001326;21753939;414316242
86200;C\ Formentor, 7;Nou Barris;8;Porta;45;430952461;4587531925;21735263;414363901
86645;C\ Llerona, 40;Nou Barris;8;Torre Baró;54;431642481;4589697840;21815397;414559567
86571;Pl Francesc Layret, 4;Nou Barris;8;Verdun;51;431252163;4588210965;21770360;414425317
85923;C\ Amer, 2;Nou Barris;8;Can Peguera;47;430575784;4587354668;21690385;414347612
45219;C\ Miguel Hernández, 22;Nou Barris;8;Canyelles;49;430479357;4588334639;21677717;414435790
86031;C\ Federico García Lorca, 2;Nou Barris;8;Canyelles;49;430244015;4588227564;21649671;414425942
86030;C\ Federico García Lorca, 2;Nou Barris;8;Canyelles;49;430368066;4588216810;21664531;414425081
86221;C\ Petrarca, 23;Nou Barris;8;Vilapicina i la Torre Llobeta;44;430329195;4586722514;21661601;414290462
674464;C\ Luz Casanova, 6;Nou Barris;8;Verdun;51;431077209;4588406649;21749196;414442791
85589;C\ Isard, 27;Nou Barris;8;la Guineueta;48;430564383;4587906061;21688387;414397263
86328;C\ Artesania, 97;Nou Barris;8;les Roquetes;50;430787000;4588842882;21713958;414481831
86327;C\ Artesania, 97;Nou Barris;8;les Roquetes;50;430769895;4588800035;21711960;414477958
85630;Rda Guineueta Vella, 28;Nou Barris;8;Canyelles;49;430051344;4588201703;21626639;414423445
337188;Ptge Brull, 1;Nou Barris;8;Torre Baró;54;431248453;4589983803;21767898;414584986
337189;Ptge Brull, 1;Nou Barris;8;Torre Baró;54;431258247;4589964400;21769093;414583247
44399;C\ Lanzarote, 12;Sant Andreu;9;Sant Andreu;60;432342370;4587822425;21901289;414391249
828303;C\ Miquel Ferrà, 1;Nou Barris;8;Vilapicina i la Torre Llobeta;44;430907693;4586815527;21730724;414299339
86548;C\ Miquel Ferrà, 1;Nou Barris;8;Vilapicina i la Torre Llobeta;44;430912136;4586822071;21731249;414299933
44796;C\ Rubén Darío, 1;Sant Andreu;9;Sant Andreu;60;432232219;4587251988;21888745;414339778
44698;C\ Dragó, 1;Sant Andreu;9;Sant Andreu;60;432055427;4587843158;21866922;414392874
44234;C\ Cinca, 58;Sant Andreu;9;Sant Andreu;60;432557560;4587867621;21926995;414395500
337247;C\ Can Ros, 1500;Sant Andreu;9;el Congrés i els Indians;62;431784249;4586505541;21835974;414272169
44880;C\ Biscaia, 384;Sant Andreu;9;Navas;63;431993714;4585461099;21862215;414178278
44879;C\ Biscaia, 384;Sant Andreu;9;Navas;63;431970823;4585479379;21859455;414179905
44778;Pl Turó de la Trinitat, 77940;Sant Andreu;9;la Trinitat Vella;57;432614989;4589449913;21932103;414538060
42852;C\ Andrade, 131;Sant Martí;10;Sant Martí de Provençals;72;433184584;4585209390;22004981;414156606
85948;Pl Sant Francesc Xavier, 20;Nou Barris;8;Can Peguera;47;430185129;4587321782;21643669;414344311
28173;C\ Lorena, 79;Nou Barris;8;la Guineueta;48;430890669;4587708975;21727665;414379794
28174;C\ Lorena, 79;Nou Barris;8;la Guineueta;48;430843092;4587714168;21721965;414380221
28175;C\ Lorena, 79;Nou Barris;8;la Guineueta;48;430794483;4587716714;21716144;414380408
42842;C\ Bernat Desclot, 31;Sant Martí;10;el Besòs i el Maresme;70;434116568;4585637943;22116024;414195974
43001;Pl Creu Roja, 0;Sant Martí;10;Provençals del Poblenou;71;432608247;4584268363;21937073;414071369
43003;Pl Creu Roja, 0;Sant Martí;10;Provençals del Poblenou;71;432628822;4584293615;21939506;414073661
43002;Pl Creu Roja, 0;Sant Martí;10;Provençals del Poblenou;71;432610755;4584287641;21937351;414073108
44215;C\ Cinca, 78;Sant Andreu;9;Sant Andreu;60;432560019;4587983824;21927159;414405968
920040;Parc Castell de l'Oreneta, 9999;Sarria-Sant Gervasi;5;Sarrià;23;425746297;4583476068;21117153;413993965
842353;Parc Castell de l'Oreneta, 9999;Sarria-Sant Gervasi;5;Sarrià;23;425630300;4583514085;21103231;413997282
746036;Parc Castell de l'Oreneta, 9999;Sarria-Sant Gervasi;5;Sarrià;23;425728564;4583485301;21115021;413994781
45731;Parc Castell de l'Oreneta, 9999;Sarria-Sant Gervasi;5;Sarrià;23;425500145;4583502892;21087677;413996154
746039;Parc Castell de l'Oreneta, 9999;Sarria-Sant Gervasi;5;Sarrià;23;425759647;4583472487;21118754;413993655
746038;Parc Castell de l'Oreneta, 9999;Sarria-Sant Gervasi;5;Sarrià;23;425767568;4583487646;21119683;413995028
45732;Parc Castell de l'Oreneta, 9999;Sarria-Sant Gervasi;5;Sarrià;23;425489800;4583525956;21086411;413998221
46560;C\ Enric Granados, 147;Eixample;2;l'Antiga Esquerra de l'Eixample;8;429263296;4582876711;21538541;413943154
48557;C\ Numància, 100;Les Corts;4;les Corts;19;427825608;4581955819;21367682;413858936
48558;C\ Numància, 100;Les Corts;4;les Corts;19;427819467;4582037631;21366850;413866299
684135;C\ Dalmases, 76;Sarria-Sant Gervasi;5;les Tres Torres;24;427284947;4583882026;21300711;414031934
80482;C\ Quatre Camins, 43;Sarria-Sant Gervasi;5;Sant Gervasi - la Bonanova;25;427298892;4584616276;21301497;414098078
85708;C\ Vesuvi, 34;Nou Barris;8;la Prosperitat;52;431980801;4588528213;21857218;414454511
660980;Pl Roja de la Ciutat Meridiana, 0;Nou Barris;8;Ciutat Meridiana;55;431434044;4590295402;21789764;414613209
660979;Pl Roja de la Ciutat Meridiana, 0;Nou Barris;8;Ciutat Meridiana;55;431426517;4590290237;21788869;414612738
660975;Pl Roja de la Ciutat Meridiana, 0;Nou Barris;8;Ciutat Meridiana;55;431450938;4590310279;21791770;414614564
85755;Pl Sóller, 1;Nou Barris;8;Porta;45;431155494;4587315663;21759810;414344598
85754;Pl Sóller, 1;Nou Barris;8;Porta;45;431164467;4587273810;21760931;414340836
85727;Pl Torre Llobeta, 0;Nou Barris;8;Vilapicina i la Torre Llobeta;44;430989106;4586423099;21740915;414264065
672825;Pl Àngel Pestaña, 1;Nou Barris;8;la Prosperitat;52;431510525;4588105664;21801405;414416054
85684;Pl Àngel Pestaña, 1;Nou Barris;8;la Prosperitat;52;431525561;4588139497;21803166;414419114
925871;Via Favència, 48;Nou Barris;8;la Guineueta;48;430261139;4587927330;21652067;414398916
653813;Via Favència, 48;Nou Barris;8;la Guineueta;48;430377554;4588049578;21665860;414410028
38600;Parc Joan Miró, 860;Eixample;2;la Nova Esquerra de l'Eixample;9;428793845;4581138009;21484435;413786142
38598;Parc Joan Miró, 860;Eixample;2;la Nova Esquerra de l'Eixample;9;428771979;4581146514;21481810;413786888
38601;Parc Joan Miró, 860;Eixample;2;la Nova Esquerra de l'Eixample;9;428827187;4581082209;21488488;413781145
38599;Parc Joan Miró, 860;Eixample;2;la Nova Esquerra de l'Eixample;9;428790318;4581164581;21483982;413788532
38597;Parc Joan Miró, 860;Eixample;2;la Nova Esquerra de l'Eixample;9;428761665;4581152533;21480570;413787421
38596;Parc Joan Miró, 860;Eixample;2;la Nova Esquerra de l'Eixample;9;428761144;4581183875;21480471;413790244
931536;Parc La Pegaso, 0;Sant Andreu;9;la Sagrera;61;432227292;4586545803;21888947;414276171
138526;Parc La Pegaso, 0;Sant Andreu;9;la Sagrera;61;432209884;4586550770;21886858;414276603
138524;Parc La Pegaso, 0;Sant Andreu;9;la Sagrera;61;432184428;4586563626;21883797;414277740
138523;Parc La Pegaso, 0;Sant Andreu;9;la Sagrera;61;432129700;4586547214;21877267;414276215
138525;Parc La Pegaso, 0;Sant Andreu;9;la Sagrera;61;432191754;4586570995;21884666;414278410
161220;Jard Clot de la Mel, 0;Sant Martí;10;el Clot;65;432725628;4584831188;21950489;414122159
161219;Jard Clot de la Mel, 0;Sant Martí;10;el Clot;65;432702636;4584843332;21947725;414123234
161221;Jard Clot de la Mel, 0;Sant Martí;10;el Clot;65;432749969;4584801628;21953434;414119517
32676;Av Mistral, 68;Eixample;2;Sant Antoni;10;429177509;4580807983;21530698;413756756
32679;Av Mistral, 68;Eixample;2;Sant Antoni;10;429447209;4580894345;21562847;413764771
32678;Av Mistral, 68;Eixample;2;Sant Antoni;10;429270184;4580826596;21541758;413758514
32677;Av Mistral, 68;Eixample;2;Sant Antoni;10;429309267;4580844446;21546410;413760156
171659;Pg Valldaura, 207;Nou Barris;8;la Prosperitat;52;431331922;4587829692;21780341;414391045
30171;Jard Safo, 0;Eixample;2;la Nova Esquerra de l'Eixample;9;428591102;4581363361;21459926;413806259
29968;Jard Tete Montoliu, 0;Eixample;2;Sant Antoni;10;429562105;4581161164;21576275;413788903
29967;Jard Tete Montoliu, 0;Eixample;2;Sant Antoni;10;429547483;4581144333;21574546;413787375
29884;Jard Càndida Pérez, 0;Eixample;2;Sant Antoni;10;430028789;4581043818;21632216;413778741
660680;Jard Maria Matilde Almendros, 0;Eixample;2;Sant Antoni;10;429457573;4581214229;21563713;413793591
28866;Av Mistral, 10;Eixample;2;Sant Antoni;10;429671020;4580987292;21589501;413773338
61747;Pl Cosmos, 9;Horta-Guinardó;7;el Carmel;37;429193663;4586352979;21526145;414256187
61746;Pl Cosmos, 9;Horta-Guinardó;7;el Carmel;37;429174696;4586354671;21523873;414256323
61622;Pl Guinardó, 8;Horta-Guinardó;7;el Guinardó;35;431073501;4585881988;21751631;414215401
61444;C\ Santuari, 71;Horta-Guinardó;7;el Carmel;37;429248207;4585867361;21533240;414212497
61459;Pl Carles Cardó i Sanjoan, 0;Horta-Guinardó;7;el Guinardó;35;431360565;4585843238;21786024;414212157
61221;Jard Montbau, 0;Horta-Guinardó;7;Montbau;40;428446405;4587115845;21435822;414324233
659893;C\ Conca de Tremp, 4;Horta-Guinardó;7;el Carmel;37;429359801;4586203733;21546200;414242891
203690;Rbla Prim, 59;Sant Martí;10;el Besòs i el Maresme;70;434313266;4585103628;22140140;414148011
204359;Rbla Prim, 71;Sant Martí;10;el Besòs i el Maresme;70;434279949;4585135843;22136119;414150885
97742;Jard Manuel Sacristán, 0;Sant Martí;10;Diagonal Mar i el Front Marítim del Poblenou;69;434196545;4583858802;22127529;414035797
97269;Jard Josep Maria Sostres, 0;Sant Martí;10;Diagonal Mar i el Front Marítim del Poblenou;69;434266630;4583972137;22135790;414046062
96812;Jard Carles Barral, 0;Sant Martí;10;Diagonal Mar i el Front Marítim del Poblenou;69;434101918;4583777554;22116297;414028402
206909;Jard Beatriu de Provença, 0;Eixample;2;la Sagrada Família;6;430801789;4583676338;21721641;414016513
206920;Jard Beatriu de Pinós-Milany, 0;Eixample;2;l'Antiga Esquerra de l'Eixample;8;429002145;4582292083;21507991;413890269
847011;C\ Alfons el Magnànim, 27;Sant Martí;10;el Besòs i el Maresme;70;434465593;4585156857;22158308;414152929
43661;C\ Alfons el Magnànim, 27;Sant Martí;10;el Besòs i el Maresme;70;434351397;4585268238;22144524;414162868
43662;C\ Alfons el Magnànim, 27;Sant Martí;10;el Besòs i el Maresme;70;434392141;4585225289;22149445;414159033
661371;Jard Irene Polo, 0;Sant Martí;10;Provençals del Poblenou;71;432611947;4584160379;21937636;414061646
44242;C\ Vicenç Montal, 2;Sant Andreu;9;la Trinitat Vella;57;432635685;4589415633;21934619;414534990
44660;Pg Maragall, 9999;Sant Andreu;9;Navas;63;431549520;4585471034;21809055;414178795
660966;Jard Juan Ponce, 0;Horta-Guinardó;7;el Carmel;37;429497391;4585534115;21563445;414182702
660967;Jard Juan Ponce, 0;Horta-Guinardó;7;el Carmel;37;429518782;4585530575;21566008;414182402
660968;Jard Juan Ponce, 0;Horta-Guinardó;7;el Carmel;37;429488347;4585521922;21562377;414181596
47545;Pl Ildefons Cerdà, 72270;Sants-Montjuïc;3;la Marina de Port;13;427660197;4579420492;21350926;413630440
47546;Pl Ildefons Cerdà, 72270;Sants-Montjuïc;3;la Marina de Port;13;427733227;4579485503;21359579;413636361
254061;C\ Joaquim Valls, 11;Nou Barris;8;la Prosperitat;52;431818374;4588218461;21838125;414426475
254060;C\ Joaquim Valls, 11;Nou Barris;8;la Prosperitat;52;431809642;4588197476;21837104;414424577
254080;Pl Jesús Carrasco, 0;Nou Barris;8;Verdun;51;431221827;4588473334;21766431;414448921
54577;Pl Revolució Setembre 1868, 18;Gracia;6;la Vila de Gràcia;31;429625598;4583793705;21580809;414026063
86671;Ctra C-17 (Barcelona), 5;Nou Barris;8;Torre Baró;54;431964038;4589841649;21853732;414572793
86557;C\ Peñalara, 24;Nou Barris;8;el Turó de la Peira;46;430772821;4586923007;21714461;414308904
89130;C\ Virgili, 1;Sant Andreu;9;Sant Andreu;60;432595654;4586761079;21932788;414295870
51392;C\ Doctor Farreras i Valentí, 15;Sarria-Sant Gervasi;5;Sarrià;23;426344266;4583214708;21188997;413970976
86432;Via Favència, 388;Nou Barris;8;la Prosperitat;52;431677018;4588570356;21820807;414458049
50304;Pg Sant Joan Bosco, 1;Sarria-Sant Gervasi;5;Sarrià;23;427108373;4582807435;21280883;413934991
86252;Av Rasos de Peguera, 49;Nou Barris;8;Ciutat Meridiana;55;431207106;4590114404;21762799;414596713
86319;C\ Rosario Pi, 10;Nou Barris;8;el Turó de la Peira;46;430819463;4586989275;21719967;414314912
49748;Jard Enric Sagnier, 0;Sarria-Sant Gervasi;5;Sant Gervasi - Galvany;26;428472248;4583730136;21442918;414019319
49798;Ctra Vallvidrera a les Planes, 3;Sarria-Sant Gervasi;5;Vallvidrera, el Tibidabo i les Planes;22;424603135;4585659306;20977694;414189534
49568;Pl Pep Ventura, 9999;Sarria-Sant Gervasi;5;Vallvidrera, el Tibidabo i les Planes;22;425232577;4585137158;21053653;414143095
49662;Rier Monges, 0;Sarria-Sant Gervasi;5;Sarrià;23;426173823;4583857040;21167827;414028671
49446;E.M. Tibidabo, 51062;Sarria-Sant Gervasi;5;Sant Gervasi - la Bonanova;25;427862512;4584620890;21368920;414099001
49126;Jard Josep Goday i Casals, 0;Les Corts;4;la Maternitat i Sant Ramon;20;426893324;4581154269;21257157;413785902
49127;Jard Josep Goday i Casals, 0;Les Corts;4;la Maternitat i Sant Ramon;20;426926372;4581133876;21261133;413784095
47768;C\ Font Florida, 102;Sants-Montjuïc;3;la Font de la Guatlla;14;428163774;4579895417;21410565;413673666
47767;C\ Font Florida, 102;Sants-Montjuïc;3;la Font de la Guatlla;14;428134149;4579837434;21407092;413668417
906467;Av Rasos de Peguera, 48;Nou Barris;8;Ciutat Meridiana;55;431323803;4590279231;21776583;414611659
46942;Parc Can Sabater, 0;Sants-Montjuïc;3;la Marina de Port;13;427884217;4579500033;21377612;413637805
46943;Parc Can Sabater, 0;Sants-Montjuïc;3;la Marina de Port;13;427891052;4579469606;21378466;413635071
46945;Parc Can Sabater, 0;Sants-Montjuïc;3;la Marina de Port;13;427914691;4579388151;21381389;413627755
46944;Parc Can Sabater, 0;Sants-Montjuïc;3;la Marina de Port;13;427907841;4579416198;21380536;413630275
86097;C\ Pedraforca, 42;Nou Barris;8;Ciutat Meridiana;55;431140066;4590441766;21754399;414626140
46582;C\ Roger de Flor, 146;Eixample;2;la Dreta de l'Eixample;7;431055818;4583198569;21752573;413973700
693667;Pl Assemblea de Catalunya, 1690;Sant Andreu;9;la Sagrera;61;432152274;4586238361;21880315;414248417
693666;Pl Assemblea de Catalunya, 1690;Sant Andreu;9;la Sagrera;61;432153975;4586226884;21880531;414247385
61504;C\ Arquitectura, 9;Horta-Guinardó;7;Montbau;40;428221340;4586743109;21409330;414290461
86610;Pl Aqüeducte, 0;Nou Barris;8;Ciutat Meridiana;55;431259839;4590173660;21769045;414602096
162643;Rbla Prim, 22;Sant Martí;10;el Besòs i el Maresme;70;434464445;4585017514;22158321;414140378
162642;Rbla Prim, 22;Sant Martí;10;el Besòs i el Maresme;70;434544548;4584912837;22168019;414131015