register_id;name;created;modified;addresses_road_id;addresses_road_name;addresses_start_street_number;addresses_end_street_number;neighbourhood_code;neighbourhood_name;district_code;district_name;zip_code;addresses_town;addresses_main_address;addresses_type;values_id;values_attribute_id;values_category;values_attribute_name;values_outstanding;secondary_filters_id;secondary_filters_name;secondary_filters_fullpath;secondary_filters_tree;secondary_filters_asia_id;geo_epgs_25831_x;geo_epgs_25831_y;geo_epgs_4326_x;geo_epgs_4326_y
﻿99400234956;Punt Verd de Barri - Nova Esquerra de l'Eixample;29.10.09 12:32;14.11.22 11:10;285807;C Rocafort;226;;9;la Nova Esquerra de l'Eixample;2;Eixample;8029;BARCELONA;WAHR;;222852;100050;Telèfons;No tenen telèfon;WAHR;65731069;Punts verds de barri;Planol BCN >> Medi ambient >> Medi ambient >> Punts verds de barri;651;6,5103E+13;4,28599E+16;4,58192E+15;4,13857E+15;2,14602E+16
﻿99400234223;Punt Verd de Barri - Barcardí;21.10.09 14:37;14.11.22 11:01;343903;Trav Corts;122;;20;la Maternitat i Sant Ramon;4;Les Corts;8028;BARCELONA;WAHR;;222587;100050;Telèfons;No tenen telèfon;WAHR;65731069;Punts verds de barri;Planol BCN >> Medi ambient >> Medi ambient >> Punts verds de barri;651;6,5103E+13;4,26823E+15;4,58128E+15;4,13797E+15;2,12486E+16
﻿99400234963;Punt Verd de Barri - Horta-Carmel;29.10.09 13:32;14.11.22 11:06;97807;C Dante Alighieri;77;;37;el Carmel;7;Horta-Guinardó;8032;BARCELONA;WAHR;;222960;100050;Telèfons;No tenen telèfon;WAHR;65731069;Punts verds de barri;Planol BCN >> Medi ambient >> Medi ambient >> Punts verds de barri;651;6,5103E+13;4,29627E+13;4,58657E+15;4,14276E+16;2,15777E+15
﻿99400237316;Punt Verd de Barri - Ciutat Meridiana;30.11.09 14:49;14.11.22 11:03;92950;C Costabona;4;;55;Ciutat Meridiana;8;Nou Barris;8033;BARCELONA;WAHR;;222707;100050;Telèfons;No tenen telèfon;WAHR;65731069;Punts verds de barri;Planol BCN >> Medi ambient >> Medi ambient >> Punts verds de barri;651;6,5103E+13;4,31337E+15;4,59034E+16;4,14617E+15;2,17781E+16
﻿99400420619;Punt Verd de Barri - Mercat del Ninot;05.02.16 09:56;14.11.22 11:10;191204;C Mallorca;157;;8;l'Antiga Esquerra de l'Eixample;2;Eixample;8036;BARCELONA;WAHR;;;;;;;65731069;Punts verds de barri;Planol BCN >> Medi ambient >> Medi ambient >> Punts verds de barri;651;6,5103E+13;4,29267E+16;4,58221E+15;4,13883E+15;2,15398E+16
﻿99400237319;Punt Verd de Barri - Les Roquetes;30.11.09 00:00;14.11.22 11:09;4409;C Aiguablava;1;;53;la Trinitat Nova;8;Nou Barris;8042;BARCELONA;WAHR;;222942;100050;Telèfons;No tenen telèfon;WAHR;65731069;Punts verds de barri;Planol BCN >> Medi ambient >> Medi ambient >> Punts verds de barri;651;6,5103E+13;4,31526E+15;4,58875E+15;4,14474E+15;2,18026E+15
﻿99400315466;Punt Verd de Barri - Barceloneta;11.04.13 14:52;14.11.22 11:23;294874;Pg Salvat Papasseit;3;;3;la Barceloneta;1;Ciutat Vella;8003;BARCELONA;WAHR;;225645;100050;Telèfons;No tenen telèfon;WAHR;65731069;Punts verds de barri;Planol BCN >> Medi ambient >> Medi ambient >> Punts verds de barri;651;6,5103E+13;4,32423E+15;4,58145E+14;4,13817E+15;2,19181E+16
﻿99400027263;Punt Verd de Barri - Clot;18.11.02 10:03;14.11.22 11:04;113506;C Escultors Claperós;51;;65;el Clot;10;Sant Martí;8018;BARCELONA;WAHR;;205767;100050;Telèfons;No tenen telèfon;WAHR;65731069;Punts verds de barri;Planol BCN >> Medi ambient >> Medi ambient >> Punts verds de barri;651;6,5103E+13;4,32353E+15;4,58433E+15;4,14077E+15;2,19064E+16
﻿99400274395;Punt Verd de Barri - Poblenou;13.07.11 12:11;14.11.22 11:12;75702;C Carmen Amaya;10;;68;el Poblenou;10;Sant Martí;8005;BARCELONA;WAHR;;224584;100050;Telèfons;No tenen telèfon;WAHR;65731069;Punts verds de barri;Planol BCN >> Medi ambient >> Medi ambient >> Punts verds de barri;651;6,5103E+13;4,33537E+15;4,58301E+15;4,13958E+14;2,20496E+16
﻿99400171807;Punt Verd de Barri - Sant Martí de Provençals;14.11.06 11:30;14.11.22 11:19;15201;C Andrade;150;;72;Sant Martí de Provençals;10;Sant Martí;8020;BARCELONA;WAHR;;216267;100050;Telèfons;No tenen telèfon;WAHR;65731069;Punts verds de barri;Planol BCN >> Medi ambient >> Medi ambient >> Punts verds de barri;651;6,5103E+13;4,33206E+16;4,58519E+15;4,14155E+15;2,20075E+16
﻿99400620298;Punt Verd de Barri de Sarrià;14.02.19 12:35;14.11.22 11:29;65301;C Cardenal Sentmenat;6;;23;Sarrià;5;Sarrià-Sant Gervasi;8017;BARCELONA;WAHR;;232726;100050;Telèfons;No tenen telèfon;WAHR;65731069;Punts verds de barri;Planol BCN >> Medi ambient >> Medi ambient >> Punts verds de barri;651;6,5103E+13;4,26985E+15;4,58323E+15;4,13973E+16;2,12656E+15
﻿99400260415;Punt Verd de Barri - Sant Andreu Nord;30.11.10 12:14;14.11.22 11:16;700645;Pl M Casablancas Joanico;4;;60;Sant Andreu;9;Sant Andreu;8030;BARCELONA;WAHR;;223676;100050;Telèfons;No tenen telèfon;WAHR;65731069;Punts verds de barri;Planol BCN >> Medi ambient >> Medi ambient >> Punts verds de barri;651;6,5103E+13;4,32001E+16;4,58785E+15;4,14393E+15;2,18603E+16
﻿99400172226;Punt Verd de Barri - Fort Pienc;21.11.06 13:35;14.11.22 11:05;701420;Pl Fort Pienc;3;;5;el Fort Pienc;2;Eixample;8013;BARCELONA;WAHR;;216294;100050;Telèfons;No tenen telèfon;WAHR;65731069;Punts verds de barri;Planol BCN >> Medi ambient >> Medi ambient >> Punts verds de barri;651;6,5103E+13;4,31632E+15;4,58291E+15;4,13948E+15;2,18218E+15
﻿99400647940;Punt Verd de Barri -  Jardins de les Tres Torres;10.02.20 18:10;14.11.22 11:00;143904;Rda General Mitre;76;;26;Sant Gervasi - Galvany;5;Sarrià-Sant Gervasi;8017;BARCELONA;WAHR;;;;;;;65731069;Punts verds de barri;Planol BCN >> Medi ambient >> Medi ambient >> Punts verds de barri;651;6,5103E+13;4,27589E+15;4,58338E+12;4,13987E+15;2,13377E+15
﻿99400646326;Punt Verd de Barri - Vallespir;16.01.20 10:25;14.11.22 11:28;352904;C Vallespir;14;;18;Sants;3;Sants-Montjuïc;8014;BARCELONA;WAHR;;;;;;;65731069;Punts verds de barri;Planol BCN >> Medi ambient >> Medi ambient >> Punts verds de barri;651;6,5103E+13;4,27911E+16;4,58113E+15;4,13784E+15;2,13789E+16
﻿99400161240;Punt Verd de Barri - Folch i Torres;31.05.06 12:07;14.11.22 11:05;170500;Pl Josep M Folch i Torres;1;;1;el Raval;1;Ciutat Vella;8001;BARCELONA;WAHR;;216032;100050;Telèfons;No tenen telèfon;WAHR;65731069;Punts verds de barri;Planol BCN >> Medi ambient >> Medi ambient >> Punts verds de barri;651;6,5103E+13;4,30353E+15;4,58093E+14;4,13769E+14;2,16712E+15
﻿99400028442;Punt Verd de Barri - Vallvidrera;29.11.02 10:14;14.11.22 11:29;280803;Carrer d'Elisa Moragas i Badia;40;;22;Vallvidrera, el Tibidabo i les Planes;5;Sarrià-Sant Gervasi;8017;Barcelona;WAHR;;205978;100050;Telèfons;No tenen telèfon;WAHR;65731069;Punts verds de barri;Planol BCN >> Medi ambient >> Medi ambient >> Punts verds de barri;651;6,5103E+13;4,24936E+15;4,58533E+15;4,14161E+15;2,10179E+16
﻿99400038444;Punt Verd de Barri - Poble-sec;29.04.03 10:07;14.11.22 11:11;241404;C Palaudàries;12;;11;el Poble-sec;3;Sants-Montjuïc;8004;BARCELONA;WAHR;;207738;100050;Telèfons;No tenen telèfon;WAHR;65731069;Punts verds de barri;Planol BCN >> Medi ambient >> Medi ambient >> Punts verds de barri;651;6,5103E+13;4,30831E+15;4,58064E+15;4,13743E+15;2,17286E+16
﻿99400581924;Punt Verd de Barri - Av. Vallcarca;03.04.18 14:08;14.11.22 11:00;158107;Av Vallcarca;71;;28;Vallcarca i els Penitents;6;Gràcia;8023;BARCELONA;WAHR;;;;;;;65731069;Punts verds de barri;Planol BCN >> Medi ambient >> Medi ambient >> Punts verds de barri;651;6,5103E+13;4,28697E+15;4,58466E+15;4,14103E+15;2,14687E+15
﻿99400262792;Punt Verd de Barri - Les Corts;11.01.11 12:08;14.11.22 11:08;227800;C Nicaragua;101;;19;les Corts;4;Les Corts;8029;BARCELONA;WAHR;;223370;100050;Telèfons;No tenen telèfon;WAHR;65731069;Punts verds de barri;Planol BCN >> Medi ambient >> Medi ambient >> Punts verds de barri;651;6,5103E+13;4,27948E+15;4,58192E+15;4,13855E+15;2,13824E+14
﻿99400234967;Punt Verd de Barri - Turó de la Peira;29.10.09 14:26;14.11.22 11:21;250802;Pg Peira;1;;46;el Turó de la Peira;8;Nou Barris;8031;BARCELONA;WAHR;;222680;100050;Telèfons;No tenen telèfon;WAHR;65731069;Punts verds de barri;Planol BCN >> Medi ambient >> Medi ambient >> Punts verds de barri;651;6,5103E+13;4,30586E+15;4,58693E+15;4,14309E+15;2,16921E+16
﻿99400046207;Punt Verd de Barri - Gal·la Placídia;18.06.03 09:36;14.11.22 11:06;138405;Pl Gal.la Placídia;12;;31;la Vila de Gràcia;6;Gràcia;8006;BARCELONA;WAHR;;207290;100050;Telèfons;No tenen telèfon;WAHR;65731069;Punts verds de barri;Planol BCN >> Medi ambient >> Medi ambient >> Punts verds de barri;651;6,5103E+13;4,29222E+16;4,58338E+15;4,13988E+14;2,1533E+14
﻿99400035494;Punt Verd de Barri - Sagrada Família;11.03.03 14:06;14.11.22 11:12;178308;C Lepant;281;;6;la Sagrada Família;2;Eixample;8013;BARCELONA;WAHR;;;;;;;65731069;Punts verds de barri;Planol BCN >> Medi ambient >> Medi ambient >> Punts verds de barri;651;6,5103E+13;4,31105E+14;4,58405E+15;4,1405E+15;2,17575E+15
﻿99400274262;Punt Verd de Barri - La Bordeta;11.07.11 00:00;14.11.22 11:07;91709;C Corral;2;;16;la Bordeta;3;Sants-Montjuïc;8014;BARCELONA;WAHR;;224714;100050;Telèfons;No tenen telèfon;WAHR;65731069;Punts verds de barri;Planol BCN >> Medi ambient >> Medi ambient >> Punts verds de barri;651;6,5103E+13;4,28201E+16;4,58031E+15;4,13711E+15;2,14146E+15
﻿99400035497;Punt Verd de Barri - Sant Andreu;11.03.03 14:23;14.11.22 11:15;290159;C Rovira i Virgili;14;;60;Sant Andreu;9;Sant Andreu;8030;BARCELONA;WAHR;;206355;100050;Telèfons;No tenen telèfon;WAHR;65731069;Punts verds de barri;Planol BCN >> Medi ambient >> Medi ambient >> Punts verds de barri;651;6,5103E+13;4,32188E+15;4,58665E+15;4,14285E+15;2,18841E+15
﻿99400038990;Punt Verd de Barri - Horta-Guinardó;07.05.03 10:10;14.11.22 11:07;192604;C Mas Casanovas;74;;35;el Guinardó;7;Horta-Guinardó;8041;BARCELONA;WAHR;;207822;100050;Telèfons;No tenen telèfon;WAHR;65731069;Punts verds de barri;Planol BCN >> Medi ambient >> Medi ambient >> Punts verds de barri;651;6,5103E+13;4,30859E+16;4,58512E+15;4,14147E+15;2,17268E+15
﻿99400076499;Punt Verd de Barri  - Mercat de Sant Antoni;11.03.04 17:21;14.11.22 10:58;329902;C Tamarit;169;;10;Sant Antoni;2;Eixample;8015;BARCELONA;WAHR;;;;;;;65731069;Punts verds de barri;Planol BCN >> Medi ambient >> Medi ambient >> Punts verds de barri;651;6,5103E+13;4,2987E+16;4,58118E+15;4,13791E+15;2,16131E+16